id,name,phone,address,lat,lng
45,南屯店,04-2376-1035,台中市西區南屯路一段21號,24.131847,120.66668899999999
62,黎明永春店,04-2389-5938,台中市南屯區黎明路一段1021號,24.137826899999997,120.63716699999999
72,豐原社口店,04-2561-2520,台中市神岡區社口村中山路490號,24.2469322,120.6859919
6,大里中興店,04-2483-4783,台中市大里區中興路二段386之13號,24.106606399999997,120.68982849999999
49,沙鹿靜宜店,04-2652-3432,台中市沙鹿區北勢東路519號,24.2260068,120.57558629999998
40,寧夏店,04-2315-5086,台中市西屯區寧夏路205-1號,24.169833800000003,120.6595121
48,沙鹿中山店,04-2662-1882,台中市沙鹿區中山路187號,24.237212200000002,120.56380659999999
41,黎明二店,04-2452-6538,台中市西屯區黎明路三段329號,24.179914899999996,120.63737479999999
36,東興一店,04-2320-5500,台中市西屯區東興路三段416號(近永豐棧酒店),24.158313,120.65528629999999
22,北平店,04-2299-3093,台中市北區北平路二段168號,24.1712418,120.67742379999999
81,豐原三民店,04-2520-5502,台中市豐原區三民路112號,24.253674,120.71988799999998
5,大里中興二店,04-2495-3980,台中市大里區中興路一段197號,24.090091,120.6930458
9,大雅民生店,04-2568-2533,台中市大雅區民生路一段181號,24.227376500000002,120.6502646
2,大甲蔣公店,04-2688-0150,台中市大甲區蔣公路161號1F,24.346323499999997,120.62142220000001
57,向上二店(原黎明一),04-2380-3575,台中市南屯區向上路二段472號,24.146992,120.636733
69,興大學府店,04-2285-5515,台中市南區學府路40號,24.125514600000002,120.6752233
50,沙鹿鹿寮店,04-2665-7900,台中市沙鹿區成功東街58號,24.242048899999997,120.5628982
54,大墩一店,04-2473-6708,台中市南屯區大墩路271號,24.143273,120.649675
7,大里成功店,04-2496-3457,台中市大里區成功二路6號,24.0922304,120.70366229999999
19,崇德店,04-2246-3233,台中市北屯區崇德路二段289號,24.1771452,120.68561869999999
61,東興二店,04-2473-3918,台中市南屯區東興路二段5號,24.1362086,120.65278700000002
34,中科玉門店,04-2463-0138,台中市西屯區玉門路104號,24.186866000000002,120.61039099999999
18,松竹店,04-2247-3400,台中市北屯區松竹路二段101號,24.1828701,120.69748500000001
3,大肚店,04-2699-2436,台中市大肚區沙田路二段638號,24.150922199999997,120.5455118
35,中科店,04-2461-8766,台中市西屯區西屯路三段164-23號,24.188801899999998,120.617131
8,清泉崗店,04-2565-1488,台中市大雅區中清路四段307之1號1F,24.2306742,120.6407102
20,一中店,04-2225-6688,台中市北區一中街87-1號,24.1500424,120.68517800000001
46,美村一店,04-2320-6326,台中市西區美村路一段141號,24.151657,120.66196599999999
47,美村二店,04-2375-8448,台中市西區美村路一段763號,24.133512200000002,120.66184309999998
51,大智店,04-2221-9899,台中市東區大智路9號,24.136129999999998,120.68835
70,烏日中山店,04-2336-9583,台中市烏日區中山路一段462號,24.107315300000003,120.63622120000001
25,健行店,04-2208-3365,台中市北區健行路516號,24.1592862,120.6792324
16,昌平店,04-2238-9699,台中市北屯區昌平路一段210號,24.1698461,120.69179229999999
4,大里大明店,04-2482-1333,台中市大里區大明路328號,24.115299,120.681299
83,豐原南陽店,04-2515-8833,台中市豐原區南陽路309之2號,24.245531,120.726207
37,河南店,04-2452-9800,台中市西屯區河南路二段396號,24.17315,120.646243
64,黎明一店(原大業),04-2253-3226,台中市南屯區黎明路二段368號,24.150512,120.635602
67,忠孝店,04-2285-5810,台中市南區忠孝路160號,24.129552,120.68240700000001
1,大甲順天店,04-2686-3090,台中市大甲區順天路196號,24.3462002,120.62402990000001
66,復興店,04-2262-7758,台中市南區工學里復興路一段487號,24.1174507,120.6579013
27,漢口一店,04-2231-9228,台中市北區漢口路四段369-3號,24.167328,120.68334899999999
75,中興嶺店,04-2582-5382,台中市新社區中興村170號,24.205417999999998,120.794518
65,大慶店,04-2260-2913,台中市南區大慶街二段6之5號,24.1174907,120.6491977
55,大墩二店,04-2320-7120,台中市南屯區大墩路803號,24.1548883,120.64953259999999
39,七期朝富店,04-2252-1177,台中市西屯區朝富路142號,24.1650757,120.6363291
11,太平中山店,04-2395-3980,台中市太平區中山路四段208號,24.148221,120.70221640000001
17,東山店,04-2436-9970,台中市北屯區東山路一段138之1號,24.1695122,120.7028894
77,潭子頭張店,04-2531-0533,台中市潭子區頭張路一段123號,24.1945003,120.69884270000001
43,繼光店,04-2229-3555,台中市西區民權路59號1樓,24.136825899999998,120.68082
26,漢口二店,04-2295-2282,台中市北區漢口路三段223號,24.167131,120.671668
53,豐勢店,04-2587-2727,台中市東勢區豐勢路218號,24.2509089,120.83030420000001
79,東海二店(原國際),04-2652-7886,台中市龍井區新興路19-1號,24.18084,120.5898854
33,逢甲文華店,04-2451-0551,台中市西屯區文華路100號之3,24.181634699999996,120.64641470000001
13,太平樹孝店,04-2395-5506,台中市太平區樹孝路43-3號,24.150861499999998,120.7164672
10,公園店,04-2223-7886,台中市中區公園路28號,24.1452687,120.6814358
42,民生店,04-2229-8088,台中市西區民生路163號,24.1428325,120.6707998
52,東勢中山店,04-2587-5507,台中市東勢區中山路51號,24.257008600000002,120.8296422
76,潭子勝利店,04-2534-3191,台中市潭子區勝利路340號,24.2140192,120.7006982
30,后里四村店,04-2556-7666,台中市后里區四村路106號,24.305449399999997,120.7132942
58,向心南店,04-2472-6575,台中市南屯區向心南路972號,24.1374141,120.644001
56,公益店,04-2327-2655,台中市南屯區公益路二段158號,24.1510876,120.6479294
71,豐原豐州店,04-2527-8833,台中市神岡區五權路97號,24.257226,120.7122342
68,美村南店,04-2261-3558,台中市南區美村南路235號,24.114913,120.66669099999999
15,四平店,04-2422-3458,台中市北屯區四平路435號,24.1909081,120.68089340000002
29,雙十店,04-2223-5255,台中市北區雙十路二段33號,24.1528196,120.6887338
38,青海店,04-2315-5088,台中市西屯區青海路一段152號,24.16541,120.653485
73,梧棲店,04-2657-3046,台中市梧棲區文化里文化路二段117號,24.254969,120.53033899999998
32,世貿店,04-2355-3700,台中市西屯區中工三路36號,24.1801385,120.61918290000001
78,龍井中央店,04-2630-7227,台中市龍井區中央路二段164號,24.207415700000002,120.523748
28,學士店,04-2206-8891,台中市北區學士路45號,24.154095,120.682065
31,后里甲后店,04-2557-6606,台中市后里區甲后路387號,24.3175056,120.67126850000001
12,太平太平店,04-2276-5466,台中市太平區中興路95號,24.127371,120.71614299999999
84,霧峰店,04-2333-7597,台中市霧峰區中正路861號,24.063639300000002,120.6984683
59,嶺東店,04-2380-8356,台中市南屯區忠勇路43-4號,24.139340899999997,120.61269509999998
24,英才店,04-2203-8190,台中市北區英才路304號,24.1558953,120.6708544
82,豐原中正店,04-2525-5062,台中市豐原區中正路725號,24.24888,120.70118500000001
60,忠勇店,04-2380-8707,台中市南屯區忠勇路80-26-1號,24.1529888,120.61658919999999
21,一中二店,04-2226-1616,台中市北區太平路85號,24.1479249,120.683769
63,黎明三店,04-2479-1332,台中市南屯區黎明路一段51號,24.113395899999997,120.625694
80,東海店,04-2633-7720,台中市龍井區遊園南路218號,24.181852600000003,120.58394640000002
74,清水中山店,04-2622-6999,台中市清水區中山路297號,24.270717,120.575877
23,西屯店,04-2329-6608,台中市北區西屯路一段339號,24.159956,120.66548
44,向上店,04-2310-1313,台中市西區向上路一段388-1號,24.146964899999997,120.655799
14,水湳店,04-2296-6555,台中市北屯區中清路二段367號,24.1793623,120.66756240000001
28,德興店,06-2635445,台南市南區德興路14號,22.966867800000003,120.19208059999998
6,南門店,06-2132255,台南市中西區南門路257號,22.981845,120.20387099999999
11,大橋店,06-2043977,台南市永康區大橋二街46號,23.0188521,120.227501
17,中華東店,06-2678877,台南市東區中華東路3段152號,22.9783783,120.2267024
22,崇學店,06-2601678,台南市東區崇學路190號,22.9819053,120.22551509999998
26,金華二店,06-2230111,台南市南區金華路2段262號,22.981898100000002,120.191768
5,青年店,06-2292227,台南市中西區青年路136號,22.991751100000002,120.209278
9,長榮店,06-2008366,台南市北區長榮路5段39號,23.008048199999998,120.2206206
2,赤崁店,06-2238688,台南市中西區民族路2段260號,22.9975,120.201072
13,中華店,06-3027616,台南市永康區中華路523號,23.012399600000002,120.23135020000001
10,南園店,06-2760490,台南市北區南園街118號,23.007479699999998,120.22556429999999
7,公園路,06-2526049,台南市北區公園路790號,23.0116176,120.21126149999999
19,成大店,06-2755050,台南市東區長榮路三段22號,22.9926671,120.221878
23,富農店,06-2674641,台南市東區富農街二段111號,22.988027300000002,120.2354439
15,安平店,06-2505252,台南市安平區安平路3761號,22.9981689,120.1756209
29,灣裡店,06-2628291,台南市南區灣裡路264號,22.9270777,120.18192909999999
18,東門店,06-3358899,台南市東區東門路2段176號,22.9852642,120.2227756
3,府前店,06-2147000,台南市中西區府前路1段369號,22.9904859,120.1975012
8,文賢店,06-2595979,台南市北區文賢路466號,23.005806399999997,120.1937375
20,崇善店,06-3359888,台南市東區崇善路5951號,22.971673499999998,120.23020700000001
12,大灣店,06-2055555,台南市永康區大灣路801號,22.999561,120.25641599999999
24,大同店,06-2152222,台南市南區大同路2段428號,22.9740701,120.2143825
25,文南店,06-2611131,台南市南區文南路327號,22.987621,120.18996399999999
16,大林店,06-2135899,台南市東區大同路2段118號,22.9797458,120.2125217
4,金華店,06-2263698,台南市中西區金華路3段160號,22.9773185,120.1911706
21,市醫店,06-3364668,台南市東區崇德路664號,22.9693453,120.22739340000001
1,民族店,06-2250577,台南市中西區民族路2段135號,22.9949327,120.2075754
27,新孝店,06-2632007,台南市南區新孝路27號,22.977513199999997,120.19024009999998
14,平通店,06-2985252,台南市安平區平通路426號,22.9933902,120.17403590000002
6,新竹林森店,03-5220200,新竹市東區林森路140號,24.7999504,120.9653335
3,新竹民生店,03-5456565,新竹市東區民生路105號,24.809516000000002,120.97736780000001
8,新竹南大店,03-5616350,新竹市東區南大路396號,24.797821,120.969586
11,新竹寶山店,03-6661357,新竹市東區寶山路408之1號,24.7858525,120.9883557
13,新竹大庄店,03-5401232,新竹市香山區大庄路88號,24.790764000000003,120.92653700000001
5,新竹東門店,03-5252678,新竹市東區東門街113號,24.8040622,120.9688031
9,新竹育賢店,03-5629988,新竹市東區南大路832號,24.788380399999998,120.96675570000001
2,新竹馬偕店,03-5165006,新竹市東區水源街61號1F,24.800829999999998,120.99150359999999
12,新竹清大店,03-5751166,新竹市東區建新路50號,24.798264,120.99728700000001
4,新竹竹科店,03-5783123,新竹市東區光復路一段366號,24.784243,121.015703
10,新竹食品店,03-5628050,新竹市東區食品路184號 ,24.797254000000002,120.975958
7,新竹金山店,03-5645599,新竹市東區金山七街31號,24.7783177,121.0203643
1,新竹中正店,03-5438234,新竹市北區中正路398號,24.8148677,120.96241200000001
4,竹北博愛店,03-5556236,新竹縣竹北市博愛街224號 ,24.8339122,121.0072622
7,新竹新埔店,03-5895050,新竹縣新埔鎮四座里中正路300號,24.827601,121.080773
3,竹北莊敬店,03-6587585,新竹縣竹北市莊敬5街35號,24.822056600000003,121.02619640000002
9,新豐明新店,03-5577928,新竹縣新豐鄉新興路67號 ,24.8662,120.992465
5,竹東長春店,03-5941357,新竹縣竹東鎮長春路三段226號 ,24.744668100000002,121.08277700000001
8,新豐新庄子店,03-5573222,新竹縣新豐鄉建興路二段692號 ,24.8981887,120.98732350000002
1,竹北正西店,03-5536707,新竹縣竹北市中正西路124號 ,24.840406899999998,121.00178600000001
2,竹北正東店,03-6565252,新竹縣竹北市中正東路262號 ,24.8353134,121.012887
6,湖口新工店,03-5978010,新竹縣湖口鄉仁和路129號,24.872991199999998,121.0147317
15,龍潭北龍店,03-4700456,桃園市龍潭區北龍路61號,24.8659659,121.212597
18,長庚2店,03-3183010,桃園市龜山區復興北路21號,25.0593445,121.3693195
20,南崁店,03-2126112,桃園市蘆竹區南崁路314號,25.0500782,121.29211029999999
6,內壢忠孝店,03-4525685,桃園市中壢區忠孝路35號,24.9733135,121.2563473
3,大溪慈湖店,03-3874293,桃園市大溪區復興路24號,24.8803785,121.2893061
8,中壢新明店,03-4939820,桃園市中壢區新明路54號,24.958323899999996,121.21521299999999
11,桃園大興店,03-3572668,桃園市桃園區大興路146號,25.015712699999998,121.31052549999998
16,龜山中興店,03-3294333,桃園市龜山區中興路393號,24.99259,121.335753
13,復興店,03-3315282,桃園市桃園區復興路365-6號,24.990059,121.30327700000001
5,中壢延平店,03-2807676,桃園市中壢區延平路288號 ,24.9612428,121.22600729999999
9,中壢溫州店,03-4555882,桃園市中壢區溫州二街527號,24.979629199999998,121.25310149999999
2,大園中華店,03-3850221,桃園市大園區中華路60號,25.067035999999998,121.1991131
12,桃園桃鶯店,03-3632123,桃園市桃園區桃鶯路97號 ,24.9702827,121.32808100000001
4,中壢中原店,03-4564366,桃園市中壢區日新路8號,24.953874600000002,121.2386047
10,平鎮中豐店,03-4195500,桃園市平鎮區中豐路山頂段247號,24.8987828,121.21102920000001
7,中壢新生店,03-4229393,桃園市中壢區新生路162號,24.960997100000004,121.22313659999999
1,八德介壽店,03-3628855,桃園市八德區介壽路一段859號,24.9611626,121.29990590000001
19,南崁忠孝西店,03-3520882,桃園市蘆竹區忠孝西路170號,25.0405984,121.28950159999998
17,桃園長庚店,03-2115522,桃園市龜山區復興一路282號,25.056429,121.363776
14,楊梅大成店,03-2888455,桃園市楊梅區大成路204號 ,24.912655899999997,121.1458808
45,內湖園區店,02-2799-1180,台北市內湖區內湖路一段425號,25.081547399999998,121.571529
62,八德店,02-2756-6262,台北市松山區八德路四段59號,25.0485182,121.5597629
72,莊敬店,02-2345-4912,台北市信義區莊敬路392號,25.0273449,121.56551999999999
6,德行店,02-2833-9229,台北市士林區德行西路60號,25.105107699999998,121.5228257
49,德安店,02-2796-3411,台北市內湖區康寧路一段66號,25.0799786,121.5922831
40,信陽店,02-2375-5886,台北市中正區信陽街13號,25.0447909,121.5163289
48,東湖二店,02-2630-7272,台北市內湖區東湖路149號,25.0681577,121.61728219999999
41,開封店,02-2388-5600,台北市中正區開封街一段9號,25.0461289,121.51394669999999
36,同安店,02-2365-3381,台北市中正區同安街32號,25.0243099,121.5217563
22,大直北安店,02-2532-1150,台北市中山區北安路571-3號,25.081083,121.548324
81,康定店,02-2336-7189,台北市萬華區康定路195號,25.0362834,121.50157
5,劍潭店,02-2885-0608,台北市士林區承德路四段35號,25.080918,121.52283500000001
9,站前店,02-2581-5900,台北市大同區長安西路52-1號B1(中山地下街),25.050073,121.520104
2,士林捷運店,02-2883-3305,台北市士林區中正路235巷38號,25.094254199999998,121.52608459999999
57,萬隆店,02-2930-4678,台北市文山區羅斯福路五段217號,25.002152,121.53913700000001
69,松山店,02-2728-1150,台北市信義區松山路557號,25.037122,121.578397
50,東湖店,02-2630-9680,台北市內湖區康寧路三段48號,25.071814899999996,121.608695
54,政大店,02-8661-7571,台北市文山區指南路二段63號,24.9879359,121.57472
7,承德店,02-2559-0222,台北市大同區承德路一段20號,25.0503998,121.5166711
19,復興店,02-2709-3698,台北市大安區復興南路二段182號,25.0273368,121.54320759999999
61,石牌店,02-2821-1346,台北市北投區裕民一路23號,25.116766000000002,121.51696399999999
34,南機場店,02-2309-2525,台北市中正區中華路二段309巷5號,25.0287537,121.5055458
18,SOGO店,02-2711-3650,台北市大安區復興南路一段107巷23之3號,25.043704,121.545451
3,天母店,02-2871-1101,台北市士林區天母北路3號,25.1189617,121.52641080000001
35,公館店,02-2368-4599,台北市中正區汀州路三段116-1號,25.014162,121.53339
8,昌吉店,02-2599-2399,台北市大同區昌吉街35號,25.065975299999998,121.5166918
20,台大店,02-2363-2296,台北市大安區羅斯福路三段345號,25.016843899999998,121.532533
46,文德店,02-2657-4987,台北市內湖區文德路20號,25.078533399999998,121.5791861
47,瑞光店,02-8791-1851,台北市內湖區民權東路六段94號,25.0687621,121.5862749
51,試院店,02-2236-6327,台北市文山區木柵路一段86號,24.987391199999998,121.5505313
70,微風松高店,02-2723-5568,台北市信義區松高路16號B2,25.0387252,121.56727959999999
25,合江店,02-2504-5433,台北市中山區合江街111號,25.060026800000003,121.53930120000001
16,師大店,02-2367-8100,台北市大安區師大路137號,25.0215299,121.5280816
4,士林文林店,02-2881-5922,台北市士林區文林路191號,25.0897547,121.5268844
83,西門店,02-2381-9080,台北市萬華區漢中街136號,25.041821,121.50708200000001
37,小南門店,02-2388-2310,台北市中正區延平南路234號,25.033871899999998,121.50734779999999
64,饒河店,02-2764-3301,台北市松山區台北市松山區八德路四段777號,25.051246300000003,121.5782476
67,南京三民店,02-2761-8056,台北市松山區南京東路五段123巷37號1樓,25.053096,121.56052199999999
1,士東店,02-2871-1333,台北市士林區士東路99號,25.1123385,121.5294866
66,長春店,02-8712-1710,台北市松山區長春路476號,25.054394199999997,121.54649380000001
27,林森店,02-2523-6047,台北市中山區林森北路93號,25.050049800000004,121.52497029999999
75,昆陽店,02-2788-9003,台北市南港區忠孝東路六段452號,25.050267899999998,121.5942468
65,民生店,02-2719-8446,台北市松山區民生東路四段104號,25.0580176,121.5540881
55,景美店,02-2935-7075,台北市文山區景文街104號,24.9901189,121.54090500000001
39,杭州店,02-2327-8206,台北市中正區杭州南路一段95號,25.038776300000002,121.5255044
11,重慶酒泉店,02-2587-5855,台北市大同區重慶北路三段251號,25.071468,121.51401899999999
17,通化店,02-2739-9748,台北市大安區通化街119號,25.0293209,121.5541395
77,昆陽遠東店,02-2651-1252,台北市南港區南港路三段1號,25.054020899999998,121.592243
43,衡陽店,02-2370-4780,台北市中正區衡陽路15號,25.04241,121.51348200000001
26,吉林店,02-2100-1912,台北市中山區吉林路185號,25.0596898,121.5303953
53,木柵店,02-8661-3489,台北市文山區保儀路69號,24.9870709,121.56864099999999
79,峨嵋店,02-2381-8397,台北市萬華區峨嵋街49號,25.0436408,121.50680459999998
33,華山店,02-2343-5777,台北市中正區八德路一段34號,25.0435951,121.5303287
13,大安店,02-2704-1221,台北市大安區大安路一段225號,25.0346116,121.546178
10,重慶店,02-2558-7150,台北市大同區重慶北路一段84號,25.052503100000003,121.51391650000001
42,寧波店,02-2396-5396,台北市中正區寧波西街51號,25.0309349,121.51775900000001
52,木新店,02-2937-7040,台北市文山區木新路三段158號,24.9819812,121.56120120000001
76,南港園區店,02-2782-2018,台北市南港區南港路一段116號,25.055433999999998,121.61369029999999
30,晴光店,02-2599-2566,台北市中山區農安街22號,25.064827899999997,121.525104
58,和碩店,02-2895-1838,台北市北投區立德路150號B1(和碩員工餐廳),25.127845,121.47255600000001
56,興隆店,02-2934-0688,台北市文山區興隆路二段349號,25.0010565,121.5544106
71,世貿店,02-2732-1350,台北市信義區基隆路二段107之3號,25.0294747,121.55764209999998
68,市府捷運店,02-2765-9973,台北市信義區忠孝東路五段183號,25.041230600000002,121.56918770000001
15,忠孝延吉店,02-8772-9811,台北市大安區延吉街72-4號,25.042447600000003,121.55410800000001
29,南西店,02-2567-3355,台北市中山區南京西路12巷3號,25.051986,121.52148700000001
38,捷運善導寺店,02-2351-8482,台北市中正區忠孝東路一段11號,25.044885999999998,121.5238574
73,中坡店,02-2788-2862,台北市南港區中坡南路5號,25.044058,121.582397
32,雙連店,02-2563-1567,台北市中山區錦西街14號,25.060194,121.52134679999999
78,西寧店,02-2311-5937,台北市萬華區西寧南路48-4號,25.044332,121.50626499999998
28,長安店,02-2522-2050,台北市中山區長安東路二段47-3號,25.0486073,121.5321429
31,微風店,02-2773-7808,台北市中山區遼寧街28號,25.0479077,121.542047
12,寧夏店,02-25532228,台北市大同區寧夏路47號,25.0573449,121.515596
84,寶興店,02-2332-8490,台北市萬華區寶興街64號,25.0265077,121.49397890000002
59,北投店,02-2897-5222,台北市北投區光明路21號,25.1326535,121.4991827
24,伊通店,02-2502-6131,台北市中山區伊通街66-2號,25.0526399,121.5345528
82,萬大店,02-2333-1100,台北市萬華區萬大路282號,25.025531100000002,121.5003
60,奇岩店,02-2891-5291,台北市北投區崇仁路一段70號,25.1265759,121.50137120000001
21,實踐店,02-2533-1350,台北市中山區大直街51號,25.083095,121.54645090000001
63,北寧店,02-2570-9520,台北市松山區北寧路26號,25.049050899999997,121.55276409999998
80,桂林店,02-2331-8150,台北市萬華區桂林路1號,25.037703,121.5061818
74,同德店,02-2786-2060,台北市南港區同德路39號,25.0454782,121.58436200000001
23,四平店,02-2521-3570,台北市中山區四平街40號,25.0535786,121.53210700000001
44,濟南店,02-2391-5189,台北市中正區濟南路二段58之3號,25.040159600000003,121.5317959
14,永康店,02-2395-2000,台北市大安區永康街14巷2號,25.0312305,121.5293842
45,新店民權店,02-8219-1133,新北市新店區民權路123號,24.982692899999996,121.5356977
62,蘆洲中正店,02-2288-1443,新北市蘆洲區中正路101號,25.0840402,121.46975990000001
6,正義店,02-2985-0855,新北市三重區正義北路251號,25.069619,121.49572350000001
49,新莊中港店,02-2997-6475,新北市新莊區中港路307號,25.044551100000003,121.45263130000001
40,淡水英專店,02-2626-5585,新北市淡水區清水街1之10號,25.170066600000002,121.4422726
48,寶橋店,02-2918-8881,新北市新店區寶橋路224號,24.9786112,121.55139240000001
41,北深店,02-8662-6621,新北市深坑區北深路三段180號,25.0036377,121.60196570000001
36,淡水捷運店,02-2625-0150,新北市淡水區中正路1號 (捷運淡水站出口3號販賣部),25.1677103,121.4456755
22,汐止大同店,02-2691-8800,新北市汐止區大同路二段222號,25.0652928,121.65377109999999
5,文化店,02-2976-5970,新北市三重區文化北路61-3號,25.0664063,121.49868980000001
9,捷運永寧店,02-2267-5820,新北市土城區中央路三段56之1號,24.9677738,121.436849
2,三和店,02-2286-1850,新北市三重區三和路四段205號,25.079440899999998,121.481963
57,新泰店,02-2277-6250,新北市新莊區新泰路311號,25.041185199999997,121.44522179999998
50,五工店,02-2298-3338,新北市新莊區五權一路20號,25.064967000000003,121.457199
54,輔大店,02-2901-8100,新北市新莊區建國一路30號,25.0314689,121.433683
7,重新店,02-2983-5856,新北市三重區重新路三段5號,25.061823899999997,121.495332
19,永和中正店,02-8668-1330,新北市永和區中正路83號,24.996980800000003,121.51510659999998
61,樹林保安店,02-2687-2761,新北市樹林區保安街一段239號,24.996443600000003,121.42007920000002
34,明志科大店,02-2906-2510,新北市泰山區明志路三段121號,25.040712,121.425172
18,成泰店,02-2292-0229,新北市五股區成泰路二段168號,25.084384,121.438558
3,中正北店,02-2988-1156,新北市三重區中正北路157號,25.067792800000003,121.4823745
35,淡水中山店,02-2626-1162,新北市淡水區中山北路一段113號,25.1767693,121.4425188
8,三峽文化店,02-2673-3150,新北市三峽區文化路26號,24.936007999999998,121.373181
20,樂華店,02-8660-3111,新北市永和區永和路一段144號,25.0082443,121.5142108
46,碧潭店,02-2910-0503,新北市新店區光明街3號,24.959106,121.53823600000001
47,安康店,02-8666-0333,新北市新店區安康路二段169號,24.959229500000003,121.5098632
51,頭前店,02-2992-4396,新北市新莊區化成路209-2號,25.0516,121.465805
25,板橋中山二店,02-8951-4658,新北市板橋區中山路一段135號,25.010559,121.462434
16,中和遠東店,02-2222-5659,新北市中和區連城路395號,24.9960551,121.4863794
4,五華店,02-2988-7002,新北市三重區五華街77號,25.083068899999997,121.49231499999999
37,淡大二店,02-2626-5018,新北市淡水區水源街二段68號,25.1740813,121.45106499999999
64,鶯歌建國店,02-2670-9992,新北市鶯歌區建國路203號,24.953415,121.348951
1,八里店,02-2610-0556,新北市八里區中山路二段341號,25.1472789,121.3994807
27,板橋中正店,02-2968-5227,新北市板橋區中正路229號,25.0178388,121.4559051
65,鶯桃店,02-2678-6332,新北市鶯歌區鶯桃路二段24號,24.9723607,121.32584890000001
55,富國店,02-2902-9569,新北市新莊區富國路37號,25.0264857,121.41902569999999
39,竹圍店,02-2809-3010,新北市淡水區民權路34號,25.13739,121.45985800000001
11,土城明德店,02-2262-7000,新北市土城區明德路一段57號,24.9845773,121.46537479999999
17,南勢角店,02-2940-8372,新北市中和區景新街405號,24.9897065,121.51265719999999
43,新店中正店,02-2910-9818,新北市新店區中正路55號,24.9698147,121.5445114
26,台北縣總店,02-2957-2501,新北市板橋區中山路二段307號,25.018558600000002,121.47870640000001
53,幸福店,02-2992-7277,新北市新莊區幸福路48號,25.0495016,121.45767649999999
33,泰山明志店,02-2297-0900,新北市泰山區明志路一段287號,25.0597187,121.4319575
13,中和環球店,02-2226-5930,新北市中和區中山路三段113號,25.0076986,121.47510390000001
10,土城頂埔店,02-2267-9993,新北市土城區中央路四段284號,24.9566157,121.4143473
42,耕莘店,02-8665-6335,新北市新店區中正路351-3號,24.975993799999998,121.53509869999999
52,民安店,02-2204-2921,新北市新莊區民安西路4號,25.0217539,121.4263679
30,亞東店,02-8966-5500,新北市板橋區四川路二段41號,24.995257000000002,121.454153
58,瑞芳店,02-2497-6150,新北市瑞芳區明燈路三段53號,25.1080639,121.8062495
56,新莊中正店,02-2201-5125,新北市新莊區新泰路105號,25.0350001,121.44887560000001
15,中和園區店,02-2222-6116,新北市中和區連城路336號,24.995929999999998,121.48303100000001
29,四川店,02-2961-3302,新北市板橋區四川路一段202號,25.0023718,121.4595203
38,淡大店,02-2626-5451,新北市淡水區北新路182巷41弄2號,25.177367800000003,121.44831229999998
32,林口中山店,02-2601-5138,新北市林口區中山路8號,25.0783785,121.3965619
28,板橋文化店,02-8258-5666,新北市板橋區文化路一段379號,25.021692899999998,121.467008
31,板橋莒光店,02-2258-5000,新北市板橋區莒光路14號,25.0247375,121.46971570000001
12,裕民店,02-2262-9816,新北市土城區裕民路89號,24.987332000000002,121.45031999999999
59,樹林中山店,02-2683-3252,新北市樹林區中山路一段150號,24.9901813,121.42222179999999
24,汐止忠孝店,02-8646-2358,新北市汐止區忠孝東路263號,25.0678622,121.6631379
60,樹林中華店,02-8685-3450,新北市樹林區中華路84號,24.9812181,121.41890079999999
21,福和店,02-2928-7180,新北市永和區福和路239號,25.007365399999998,121.51837979999999
63,蘆洲長安店,02-8282-1121,新北市蘆洲區長安街69號,25.079901,121.46271599999999
23,汐止中興店,02-2694-1757,新北市汐止區中興路198號,25.066026100000002,121.63156370000002
44,北新店,02-2918-9999,新北市新店區北新路三段66號,24.9803703,121.5421489
14,連城店,02-8241-9000,新北市中和區連城路13號,25.002101,121.49906599999998
100,土庫店,07-3552006,高雄市楠梓區清豐二路170號,22.7365814,120.3299496
49,崇德店,07-3452020,高雄市左營區崇德路277號,22.6756659,120.30353570000001
40,八卦寮店,07-3737399,高雄市仁武區仁武區八德南路65號,22.6848777,120.3394969
102,鳳楠店,07-3553700,高雄市楠梓區鳳楠路265號,22.72612,120.329104
41,仁武仁雄店,07-3718282,高雄市仁武區仁雄路139號,22.6764007,120.3400899
94,林森八德店,07-2351336,高雄市新興區林森一路266號,22.6359868,120.3052146
101,惠民店,07-3630666,高雄市楠梓區惠民路882號,22.7243622,120.29755530000001
116,旗津店,07-5713759,高雄市旗津區廟前路112號,22.613751,120.269199
5,高應大店,07-3985958,高雄市三民區大昌二路555號,22.651906399999998,120.3296386
9,建工店,07-3807097,高雄市三民區建工路491號,22.648869,120.32293100000001
57,林園東林店,07-6421555,高雄市林園區東林西路189號,22.5031035,120.3911283
108,內惟店,07-5850666,高雄市鼓山區九如四路1434號,22.658867899999997,120.2793784
50,富國店,07-5507869,高雄市左營區富國路275號,22.6661395,120.3070337
54,裕誠河堤店,07-5592409,高雄市左營區裕誠路175號,22.664120699999998,120.3110259
79,三多文橫店,07-5365985,高雄市苓雅區文橫二路11號,22.615200199999997,120.30653659999999
109,明誠中華店,07-5535300,高雄市鼓山區明誠三路692號,22.661314,120.2945804
19,鼎中店,07-3474552,高雄市三民區鼎中路261號,22.6646847,120.31917800000001
34,高松高鳳店,07-8055958,高雄市小港區高松路72號1樓,22.572945999999998,120.37129099999999
107,藍昌店,07-5915060,高雄市楠梓區藍昌路39812號,22.7265035,120.29178629999998
97,後昌店,07-3600835,高雄市楠梓區後昌路748號,22.710421,120.29649599999999
122,中山店,07-7190369,高雄市鳳山區五甲一路28號,22.621837,120.358028
113,西子灣臨海店,07-5512998,高雄市鼓山區臨海二路41號,22.6227337,120.2721
44,左大店,07-5837788,高雄市左營區左營大路49號,22.681335999999998,120.287676
20,獅湖國小店,07-3595500,高雄市三民區鼎中路7532號,22.674220000000002,120.321582
48,重愛店,07-3592772,高雄市左營區重愛路59號,22.683093,120.31853100000001
16,義華店,07-3820319,高雄市三民區義華路305號,22.64341,120.33591440000001
51,華夏高鐵店,07-3505398,高雄市左營區華夏路1265號,22.685342000000002,120.310447
135,新富店,07-7633466,高雄市鳳山區新富路454號,22.6130884,120.3465183
62,自強中正店,07-2511770,高雄市前金區自強二路180號,22.627995000000002,120.29443899999998
64,中華新光店,07-5369989,高雄市前鎮區中華五路1457號,22.610017000000003,120.3031518
56,林園文化店,07-6422022,高雄市林園區文化街131號,22.5047134,120.39332560000001
123,五甲店,07-7155159,高雄市鳳山區五甲二路384號,22.598760100000003,120.33660590000001
82,自強青年店,07-2693888,高雄市苓雅區自強三路169號,22.6178393,120.29809920000001
137,橋頭白樹店,07-6130077,高雄市橋頭區白樹村白樹路55號,22.7585628,120.30511509999998
92,民生民權店,07-2222029,高雄市新興區民生一路156號,22.6278525,120.3098467
39,仁武店,07-3739077,高雄市仁武區中正路154號,22.7022259,120.3508989
132,鳳山青年建國店,07-7775789,高雄市鳳山區青年路二段225號,22.6368747,120.3504804
17,鼎山明誠店,07-3908780,高雄市三民區鼎山街233號,22.659552800000004,120.32215020000001
99,軍校店,07-3658798,高雄市楠梓區軍校路911號,22.710717300000002,120.2923877
38,大灣國中店,07-3737599,高雄市仁武區八德南路492號,22.6771292,120.340708
138,橋頭店,07-6130099,高雄市橋頭區橋南路100號,22.7548238,120.3122076
33,小港平和店,07-8225766,高雄市小港區平和路11號,22.5634324,120.3346189
112,慶豐店,07-5551060,高雄市鼓山區慶豐街22號,22.6660133,120.29296409999998
13,高醫店,07-3128188#309807,高雄市三民區十全一路100號 (高雄醫學大學),22.645202800000003,120.31041100000002
42,大順富國店,07-5507635,高雄市左營區大順一路276號,22.657166,120.306872
93,自立六合店,07-2869069,高雄市新興區自立二路126號,22.632445,120.29857700000001
58,林園高中店,07-6426965,高雄市林園區林園北路509號,22.515680800000002,120.3949807
60,中華七賢店,07-2858856,高雄市前金區中華三路198號,22.6322533,120.2949433
71,瑞隆隆興店,07-7219399,高雄市前鎮區瑞隆路542號,22.6053285,120.32742409999999
103,德民店,07-3010391,高雄市楠梓區德民路915號,22.7208961,120.2896112
61,自立七賢店,07-2863211,高雄市前金區自立一路43號,22.635026899999996,120.2973399
73,夢時代鎮興店,07-8410838,高雄市前鎮區鎮興路232號,22.5931473,120.3115538
115,旗山店,07-6628789,高雄市旗山區延平一路546號,22.8884717,120.4830783
31,久堂店,07-6523095,高雄市大樹區久堂路151號,22.6581851,120.415773
98,後勁店,07-3657282,高雄市楠梓區後昌路93號,22.7191623,120.31116979999999
114,旗山老街店,07-6625558,高雄市旗山區中山路63號,22.886888600000002,120.4819532
21,嫩江店,07-3123008,高雄市三民區嫩江街72號,22.642888,120.298507
77,大順店,07-2262699,高雄市苓雅區大順三路199號,22.634726500000003,120.3261876
129,光遠黃埔店,07-7905070,高雄市鳳山區光遠路63號,22.6236591,120.3664887
66,草衙店,07-8138448,高雄市前鎮區和誠街101號,22.5788734,120.321901
86,青年店,07-5376229,高雄市苓雅區青年一路1792號,22.621546399999996,120.30713279999999
45,立文店,07-5565565,高雄市左營區立文路78號,22.664630399999997,120.3050011
4,大昌大豐店,07-3966466,高雄市三民區大昌二路165號,22.6447545,120.33187350000001
96,右昌店,07-3656798,高雄市楠梓區右昌街208號,22.711582999999997,120.28918689999999
125,鳳山文衡店,07-7808811,高雄市鳳山區文衡路445號,22.641239399999996,120.3484279
6,山東店,07-3125080,高雄市三民區山東街115號,22.6437321,120.3114462
111,瑞豐店,07-5559335,高雄市鼓山區裕誠路1182號,22.6659991,120.29746329999999
36,漢民台機店,07-8030589,高雄市小港區漢民路120號,22.5633458,120.3501811
22,澄清本館店,07-3800700,高雄市三民區澄清路745號,22.6472753,120.34685870000001
81,正義店,07-7492176,高雄市苓雅區正義路81號,22.630087,120.33836699999999
2,十全店,07-3116136,高雄市三民區十全一路391號,22.645147,120.30535800000001
136,鳳山經武店,07-7902260,高雄市鳳山區經武路158號,22.6357598,120.3641338
124,五甲自強店,07-8310273,高雄市鳳山區五甲二路675號,22.5939245,120.3293784
131,鳳山青年店,07-7997229,高雄市鳳山區青年路一段313號,22.625832199999998,120.34908829999999
140,七賢鹽埕店,07-5218988,高雄市鹽埕區七賢三路138號,22.626329899999998,120.2824315
117,鳳山中崙店,07-7556679,高雄市鳳山市區中崙二路560號,22.602409100000003,120.3529182
130,五甲夜市店,07-7684269,高雄市鳳山區自強二路155號,22.596840399999998,120.3270705
87,福德店,07-7275759,高雄市苓雅區福德三路200號,22.626646700000002,120.32687150000001
89,鳥松中正店,07-7355063,高雄市鳥松區中正路345號,22.662291600000003,120.3634617
59,阿蓮忠孝店,07-6317188,高雄市阿蓮區忠孝路132號,22.8791509,120.33120749999999
35,小港店,07-8017988,高雄市小港區崇文路85號,22.5688,120.35177900000001
78,六合店,07-2266998,高雄市苓雅區六合路423號,22.632379999999998,120.31831799999999
88,梓官中崙店,07-6191718,高雄市梓官區中崙路245號,22.7609717,120.26906340000001
18,鼎山店,07-3908326,高雄市三民區鼎山街617號,22.65034,120.31718799999999
126,鳳山光復店,07-7997227,高雄市鳳山區光復路一段68號,22.629292,120.352236
121,中正神農店,07-7355863,高雄市鳳山區中正路54號,22.625731100000003,120.35977439999999
3,大昌立志店,07-3954478,高雄市三民區大昌一路51號,22.6527685,120.32793219999999
63,自強漢神店,07-2168796,高雄市前金區自強三路244號,22.6198843,120.29750870000001
8,自強建國店,07-2163666,高雄市三民區自強一路209號,22.635002,120.291357
72,德昌店,07-8125428,高雄市前鎮區德昌路183號,22.5837772,120.3165575
67,武慶店,07-7275050,高雄市前鎮區武慶二路39號,22.6111828,120.3327249
91,六合復興店,07-2364008,高雄市新興區六合一路575號,22.632483399999998,120.3079487
70,瑞隆華榮店,07-7214977,高雄市前鎮區瑞隆路315號,22.6054232,120.3324169
25,大社二店,07-3544488,高雄市大社區中山路240號,22.7318002,120.34839699999999
47,明誠富民店,07-5508285,高雄市左營區明誠二路493號,22.660946,120.305471
37,漢民店,07-8071595,高雄市小港區漢民路669號,22.567326,120.36073799999998
133,五甲南華店,07-7269028,高雄市鳳山區南華路151號,22.602766600000002,120.3378091
1,科工館店,07-3925137,高雄市三民區九如一路782號,22.6399908,120.32063740000001
27,大寮國小店,07-7887297,高雄市大寮區大寮路773號,22.5913707,120.4163258
75,三多光華店,07-7264285,高雄市苓雅區三多二路345號,22.61834,120.318261
65,光華夜市店,07-3341530,高雄市前鎮區光華二路309號,22.615085,120.318013
85,武廟店,07-7152699,高雄市苓雅區武廟路1381號,22.6311902,120.3276938
139,燕巢中民店,07-6143636,高雄市燕巢區中民路732號,22.793121399999997,120.3583827
104,德賢店,07-3645050,高雄市楠梓區德賢路2361號,22.726609,120.3056262
11,建國同愛店,07-2868580,高雄市三民區建國三路85號,22.637628,120.300238
106,興楠店,07-3528268,高雄市楠梓區興楠路409號,22.728119,120.33051299999998
43,左大聖公店,07-5888833,高雄市左營區左營大路281號,22.6864993,120.29136100000001
55,榮總店,07-3103300,高雄市左營區榮總路31號,22.678698699999998,120.3215101
29,大寮店,07-7830668,高雄市大寮區鳳林四路120號,22.615772500000002,120.38679590000001
120,埤頂店,07-7012250,高雄市鳳山區中山東路547號,22.629088199999998,120.38152990000002
80,正言店,07-7528299,高雄市苓雅區正言路44號,22.630302399999998,120.3298379
10,建國中山店,07-2358555,高雄市三民區建國二路273號,22.6375094,120.3038068
53,新庄巨蛋店,07-3488470,高雄市左營區新庄仔路2353號,22.669823,120.30616100000002
52,華夏新光店,07-3478282,高雄市左營區華夏路939號,22.680972600000004,120.3047632
118,鳳山八德店,07-7778889,高雄市鳳山區八德路280號,22.63881,120.355729
76,三多中華店,07-2691588,高雄市苓雅區三多四路75號,22.612742,120.30135700000001
7,天祥店,07-3595160,高雄市三民區天祥一路134號,22.667788,120.3194869
119,大明店,07-7637566,高雄市鳳山區大明路232號,22.6119218,120.3415843
69,復興一心店,07-5351031,高雄市前鎮區復興三路297號,22.611917000000002,120.31088899999999
83,林泉店,07-7158576,高雄市苓雅區林泉街74號,22.622844,120.317318
15,陽明店,07-3896001,高雄市三民區陽明路390號,22.6457563,120.34282549999999
46,自由曾子店,07-3451214,高雄市左營區自由三路391號,22.675407699999997,120.31227790000001
26,大社店,07-3544450,高雄市大社區中山路335號,22.7316915,120.35077279999999
141,五福鹽埕店,07-5516001,高雄市鹽埕區五福四路134號,22.623051,120.28521200000002
128,捷運鳳山店,07-7903669,高雄市鳳山區光遠路335號,22.6259087,120.35621869999999
32,小港中安店,07-7915637,高雄市小港區中安路636號,22.584793100000002,120.3595875
28,大寮輔英店,07-7835070,高雄市大寮區鳳林三路581號,22.6085249,120.39474229999999
12,建興店,07-3871178,高雄市三民區建興路86號,22.6427021,120.32914309999998
84,林森店,07-5360365,高雄市苓雅區林森二路73號,22.620599,120.306339
68,獅甲復興店,07-3303881,高雄市前鎮區復興三路129號,22.608027,120.30798899999999
24,覺民店,07-3821959,高雄市三民區覺民路185號,22.639311,120.340273
30,鳳屏店,07-7013011,高雄市大寮區鳳屏一路393號,22.6375957,120.3946638
127,光遠大東店,07-7426313,高雄市鳳山區光遠路232號,22.625452199999998,120.3628479
134,南華店,07-7516826,高雄市鳳山區南華路163號,22.60324,120.33750500000001
110,美術東八店,07-5505186,高雄市鼓山區美術東八街125號,22.6543901,120.2911335
95,新田崛江店,07-2716885,高雄市新興區新田路124號,22.6223188,120.30341969999999
90,仁美店,07-7311896,高雄市鳥松區學堂路26號,22.658506600000003,120.3922412
74,三多店,07-7270422,高雄市苓雅區三多一路261號,22.6221285,120.32985649999999
23,熱河店,07-3232677,高雄市三民區熱河一街335號,22.643555,120.306968
105,楠梓樂群店,07-3616658,高雄市楠梓區樂群路152號,22.718274100000002,120.2972818
14,博愛北平店,07-3228632,高雄市三民區博愛一路310號,22.649482,120.303716
5,台中美村,(04) 2310-6616,台中市西區美村路一段89號,24.152962600000002,120.66185060000001
3,台中太平,(04) 2393-2379,台中市太平區中山路一段292號,24.142720999999998,120.733529
1,大甲,(04) 426888806,台中市大甲區蔣公路203號,24.346659399999997,120.6203419
4,台中后里,(04) 2558-5682,台中市后里區甲后路一段337號,24.3089603,120.7249632
7,台中東海,(04)2632-1221,台中市龍井區新興路38-2號,24.1808158,120.5889065
2,大里,(04) 2496-8109,台中市大里區塗城路494號,24.088675,120.70241899999999
6,台中靜宜,(04) 2631-2585,台中市沙鹿區北勢東路609號,24.2287445,120.5738517
2,南紡夢時代,(06) 236-9098,台南市東區中華東路一段366號(櫃位B1B20),22.991474,120.2328945
1,台南青年,(06) 220-0009,台南市中西區青年路202號,22.9915398,120.21059650000001
8,新竹南寮,(03) 536-7631,新竹市北區東大路三段730號,24.8408302,120.93722890000001
12,新竹光華,(03) 535-7087,新竹市光華東街42-1號,24.816031,120.974507
18,新竹金山2,(03) 578-0160,新竹市金山十六街2號,24.7770752,121.0234223
20,新竹清大,(03) 572-3028,新竹市建功路16號,24.796324,120.998631
2,新竹中正,(03) 535-2119,新竹市中正路276號1樓,24.8125093,120.96428780000001
22,大庄,(03) 530-5469,新竹市香山區大庄路63號,24.7897755,120.9279267
11,園區,(03) 578-1765,新竹市光復路一段404號,24.7847546,121.0148138
1,新竹巨城,(03) 532-8120,新竹市中央路227號,24.8088934,120.97427350000001
10,園區2,(03) 668-6523,新竹市光復路一段125號,24.781194,121.023228
14,新竹延平,(03) 526-7769,新竹市延平路一段244號,24.8051488,120.95330200000001
7,新竹竹光,(03) 532-5169,新竹市北區西大路850號,24.811635100000004,120.95646299999999
19,明湖,(03) 562-2229,新竹市南大路579號,24.788971,120.96668590000002
24,新竹牛埔,(03) 530-8011,新竹市香山區牛埔路466號,24.7967484,120.94172590000001
23,新竹內湖,(03) 518-1433,新竹市香山區內湖路102號,24.7429051,120.9058476
5,新竹水田,(03) 531-8762,新竹市水田街208號,24.816416399999998,120.96902859999999
3,新竹中華,(03) 537-8119,新竹市五福路二段796號,24.7564853,120.95247890000002
16,林森,(03) 523-8135,新竹市林森路152號,24.7997068,120.96509820000001
9,新竹民生,(03) 532-3546,新竹市民生路106號,24.8095713,120.9776513
6,北大,(03) 528-6558,新竹市北大路290號,24.807037100000002,120.9634207
13,新竹城隍廟,(03) 522-0661,新竹市西門里中山路98號,24.804644500000002,120.96532749999999
21,食品,(03) 561-7227,新竹市食品路198號,24.7969595,120.97576699999999
17,新竹金山,(03) 577-8711,新竹市金山八街46號,24.7778684,121.020323
4,文昌,(03) 524-1678,新竹市文昌街46號,24.8030914,120.96832009999999
15,新竹東門,(03) 526-8459,新竹市東門街82號,24.804391100000004,120.97191299999999
8,竹北勝利,(03) 550-8424,新竹縣竹北市勝利二路79號,24.822848399999998,121.0264268
12,竹東東峰,(03) 595-6336,新竹縣竹東鎮東峰路6號,24.721902800000002,121.0962497
18,湖口仁和,(03) 598-0069,新竹縣湖口鄉仁和路96號,24.8728523,121.01446809999999
20,新竹新埔,(03) 588-7020,新竹縣新埔鎮中正路302號,24.8276121,121.08072800000001
2,竹北中正,(03) 553-0115,新竹縣竹北中正西路123號,24.8409264,121.00018490000002
22,新豐明新,03-559-1191,新竹縣新豐鄉新興路41號,24.865652800000003,120.9922138
11,竹東二重,(03) 582-6532,新竹縣竹東鎮中興路三段177號,24.7673967,121.0559304
1,新竹北埔,(03) 580-2142,新竹縣北埔鄉南興街152號,24.701687,121.05735590000002
10,竹北縣府,(03) 657-0016,新竹縣竹北市縣政二路93號,24.8241775,121.01451570000002
14,竹東2,(03) 510-0073,新竹縣竹東鎮長春路三段178號,24.743809600000002,121.0835353
7,竹北自強南,(03) 658-2238,新竹縣竹北市自強南路161號,24.814473,121.024274
19,湖口勝利,(03) 597-1315,新竹縣湖口鄉勝利路二段88號,24.8633487,121.0265123
24,園區寶山,(03) 529-2530,新竹縣寶山鄉雙園路二段339號,24.7651949,120.99039170000002
23,新竹關西,(03) 587-7559,新竹縣關西鎮中山路70號,24.7914451,121.1763051
5,竹北光明,(03) 656-1358,新竹縣竹北市光明六路89號1樓116室,24.8264277,121.0090337
3,竹北三民,(03) 551-7533,新竹縣竹北市三民路369號,24.833899300000002,121.0103445
16,湖口光復,(03) 598-0001,新竹縣湖口鄉工業一路16號,24.8698809,121.0263581
9,竹北博愛,(03) 553-7170,新竹縣竹北市博愛街451號,24.8379843,121.0096777
6,竹北成功,(03) 657-8227,新竹縣竹北市自強五路68號,24.818699,121.02326780000001
13,竹東,(03) 594-0402,新竹縣竹東鎮長春路二段14號,24.7373512,121.0889868
21,新豐建興,(03) 557-3052,新竹縣新豐鄉建興路一段44號,24.8709008,120.995719
17,湖口中正,(03) 590-3785,新竹縣湖口鄉中正路一段2號,24.902499,121.04428899999999
4,竹北中正東,(03) 656-2756,新竹縣竹北市中正東路223號,24.8350542,121.01445020000001
15,新竹芎林,(03) 667-1018,新竹縣芎林鄉文山路511號,24.776860100000004,121.07803429999998
69,桃園大竹,(03) 323-9833,桃園市蘆竹鄉大竹路524號,25.0238962,121.25974440000002
35,平鎮南勢,(03) 439-5569,桃園市平鎮市中豐路南勢二段156號,24.915399899999997,121.2104925
26,新中北,(03) 433-6162,桃園市中壢市新中北路二段481號,24.9558477,121.2641375
12,大溪崎頂,03-307-0330,桃園市大溪區介壽路844之5號,24.901156,121.28368859999999
52,楊梅楊新,(03) 478-5818,桃園市楊梅市大成路232號,24.9132908,121.14603590000002
29,中壢環中,(03) 463-9913,桃園市中壢市環中東路204號,24.9633079,121.25668020000002
20,中壢中正,(03) 427-5979,桃園市中壢市中正路3號,24.9619536,121.20727340000002
60,百年,(03) 489-3389,桃園市龍潭鄉中豐路315號,24.8784458,121.21154150000001
9,菓林,(03) 393-3272,桃園市大園鄉?林路50號,25.1089938,121.2406301
48,桃鶯,(03) 363-4832,桃園市桃鶯路142號,24.9837823,121.3184712
34,平鎮山頂,(03) 469-6707,桃園市平鎮市中豐路山頂段191號,24.8998313,121.21107099999999
22,內壢忠孝,(03) 455-2441,桃園市中壢市忠孝路69號,24.974062,121.255746
53,埔心中興,(03) 482-1318,桃園市楊梅市中興路81號,24.9176818,121.1848061
33,中壢龍東,03-456-0067,桃園市中壢區龍東路146號,24.929101,121.252427
54,埔心文化,(03) 481-5421,桃園市楊梅市埔心文化街250號,24.911766699999998,121.1832754
14,大溪,(03) 387-1940,桃園市大溪鎮慈湖路117號,24.8813632,121.28892739999999
10,大園,(03) 385-5362,桃園市大園鄉中山北路23號,25.064573,121.196846
64,林口2,(03) 327-0308,桃園市龜山鄉復興一路336號,25.055766000000002,121.3627117
19,中壢中山東,(03) 456-0981,桃園市中壢市中山東路三段42號,24.9455796,121.2472685
45,桃園莊敬,(03) 317-6032,桃園市桃園市莊敬路一段315號,25.0241232,121.29721229999998
66,桃園萬壽,(02) 8200-0829,桃園市龜山鄉萬壽路一段323號,25.0170951,121.4023878
57,桃安,(03) 378-6301,桃園市龍安街108號,24.9897544,121.2800628
73,南崁3,(03) 322-5956,桃園市蘆竹鄉南崁路300號,25.0500419,121.29246670000002
27,中壢新明,(03) 281-2089,桃園市中壢市新明路17號,24.957510600000003,121.21451440000001
16,中平,(03) 228-6688,桃園市中平路30號,24.9896767,121.2920535
36,平鎮文化,(03) 494-6060,桃園市平鎮市文化街100號,24.9536235,121.2029869
40,平鎮金陵,(03) 457-5299,桃園市平鎮市金陵路3段66之5號,24.9289187,121.2272277
8,桃園大同,(03) 331-3679,桃園市大同路60號1樓,24.9895092,121.3118249
31,中壢大崙,(03) 498-5355,桃園市中壢區中正路四段62號,24.988608,121.18125500000001
4,鳳鳴,(03) 364-1898,桃園市八德市桃鶯路62號,24.9866518,121.31787179999999
63,中興,(03) 349-4046,桃園市龜山鄉中興路449號,24.993594100000003,121.336952
24,中壢南園,(03) 455-2161,桃園市中壢市南園二路32號,24.9717934,121.23519509999998
28,中壢福州,(03) 462-0620,桃園市中壢市福州一街245號,24.967476899999998,121.232666
47,桃園大業,(03)331-2988,桃園市桃園區大業路一段79號,25.0049585,121.3172122
74,觀音成功,(03) 476-1311,桃園市觀音區成功路二段833號,25.051569600000004,121.1180595
30,中壢大發,(03)466-2898,桃園市中壢區中北路二段463號,24.9547259,121.23291
49,桃園國際,(03) 369-5216,桃園市國際路一段1139號,24.988022,121.289097
23,內壢長春,(03) 452-0921,桃園市中壢市長春路6號,24.979269199999997,121.25018229999999
5,桃園八德,(03) 361-3718,桃園市八德市義勇街108號,24.963603,121.3038172
41,平鎮龍南,(03) 450-5388,桃園市平鎮市龍南路336號,24.921815,121.25114099999999
17,桃園中正,(03) 358-6301,桃園市中正路706號,25.0177192,121.40931119999999
56,楊梅環東,(03)485-2966,桃園市楊梅區環東路506號,24.9109525,121.1563582
71,山腳,(03) 324-0880,桃園市蘆竹鄉南山路三段283號,25.084722,121.28588300000001
38,平鎮育達,(03) 401-0909,桃園市平鎮市育達路124號,24.9519892,121.21030590000001
1,桃園介壽,(03) 365-1248,桃園市八德市介壽路二段1048號,24.93253,121.2973603
61,北潭,(03) 499-4300,桃園市龍潭鄉北龍路116號,24.8658639,121.21396200000001
62,桃園山鶯,(03) 331-2228,桃園市龜山區山鶯路40號,24.990820000000003,121.32305500000001
11,桃機T2,(03) 383-3177,桃園市大園鄉航站南路9號B2(T2航廈),25.077070000000003,121.231885
7,桃園興豐,(03) 365-1527,桃園市八德市興豐路316號,24.9292379,121.28675249999999
44,春日,(03) 332-0268,桃園市春日路228號,24.997649,121.3154211
39,平鎮和平,(03) 428-1253,桃園市平鎮市和平路205號,24.945823,121.219749
32,中壢慈惠,(03)280-7398,桃園市中壢區慈惠三街139號,24.964289100000002,121.225669
65,林口長庚,(03) 318-2522,桃園市龜山鄉復興一路62號,25.059965899999998,121.36888689999999
18,桃園中華,(03) 331-3586,桃園市中華路61號,25.0668585,121.1983152
25,內壢莊敬,(03) 433-6681,桃園市中壢市莊敬路103號,24.970256399999997,121.25740630000001
70,南崁2,(03) 222-2280,桃園市蘆竹鄉忠孝西路189號,25.039790399999998,121.2892335
3,永豐,(03) 217-0568,桃園市八德市永豐路589-2號,24.975421899999997,121.2711902
68,桃園大竹2,(03) 313-2770,桃園市蘆竹鄉大竹路394號,25.019712300000002,121.2659487
58,正潭,(03) 489-0369,桃園市龍潭鄉中正路207號,24.8645001,121.21715449999999
75,草漯,(03) 416-0260,桃園市觀音鄉大觀路二段72號,25.0475953,121.14290600000001
46,桃園三民,(03)337-5898,桃園市桃園區三民路三段78 號,24.994969199999996,121.30570800000001
55,楊梅富岡,(03) 472-2444,桃園市楊梅市富岡里中正路84號,24.936297699999997,121.08170249999999
76,觀音新坡,(03) 282-0398,桃園市觀音鄉中山路2段648號,25.012864899999997,121.13563700000002
43,南平,(03) 317-4078,桃園市南平路442號,25.017097,121.29549899999999
2,桃園大湳,(03) 218-8722,桃園市八德市介壽路二段356號,24.9482969,121.29742900000001
6,廣福,(03) 371-3989,桃園市八德市廣福路126號,24.9594299,121.29661340000001
13,大溪員林,(03) 389-5867,桃園市大溪鎮員林路二段421號,24.883341199999997,121.267276
59,中潭,(03) 409-1398,桃園市龍潭鄉中興路297號,24.873842,121.2337494
72,南崁,(03) 212-3209,桃園市蘆竹鄉南崁路172號,25.047769,121.29416599999999
21,中壢高榮,(03) 420-4090,桃園市中壢市民族路五段482號,24.9580967,121.1665163
51,楊梅大成,(03) 478-5880,桃園市楊梅市大成路10-1號,24.9081431,121.14561429999999
15,大興,(03) 358-2894,桃園市大興路161號,25.015612,121.31100900000001
67,寶山,(03) 346-1910,桃園市寶山街182號,25.012736,121.31706240000001
42,民生,(03) 334-6126,桃園市民生路26號,24.9905867,121.31557520000001
37,平鎮雙連,(03) 490-7700,桃園市平鎮市民族路雙連一段10號,24.9604418,121.1898173
50,新屋中山,(03) 477-6622,桃園市新屋鄉中山路346號,24.9728424,121.1047703
35,忠順,(02)2936-6885,台北市文山區興隆路四段68號之2,24.984748,121.5614273
26,青島,(02)2395-2803,台北市中正區青島東路21之10號,25.0434516,121.5240892
12,永康,(02)2356-9919,台北市大安區永康街12之1號,25.031442000000002,121.5294771
52,環球南港,(02)2786-8869,台北市南港區忠孝東路七段371號B1 (櫃號：B120),25.052895499999998,121.6072597
29,西湖,(02)2798-7475,台北市內湖區內湖路一段285巷29號1樓,25.083519,121.5669851
20,大直大食代,(02)8502-1268,台北市中山區樂群三路218號,25.0823188,121.5579616
9,台北民生,(02)2553-1569,台北市大同區民生西路159號,25.0574385,121.51759320000001
48,台鐵松山,(02) 25281168,台北市信義區松山路11號,25.0491901,121.57829939999999
34,興隆,(02)2932-0082,台北市文山區興隆路三段54-2號,24.9993182,121.55523840000001
22,龍江2,(02)2501-8189,台北市中山區龍江路350號,25.065776100000004,121.5408584
53,中信南港,(02)2782-6698,台北市南港區經貿二路186號,25.0588492,121.61493279999999
33,景華,(02)2935-6695,台北市文山區景華街71號,24.9952752,121.5451476
54,南港展覽館,(02)2782-1622,台北市南港區經貿二路1號,25.0560908,121.61758999999999
14,古亭,(02)2391-6052,台北市大安區和平東路一段17號,25.027286399999998,121.5228567
10,延平,(02)2595-5793,台北市大同區延平北路三段38號,25.064535,121.511022
19,林森北,(02)2571-6155,台北市中山區林森北路438號,25.0605386,121.5254231
45,南四,(02)8770-6000,台北市松山區南京東路四段133巷4弄2號,25.0523182,121.55500690000001
57,萬華寶興,(02)2301-2022,台北市萬華區寶興街70號,25.026335999999997,121.49410400000001
27,台北南昌,(02)2321-3329,台北市中正區南昌路一段77號,25.030664,121.51778200000001
16,台北建國,(02)2702-1160,台北市大安區建國南路二段3號,25.033170600000002,121.5381354
36,北投中央,(02)2891-7920,台北市北投區中央北路二段31號,25.136627,121.49561000000001
40,石牌,(02)2828-7232,台北市北投區東華街一段556號,25.115178,121.5154774
8,天母德行,(02)2833-3959,台北市士林區德行東路107號,25.1077501,121.5282105
31,木柵,(02)2936-7819,台北市文山區木柵路三段53號,24.98865,121.56628700000002
4,文化,(02)2861-5769,台北市士林區光華路26巷4-2號,25.137474899999997,121.5418976
24,鴻海三創,(02)2395-1699,台北市中正區市民大道三段2號(櫃號B211),25.0454897,121.5311294
28,濟新,(02)2321-1207,台北市中正區濟南路二段60號之6,25.0401898,121.5319768
47,吳興,(02)8789-5685,台北市信義區吳興街229號,25.0276842,121.5633132
30,東湖2,(02)2631-4805,台北市內湖區東湖路37號,25.068858300000002,121.6137193
49,金山,(02)2322-5502,台北市信義區信義路二段91號1樓之4,25.034405300000003,121.52698229999999
23,南機場,(02)2301-0042,台北市中正區中華路二段307巷18號,25.028998,121.5058426
5,社子,(02)2816-6118,台北市士林區延平北路六段91號,25.0882307,121.50857420000001
41,關渡,(02)2858-8495,台北市北投區知行路301號,25.1220973,121.4671994
17,通化,(02)2709-5052,台北市大安區通化街50號(松仁店移點),25.030663399999998,121.55407859999998
56,西門町,(02) 2312-3789,台北市萬華區武昌街二段4號,25.044340100000003,121.50839209999998
38,北投中和,(02)2893-3109,台北市北投區中和街296號,25.140669,121.50021399999999
1,大南,(02)2881-8220,台北市士林區大南路309號,25.0888285,121.5183746
11,昌吉,(02)2585-7669,台北市大同區昌吉街53號,25.066000600000002,121.5161277
7,華齡,(02)2882-8239,台北市士林區華齡街16號,25.0830366,121.51956409999998
44,南京五,(02)2756-6366,台北市松山區南京東路五段66巷15號,25.050650199999996,121.56097240000001
39,台北自強,(02)2820-0185,台北市北投區自強街101號,25.1108326,121.51515390000002
32,景文,(02)2932-3185,台北市文山區景文街95號,24.990935999999998,121.541377
18,大直,(02)2533-6672,台北市中山區大直街49號,25.083049,121.54645
25,公館1,(02)2368-1311,台北市中正區汀洲路三段179號,25.0148768,121.53275520000001
3,天母,(02)2877-1017,台北市士林區天母西路7號,25.118548,121.52891699999999
46,中坡南,(02)2726-0006,台北市信義區中坡南路20號,25.0434461,121.5825973
55,成都,(02)2311-3371,台北市萬華區成都路41號,25.042725,121.506561
43,台北慶城,(02)2712-3081,台北市松山區長春路470號,25.0543953,121.54631100000002
2,士林中正,(02)2832-0788,台北市士林區中正路342號,25.0946395,121.52196979999998
6,美崙,(02)2833-8406,台北市士林區美崙街5號,25.097194199999997,121.5237192
13,安居,(02)2732-0034,台北市大安區安居街18號,25.021030800000002,121.554809
21,台北錦西,(02)2568-2708,台北市中山區錦西街18號,25.0602346,121.52117220000001
51,潤泰南港,(02)2652-9363,台北市南港區忠孝東路七段359號(櫃位C0107),25.0524855,121.6065925
15,和平東,(02)2705-4832,台北市大安區和平東路二段305號,25.0250206,121.5450059
42,尊賢,(02)2823-2520,台北市北投區尊賢街253號,25.118107000000002,121.5065404
37,北投中央南,(02)2891-9338,台北市北投區中央南路一段124號,25.130266600000002,121.50097759999998
50,台北世貿,(02)2729-7411,台北市信義區基隆路二段19號,25.0321185,121.5592686
12,三峽北大,(02) 2672-8307,新北市三峽區大學路143號,24.9437545,121.3741646
49,林口文化,(02) 2606-8881,新北市林口區文化二路一段62號1樓,25.0684497,121.36551229999999
81,三峽大雅,(02) 2680-6557,新北市樹林區大雅路280號,24.9472771,121.37996059999999
60,新民,(02)2620-1946,新北市淡水區新民街178之6號,25.1789159,121.43682369999999
48,林口中山,(02) 2602-9289,新北市林口區中山路95號,25.078689999999998,121.38958600000001
64,新店北新,(02)2911-2566,新北市新店區北新路一段219號,24.965370999999998,121.540334
22,連城,(02)2221-9121,新北市中和區連城路347巷1弄2號,24.9957972,121.4882652
53,淡水捷運,(02)2626-8119,新北市淡水區中正路1號,25.1748783,121.43273909999998
54,老街,(02)2629-0089,新北市淡水區中正路226號,25.170680100000002,121.43928090000001
10,集美,(02)2975-5299,新北市三重區集美街208號,25.054220899999997,121.49114499999999
85,樹林,(02)2675-6716,新北市樹林區博愛一街19號,24.9911012,121.4255173
7,自強2,(02)8973-1530,新北市三重區文化北路87巷1號之1,25.067373,121.49834709999999
73,新莊五權,(02)2290-0919,新北市新莊區五權一路38號,25.0653319,121.45756399999999
11,三重龍門,(02)2970-1318,新北市三重區龍門路42-1號,25.0724879,121.49597890000001
86,蘆洲民族2,(02)8281-4840,新北市蘆洲區民族路398號,25.09144,121.474929
16,土城立德,(02)2260-1268,新北市土城區立德路40號,24.9873513,121.4635621
52,水碓,(02)2629-8735,新北市淡水區中山北路一段156之4號,25.1778037,121.4437029
84,樹保,(02)2675-3811,新北市樹林區保安街一段73號,24.995012,121.4228013
40,亞東,(02)8967-4465,新北市板橋區四川路二段47巷2-1號,24.9950823,121.45395690000001
83,樹林中華,(02)8686-6336,新北市樹林區中華路92號,24.9811431,121.4187739
4,三重大同,(02)2985-8836,新北市三重區大同北路48號,25.0629575,121.49506650000001
28,凌雲,(02)8295-3883,新北市五股區凌雲路一段99號,25.101524899999998,121.4503169
47,板橋漢東,(02) 2958-5565,新北市板橋區漢生東路303號,25.0082737,121.4717679
30,永安市場,(02)2921-0818,新北市永和區中和路523號,25.0028456,121.5110729
18,土城學府,(02)2270-4575,新北市土城區學府路一段146號,24.987220999999998,121.4548206
31,永和仁愛,(02)3233-2388,新北市永和區仁愛路101號,25.0131369,121.5126865
89,長安,(02)2281-5170,新北市蘆洲區長安街114號,25.081626,121.460815
38,汐止樟樹,(02)2648-5915,新北市汐止區樟樹一路137巷2號,25.065864,121.642127
36,遠雄汐止,(02)2698-2500,新北市汐止區新台五路一段97號(櫃號B12000),25.061980600000002,121.6483357
62,新店大豐,(02)8911-2166,新北市新店區大豐路8-1號,24.980437600000002,121.54124099999999
32,永和文化,(02)2922-5108,新北市永和區文化路80號,25.0153147,121.51414469999999
17,土城裕民,(02)2265-0873,新北市土城區裕民路137-3號,24.9864797,121.45165690000002
25,中和圓通,(02)8245-1560,新北市中和區圓通路303號,24.9908504,121.4935486
70,新莊中和,(02)8994-3297,新北市新莊區中和街178號,25.049498800000002,121.4474679
3,三芝,(02)8635-2766,新北市三芝區中正路一段53號,25.2580378,121.5033533
88,蘆洲光華,(02)8281-5893,新北市蘆洲區光華路173號,25.0819102,121.46493290000001
58,新埔,(02)2801-0172,新北市淡水區淡金路四段560號,25.2275807,121.4518637
43,誠品亞東,(02)8966-6687,新北市板橋區南雅南路二段21號B1 (櫃號：NB19),24.9972647,121.45277150000001
2,八里2,(02)2618-5277,新北市八里區龍米路一段152號,25.125918,121.45284679999999
65,新店民族,(02)8911-0972,新北市新店區民族路243號,24.975386999999998,121.536575
63,新店五峰,(02)2911-3633,新北市新店區中正路53號,24.969860399999998,121.544529
15,土城中央,(02)2273-1535,新北市土城區中央路二段217號,24.9739389,121.441231
67,安康,(02)8666-3631,新北市新店區安康路二段62號1樓,24.963777800000003,121.5148645
72,新莊中港,(02)2276-9538,新北市新莊區中港路333號,25.0453225,121.4522643
50,新北金山,(02)2498-0808,新北市金山區中山路193號,25.221121,121.638053
76,昌隆,(02)2992-9220,新北市新莊區昌隆街54號,25.0507085,121.4547628
35,汐止明峰,02-2695-8696,新北市汐止區明峰街161號,25.0701896,121.62902040000002
26,興南,(02)2948-4402,新北市中和區興南路一段99號,24.989775,121.50826699999999
79,新莊豐年,(02)2201-0008,新北市新莊區豐年街15號,25.032706,121.446614
29,永和中正,(02)8941-6037,新北市永和區中正路184號,24.9969015,121.5154412
20,宜安,(02)2926-7632,新北市中和區宜安路160號,24.998938600000002,121.50913229999999
34,汐止忠孝,(02)8691-0422,新北市汐止區忠孝東路235號,25.067319100000002,121.66268159999998
33,永和保平,(02)2928-7775,新北市永和區保平路21號,25.0074575,121.51266389999999
14,三峽和平,(02) 8674-2318,新北市三峽區和平街40號,24.937357000000002,121.37028719999999
69,新莊中平,(02)8991-8281,新北市新莊區中平路76號,25.044549,121.44491299999999
87,蘆洲民族,(02)2285-5342,新北市蘆洲區民族路89號,25.086234100000002,121.47946529999999
82,樹林中山,(02)2687-2336,新北市樹林區中山路一段149號,24.989224899999996,121.422238
66,新店安和,(02)2941-5981,新北市新店區安和路三段159號,24.9857699,121.51619709999999
13,三峽光明,(02) 2671-0732,新北市三峽區光明路19號,24.931338,121.373301
19,自立,(02)2948-4989,新北市中和區自立路26號,24.9930604,121.52245220000002
9,五華2,(02)2280-2062,新北市三重區車路頭街176號,25.0769739,121.483484
8,自強,(02)2980-6452,新北市三重區自強路一段250號,25.0673318,121.49254690000001
51,泰山明志,(02)2900-2167,新北市泰山區明志路一段304號,25.059576899999996,121.4317169
56,竹圍,(02)8809-1836,新北市淡水區民族路31-21號,25.1361642,121.46183020000001
24,景安,(02)2244-7467,新北市中和區景安路154號,24.993106899999997,121.5047199
78,龍安,(02)2204-9489,新北市新莊區龍安路262號,25.0193627,121.42158719999999
23,景平,(02)8245-2259,新北市中和區景平路502之2號,24.9937669,121.5042366
90,長安2,(02)8282-7023,新北市蘆洲區長安街359號,25.0872784,121.4572025
41,民治,(02)2250-2336,新北市板橋區民治街115號,25.03098,121.478518
80,瑞芳,(02)2497-3661,新北市瑞芳區民生街13號,25.1077995,121.8060686
75,新莊幸福,(02)2279-6697,新北市新莊區幸福路534號,25.049470499999998,121.4556666
71,新莊中和2,(02)2990-8089,新北市新莊區中和街21號,25.0437287,121.44802820000001
1,八里,(02)8630-5433,新北市八里區中山路二段397號,25.146705899999997,121.39808219999999
61,深坑,(02)2664-9013,新北市深坑區埔新街92號,25.002380399999996,121.6190507
27,成泰,(02)8292-3465,新北市五股區成泰路二段184號,25.0845768,121.4386643
45,板橋莊敬,(02)8258-6523,新北市板橋區莊敬路100號,25.0244065,121.4710875
44,板橋重慶,(02)2952-6998,新北市板橋區重慶路179號,25.0024952,121.46277749999999
77,富國,(02)8201-4682,新北市新莊區富國路131號,25.024492000000002,121.424701
39,板橋中正,(02)2965-1180,新北市板橋區中正路168號,25.017075,121.456593
5,三重中正北,(02)8982-8005,新北市三重區中正北路362號,25.069516600000004,121.47722250000001
68,新店寶橋,(02)8911-5989,新北市新店區寶橋路25號,24.974286199999998,121.54407979999999
46,新海,(02)2251-5838,新北市板橋區新海路105號,25.022563899999998,121.461219
55,北新,(02)2623-7260,新北市淡水區北新路182巷21弄3號,25.177184,121.44901000000002
6,五華,(02)2987-5227,新北市三重區五華街136號,25.0837143,121.4915172
57,沙崙,(02)2805-1997,新北市淡水區沙崙路170號,25.1834785,121.4242065
59,淡水,(02)8631-0491~2,新北市淡水區清水街14號,25.1704966,121.44531090000002
21,中和員山,(02)2221-6016,新北市中和區員山路339號,25.0016693,121.48118629999999
91,鶯歌建國,(02) 8678-1719,新北市鶯歌區建國路243號,24.9534529,121.34824760000001
74,民安,(02)2206-8147,新北市新莊區民安西路43號,25.0207479,121.427618
42,板橋金門,(02)2675-8619,新北市板橋區金門街312號,24.98522,121.42872
37,汐止福德,(02)2694-3992,新北市汐止區福德一路214號,25.065327800000002,121.63450449999999
4,高雄瑞隆,(07) 715-3178,高雄市前鎮區瑞隆路502號,22.605375199999997,120.3283377
3,高雄夢時代,(07) 812-8801,高雄市前鎮區中華五路789號B1,22.594904100000004,120.30661129999999
2,高雄小港,(07) 801-0717,高雄市小港區崇文路8號,22.567110999999997,120.35322099999999
1,高雄高醫,(07) 311-1520,高雄市三民區泰安街111號,22.6441112,120.31057240000001
2,台南善化,06-5833-007,台南市善化區中山路315-1號  ,23.1319964,120.2949946
1,台南應大,06-2432043,台南市永康區中正路958號  ,23.040256,120.238451
3,新竹竹汽,03-526-2575,新竹市東區民族路16號-1  ,24.803265,120.97204099999999
2,新竹交大,03-575-1377,新竹市東區大學路1001號/女二舍餐廳A棟  ,24.7846325,120.99936100000001
1,新竹光華(研磨咖啡),03-515-3131,新竹市北區光華北街60號  ,24.8178243,120.97229420000001
3,中壢中正(研磨咖啡),03-2805950,桃園市中壢區中正路51號  ,24.9541156,121.22403659999999
5,桃園延平(研磨咖啡),03-3633838,桃園市桃園區延平路28號  ,24.986699899999998,121.3138254
4,中壢站前(研磨咖啡),03-426-5680,桃園市中壢區中和街139號1樓  ,24.953538,121.24163899999999
6,桃園埔心(楊梅埔心),03-481-0318,桃園市楊梅區中興路18號   ,24.9188046,121.1839598
2,中北,03-437-8497,桃園市中壢區中北路178號  ,24.9569317,121.23974409999998
8,迴龍,02-8209-6228,桃園市龜山區龍華村龍興街4號  ,25.0168569,121.4026182
1,大溪得勝(研磨咖啡),03-388-6088,桃園市大溪區得勝路1號 (桃園客運大溪站第六號店鋪)  ,24.881227,121.28785790000002
7,林口復興(研磨咖啡),03-396-0099,桃園市龜山區復興北路39號1樓  ,25.0590421,121.36965239999999
31,新莊五工(研磨咖啡),02-2298-0268,新北市新莊區五工三路99號  ,25.06554,121.457847
21,板橋重慶,02-2962-6600,新北市板橋區重慶路36號  ,25.0075862,121.46121720000001
32,民安西,02-2201-0010,新北市新莊區民安西路113-1號1F  ,25.018006600000003,121.4267902
13,德光,02-8953-9593,新北市中和區德光路98號  ,25.0035375,121.46852340000002
7,土城延吉(研磨咖啡),02-8262-0233,新北市土城區延吉街266號  ,24.984638699999998,121.46603640000001
33,輔大,02-2901-7071,新北市新莊區建國一路28號  ,25.031509,121.433663
14,興南,02-8668-7783,新北市中和區興南路一段57號1樓  ,24.989887799999998,121.5106074
28,新店中正(研磨咖啡）,02-2911-2912,新北市新店區中正路226號1樓  ,24.972883300000003,121.5401548
29,新店北新(研磨咖啡),02-2911-1788,新北市新店區北新路二段108號   ,24.9741855,121.54325130000001
24,北新,02-8631-5715,新北市淡水區北新路182巷17號  ,25.1776963,121.44906029999999
34,後港,02-2206-0772,新北市新莊區後港一路74號  ,25.026391,121.42693600000001
3,力行,02-2280-8455,新北市三重區車路頭街167號  ,25.0775085,121.4837213
11,中和宜安(研磨咖啡),02-2944-7788,新北市中和區安平路94號1樓  ,24.9969224,121.51139369999999
19,南雅,02-8967-7812,新北市板橋區南雅南路2段138號  ,24.99652,121.451819
15,五股新成泰(研磨咖啡),02-2291-6066,新北市五股區成泰路二段87號1樓  ,25.0840743,121.43816059999999
18,松柏(研磨咖啡),02-8259-5119,新北市板橋區松柏街2號1樓  ,25.0292969,121.473926
20,南雅二,02-2271-0133,新北市板橋區南雅南路一段77號  ,25.0054974,121.4557309
12,南山(研磨咖啡),02-8245-7227,新北市中和區南山路283巷10號  ,24.9924969,121.50453710000001
23,明志,02-2903-1628,新北市泰山區明志路三段181號  ,25.0390802,121.424416
9,中安(研磨咖啡),02-2920-0733,新北市中和區中安街76號  ,25.002101800000002,121.512248
26,埔新(研磨咖啡),02-2662-9155,新北市深坑區埔新街94號   ,25.002322399999997,121.6189311
2,三重中華(研磨咖啡),02-2980-6500,新北市三重區中華路110號  ,25.063557,121.48331100000001
30,新莊中港(研磨咖啡）,02-2996-5686,新北市新莊區中港路135號  ,25.040315,121.455184
36,長安,02-2848-6892,新北市蘆洲區長安街97號  ,25.0806257,121.46175819999999
27,大豐,02-2910-0052,新北市新店區大豐路19號  ,24.9802847,121.5412598
10,中和民安(研磨咖啡）,02-2228-8867,新北市中和區民安街6號   ,25.0009275,121.4807503
5,北大,02-2671-5138,新北市三峽區國際二街33號1樓  ,24.9432267,121.3726061
4,三重五華,02-8287-1683,新北市三重區碧華街317號  ,25.0842315,121.491001
17,板橋四維(研磨咖啡),02-2257-8021,新北市板橋區四維路298號一樓  ,25.0294702,121.4628676
25,真理(研磨咖啡),02-2626-7520,新北市淡水區新民街164號  ,25.178530600000002,121.4370797
6,光明,02-2260-1696,新北市土城區光明街1號1樓  ,24.974819,121.44223600000001
35,民族(研磨咖啡),02-2281-5633,新北市蘆洲區民族路57號  ,25.0856302,121.47881809999998
16,新台五(研磨咖啡),02-2649-9033,新北市汐止區新台五路一段152號之1  ,25.061936,121.653626
22,遠百(研磨咖啡),02-2963-8308,新北市板橋區新民街45-1號1樓  ,25.010845800000002,121.4638672
1,大同,02-2984-1944,新北市三重區大同北路6-1號  ,25.061997899999998,121.49521599999999
8,大勇(研磨咖啡),02-8668-6525,新北市中和區大勇街27巷2號  ,24.9936789,121.5172163
31,北投溫泉(研磨咖啡),02-2897-5385,台北市北投區光明路115號  ,25.133726,121.50196000000001
21,中正同安,02-2368-2968,台北市中正區同安街38號  ,25.024224899999997,121.5216683
32,北投裕民(研磨咖啡),02-2822-6225,台北市北投區裕民一路30號  ,25.1165451,121.51705420000002
13,台北民權西(研磨咖啡),02-2585-0509,台北市中山區天祥路57號  ,25.063288399999998,121.5209097
7,安居二(研磨咖啡),02-8732-1829,台北市大安區和平東路三段258號  ,25.021519899999998,121.55532360000001
38,昆陽(研磨咖啡),02-2652-2886,台北市南港區昆陽街140巷2號  ,25.0498172,121.5941679
33,新東(研磨咖啡),02-2756-5660,台北市松山區新東街29號  ,25.058877600000002,121.56585749999999
14,林森(研磨咖啡),02-2581-9907,台北市中山區林森北路247號欣欣百貨  ,25.0540979,121.52571359999999
28,景美,02-2930-1779,台北市文山區景中街9號  ,24.9930576,121.5418277
29,台北萬芳(研磨咖啡),02-2230-0795,台北市文山區興隆路三段121號  ,24.9988955,121.5581739
24,汀洲,02-2364-9918,台北市中正區羅斯福路四段136巷6號  ,25.0128232,121.5357922
34,慶城,02-2719-1879,台北市松山區慶城街14-1號  ,25.053151100000004,121.5451767
3,社子延平,02-2816-6864,台北市士林區延平北路六段59號  ,25.087862,121.50881270000001
37,北醫(研磨咖啡),02-8789-0133,台北市信義區吳興街277號  ,25.026605,121.564218
39,成都,02-2311-3615,台北市萬華區成都路37號1樓  ,25.042707999999998,121.50663689999999
11,台大小福樓,02-8369-5652,台北市大安區羅斯福路四段1號  ,25.018652600000003,121.53972639999999
19,光華(研磨咖啡),02-2341-8563,台北市中正區市民大道三段8號1樓 (光華數位新天地B02櫃位),25.0450021,121.5321956
15,國賓(研磨咖啡),02-2518-5200,台北市中山區長春路172號  ,25.054579999999998,121.533823
18,南機場(研磨咖啡),02-2303-6701,台北市中正區中華路2段313巷2號  ,25.0280378,121.50606440000001
20,公館,02-2362-1969,台北市中正區汀州路三段195號  ,25.014584,121.533206
12,台北南京西(研磨咖啡),02-2511-8711,台北市中山區中山北路１段140巷13號1樓  ,25.056176899999997,121.52299199999999
23,衡陽(研磨咖啡),02-2382-2557,台北市中正區衡陽路85之1號  ,25.042332000000002,121.51080900000001
9,龍泉(研磨咖啡),02-2362-6264,台北市大安區師大路45-2號  ,25.024326000000002,121.52864709999999
26,台北內湖(研磨咖啡),02-2627-1737,台北市內湖區內湖路一段737巷50弄7號  ,25.080651,121.5787662
2,文化,02-2862-0336,台北市士林區光華路26巷2弄2號  ,25.1375056,121.54208740000001
30,北投榮總(研磨咖啡),02-2871-5558,台北市北投區石牌路二段201號(台北榮民總醫院生活廣場 F-11)  ,25.1197546,121.5201492
36,永吉(研磨咖啡),02-2747-5839,台北市信義區永吉路30巷97號  ,25.0436831,121.56889509999999
27,政大(研磨咖啡),02-2939-2010,台北市文山區指南路二段61號  ,24.9879513,121.57466170000001
10,師大,02-2362-6260,台北市大安區師大路98號  ,25.022434699999998,121.5282831
5,芝山(研磨咖啡),02-2834-2500,台北市士林區福華路164-1號  ,25.1043372,121.5226113
4,士林美崙(研磨咖啡),02-2831-0868,台北市士林區美崙街7號  ,25.097161,121.52363500000001
17,八德,02-2341-6652,台北市中正區八德路一段82巷18號之1  ,25.043554699999998,121.5321271
25,西湖(研磨咖啡),02-8797-6820,台北市內湖區內湖路一段285巷25號  ,25.083132100000004,121.56697820000001
6,台北東吳(研磨咖啡),02-2882-8158,台北市士林區臨溪街70號 綜合大樓B1 東吳大學  ,25.094414999999998,121.545748
35,永吉二(研磨咖啡),02-2768-5508,台北市信義區永吉路30巷177弄1號  ,25.041686,121.568845
16,台北錦州(研磨咖啡),02-2516-7757,台北市中山區錦州街242號  ,25.0601861,121.53388059999999
22,南陽(研磨咖啡),02-2361-1255,台北市中正區南陽街4號1樓  ,25.0452339,121.51600990000001
1,天母(研磨咖啡),02-2875-3592,台北市士林區天母西路3號1之29  ,25.1185712,121.5295409
8,忠孝SOGO(研磨咖啡),02-2751-9200,台北市大安區忠孝東路四段49巷8號   ,25.042842899999997,121.54538400000001
2,高雄大昌,07-3811-425,高雄市三民區大昌一路19號  ,22.6525009,120.3287787
1,高雄十全,07-311-3666,高雄市三民區十全一路109號  ,22.644797699999998,120.31014429999999
14,后里店,04-25565818,台中市后里區甲后路342號,24.330154800000003,120.65521580000001
20,逢甲福星店,04-24525110,台中市西屯區福星路513號,24.177588,120.64527199999999
22,台中向上店,04-23012122,台中市西區向上路1段254號,24.1469779,120.663987
32,烏日店,04-23378889,台中市烏日區中山路2段349號,24.1063543,120.62184609999998
19,台中朝富店,04-22520200,台中市西屯區朝富路50號,24.166501,120.63725
31,美村南店,04-22603968,台中市南區美村南路135號,24.1171674,120.6666872
27,台中南屯店,04-24720916,台中市南屯區南屯路2段106號,24.136133899999997,120.6523942
37,潭子勝利店,04-25351462,台中市潭子區勝利路356,24.214584,120.70072659999998
35,梧棲文化店,04-26570019,台中市梧棲區文化路2段274號,24.2573548,120.53185359999999
13,台中學士店,04-22333020,台中市北區學士路152號,24.158658300000003,120.6810963
30,台中忠孝店,04-22851855,台中市南區忠孝路117號,24.1284838,120.67897959999999
26,東勢店,04-25772060,台中市東勢區中山路94號,24.2569604,120.8289159
1,大甲順天店,04-26880323,台中市大甲區順天路168號,24.3457091,120.6236257
2,大里立人店,04-24850991,台中市大里區中興路2段183-2號,24.106782,120.6894953
21,台中公益店,04-23262221,台中市西區公益路118號,24.151138,120.66104399999999
39,豐原三民店,04-25257711,台中市豐原區三民路123號,24.2532899,120.719141
36,清水店,04-26228989,台中市清水區鎮北街53號,24.268732999999997,120.57485600000001
40,豐原南陽店,04-25221877,台中市豐原區南陽路320號,24.246057999999998,120.72618200000001
12,台中漢口店,04-22377188,台中市北區漢口路四段284號,24.16686,120.682852
18,台中青海店,04-23127576,台中市西屯區青海路1段53號,24.1639439,120.65546499999999
28,台中黎明店,04-22540233,台中市南屯區黎明路2段394號,24.1509956,120.6354017
17,西屯中科店,04-24610261,台中市西屯區西屯路三段169-4號,24.1887187,120.61648170000001
4,大里成功店,04-24930092,台中市大里區成功路452號,24.089198899999996,120.70311840000001
38,東海店,04-26520211,台中市龍井區臺灣大道5段3巷49號,24.1815724,120.5926447
10,台中昌平店,04-22468988,台中市北屯區昌平路1段294號,24.167911,120.69334509999999
25,台中大智店,04-22221367,台中市東區大智路1-2號,24.136359,120.68823200000001
23,台中精誠店,04-23108389,台中市西區精誠路164號,24.1520511,120.654924
41,霧峰店,04-23390716,台中市霧峰區中正路917號,24.0650412,120.69863840000001
15,台中世貿店,04-23587255,台中市西屯區中工三路114號,24.178301,120.61843400000001
11,台中永興店,04-22351110,台中市北區永興街140號,24.1622095,120.6824305
9,台中北平店,04-22340522,台中市北屯區北平路三段169號,24.17105,120.68441499999999
8,水湳店,04-22985808,台中市北屯區大鵬路22號,24.178327600000003,120.6673812
24,沙鹿中山店,04-26628343,台中市沙鹿區中山路325號,24.2387694,120.5598334
5,大雅學府店,04-25668350,台中市大雅區學府路327號,24.2253288,120.6488406
34,神岡中山店,04-25627711,台中市神岡區中山路490號,24.2469322,120.6859919
3,大里中興店,04-24865808,台中市大里區中興路2段423號,24.1129721,120.6896861
33,烏日明道店,04-23364170,台中市烏日區中山路一段427號,24.1075255,120.6378211
7,太平樹孝店,04-23921678,台中市太平區樹孝路53號,24.1510393,120.71648799999998
16,逢甲文華店,04-27080918,台中市西屯區文華路123-1號,24.180398,120.646273
29,台中大慶店,04-22600345,台中市南區大慶街2段6-2號,24.114293,120.65290209999999
6,太平中山店,04-23953633,台中市太平區中山路4段162-1號,24.148279300000002,120.7035068
14,安平運河店,06-3506099,台南市安平區安平路400號,22.998224899999997,120.1750515
20,台南海佃店,06-2509666,台南市安南區海佃路一段233號,23.025455800000003,120.1911412
22,台南大同店,06-2148666,台南市東區大同路2段75號,22.979416,120.2130388
32,新營三民店,06-6326330,台南市新營區三民路112號,23.307433,120.31392209999998
19,安南和順店,06-3553598,台南市安南區安和路五段160號,23.0660974,120.21808349999999
31,新市店,06-5890933,台南市新市區中正路181號,23.0762437,120.2915656
27,台南金華店,06-2637726,台南市南區金華路2段139號,22.980551100000003,120.191131
13,永康復國店,06-2018966,台南市永康區復國一路392號,23.0128702,120.2466892
30,新化店,06-5902293,台南市新化區中正路340號,23.034744,120.308551
26,成大勝利店,06-2082238,台南市東區勝利路149號,22.9953207,120.2178969
1,台南站前店,06-2235799,台南市中西區民族路2段141號,22.9949896,120.2075606
2,台南民族店,06-2235559,台南市中西區民族路3段34號,22.9979822,120.198829
21,佳里延平店,06-7220035,台南市佳里區延平路260號,23.159864000000002,120.17862
12,永康永明店,06-2335598,台南市永康區永明街67-1號,23.0251871,120.2601244
18,台南安和店,06-2562617,台南市安南區安和路一段300號,23.0322521,120.212624
28,麻豆店,06-5706655,台南市麻豆區興中路151號,23.183792999999998,120.25216499999999
17,台南科工店,06-2557699,台南市安南區安中路四段63號,23.0497473,120.17239350000001
4,台南青年店,06-2225099,台南市中西區青年路169號,22.991899,120.20999909999999
10,永康中正店,06-2438855,台南市永康區中正路1002號,23.040945,120.23784540000001
25,台南崇德店,06-2678068,台南市東區崇德路457號,22.9751554,120.22610420000001
23,台南東門店,06-2091556,台南市東區東門路2段265號,22.983938000000002,120.22598300000001
15,安平郡平店,06-2939009,台南市安平區郡平路171號,22.9890836,120.1678081
11,永康正強店,06-2335277,台南市永康區正強街280號,23.0304315,120.25166100000001
9,永康崑山店,06-2058510,台南市永康區大灣路899號,22.9992081,120.25445420000001
8,台南奇美店,06-2521296,台南市永康區大武街19號,23.0198438,120.2222652
24,台南東寧店,06-2367600,台南市東區東寧路408號,22.9897737,120.22852859999999
5,仁德中清店,06-2796830,台南市仁德區中清路39號,22.9693113,120.25578840000001
34,歸仁店,06-3301189,台南市歸仁區中山路2段16號,22.966989399999996,120.29347800000001
3,台南府前店,06-2236585,台南市中西區府前路2段25號,22.990631399999998,120.19690849999999
33,新營店,06-6326600,台南市新營區復興路12號,23.302894000000002,120.31297099999999
7,台南文賢店,06-2588882,台南市北區文賢路271號,23.005671300000003,120.19340590000002
16,台南安中店,06-2822558,台南市安南區安中路一段733號,23.0432728,120.19481470000001
29,善化中正店,06-5830219,台南市善化區中正路454號,23.130953299999998,120.2939965
6,台南公園店,06-2526456,台南市北區公園路856號,23.0137773,120.21242140000001
4,新竹民族店,03-5230708,新竹市東區民族路28號,24.80452,120.972474
10,新竹南大店,03-5624007,新竹市東區南大路382號,24.798034100000002,120.969825
12,新竹食品店,03-5752034,新竹市東區食品路187號,24.7965409,120.9756213
11,新竹清大店,03-5736958,新竹市東區建功一路12號,24.7969615,120.99838229999999
9,新竹金山店,03-5788133,新竹市東區金山街37號,24.7778421,121.021084
8,新竹站前店,03-5226990,新竹市東區林森路12號,24.802212,120.970642
1,新竹中正店,03-5339077,新竹市北區中正路384號,24.814599899999997,120.96267079999998
2,新竹北大店,03-5259963,新竹市北區北大路299號,24.8064875,120.96307900000001
7,新竹園區店,03-5782366,新竹市東區光復路1段444號,24.781823000000003,121.020696
3,新竹東門店,03-5263363,新竹市北區東門街204號,24.8046163,120.9666024
5,新竹巨城店,03-5457555,新竹市東區民權路155號,24.8090874,120.9742483
6,新竹光復店,03-6663229,新竹市東區光復路1段141號,24.781261999999998,121.022825
4,竹北勝利店,03-6683066,新竹縣竹北市勝利二路105號,24.822568,121.02730690000001
1,竹北三民店,03-5528221,新竹縣竹北市三民路371號,24.8339183,121.010325
2,竹北中正店,03-5513336,新竹縣竹北市中正西路120號,24.840414600000003,121.0018263
7,湖口仁和店,03-5970999,新竹縣湖口鄉仁和路134號,24.8723909,121.0153263
8,新竹新豐店,03-5593329,新竹縣新豐鄉新興路211號,24.8696003,120.99587360000001
6,湖口站前店,03-5905217,新竹縣湖口鄉中正路一段12號,24.9023979,121.04451200000001
5,竹東長春店,03-5956529,新竹縣竹東鎮長春路2段31號,24.7377578,121.0883706
3,竹北六家店,03-5500087,新竹縣竹北市文興路1段80號,24.816633,121.0156791
14,楊梅大成店,03-4851636,桃園市楊梅區大成路162號,24.9117992,121.1458261
17,龜山中興店,03-3506333,桃園市龜山區中興路426號,24.993273000000002,121.33708500000002
4,中壢中北店,03-4665010,桃園市中壢區中北路32號,24.955704,121.236529
10,中壢龍岡店,03-4163639,桃園市中壢區龍東路295號,24.9314699,121.25451000000001
19,桃園大竹店,03-3236685,桃園市蘆竹區大竹路491號,25.022251999999998,121.26151000000002
12,桃園中正店,03-3355180,桃園市桃園區中正路514號,25.0025544,121.3062231
15,楊梅埔心店,03-4811799,桃園市楊梅區中興路17號,24.9188481,121.18409679999999
11,平鎮中豐店,03-4192366,桃園市平鎮區中豐路山頂段197號,24.8997264,121.2110352
9,中壢新明店,03-4921636,桃園市中壢區新明路15號,24.9575599,121.2144827
8,中壢新生店,03-4260008,桃園市中壢區新生路203號,24.9618782,121.22290530000001
13,桃園寶山店,03-3258823,桃園市桃園區寶山街228號,25.0121805,121.3156545
1,八德桃鶯店,03-3674052,桃園市八德市桃鶯路65號,24.9707807,121.32749550000001
2,八德廣福店,03-3766009,桃園市八德區廣福路89號,24.9590595,121.29704699999999
20,南崁店,03-2225133,桃園市蘆竹區南崁路176號,25.0477617,121.29393300000001
7,中壢健行店,03-2840155,桃園市中壢區健行路153號,24.949142499999997,121.2275584
3,桃園大園店,03-3866228,桃園市大園區中山北路52號,25.065054800000002,121.197156
16,龍潭東龍店,03-4992188,桃園市龍潭區東龍路266號,24.865801899999997,121.21376470000001
5,內壢站前店,03-4623833,桃園市中壢區忠孝路44號,24.973625,121.2564273
18,林口長庚店,03-3187939,桃園市龜山區復興北路38號,25.058836300000003,121.3695321
6,中壢長春店,03-4636119,桃園市中壢區長春路24號,24.9791198,121.2497971
14,南京開發店,02-27610015,台北市松山區南京東路5段123巷6弄1號,25.0530483,121.5609733
17,南港中坡店,02-27852922,台北市南港區中坡南路5-1號,25.044058,121.582397
4,實踐大學店,02-85096422,台北市中山區大直街63號,25.083539000000002,121.546446
10,台北景美店,02-29332525,台北市文山 區景文街94號,24.990332000000002,121.54096200000001
12,文山興隆店,02-29328008,台北市文山區興隆路二段339號,25.0011358,121.5542274
15,信義松山店,02-23460006,台北市信義區松山路627號,25.036402,121.57856299999999
11,台北木新店,02-29361266,台北市文山區木新路三段141號,24.9817997,121.5616121
9,內湖江南店,02-26596595,台北市內湖區江南街101號,25.076732999999997,121.5768192
8,台大公館店,02-23685310,台北市中正區羅斯福路三段316巷7-2號,25.0156869,121.532223
13,北投石牌店,02-28210688,台北市北投區裕民一路43號,25.1165853,121.51776480000001
1,台北天母店,02-28741762,台北市士林區天母西路11號,25.1185765,121.5286997
2,士林文林店,02-28830952,台北市士林區文林路22號,25.086606,121.52563470000001
7,台北錦西店,02-25218196,台北市中山區錦西街5號,25.0604727,121.5220699
3,台北通化店,02-27372080,台北市大安區通化街109號,25.0294953,121.5542022
16,台北莊敬店,02-87802002,台北市信義區莊敬路343號,25.0279123,121.56432620000001
5,台北長春店,02-25060760,台北市中山區伊通街127-4號,25.0542917,121.5349718
6,台北合江店,02-25081238,台北市中山區合江街113號,25.0600785,121.53930600000001
14,泰山明志店,02-85316774,新北市泰山區明志路一段281號,25.059858,121.4320163
17,新莊富國店,02-29015565,新北市新莊區富國路91號,25.0259052,121.42065459999999
4,土城裕民店,02-22700680,新北市土城區裕民路97號,24.9870253,121.4505676
10,板橋中正店,02-22723607,新北市板橋區中正路180號,25.0176171,121.4563124
19,樹林中山店,02-26860572,新北市樹林區中山路1段73號,24.9879868,121.4215096
12,板橋莒光店,02-22520000,新北市板橋區莒光路50號,25.0242991,121.4706735
15,新莊中平店,02-29987152,新北市新莊區中平路52號,25.044045,121.44496799999999
11,板橋四維店,02-22544406,新北市板橋區四維路300號,25.0295074,121.4626876
9,板橋中山店,02-29582567,新北市板橋區中山路2段185號,25.017011,121.47626000000001
8,汐止中興店,02-86931588,新北市汐止區中興路179-1號,25.066618,121.630569
13,林口竹林店,02-26020537,新北市林口區竹林路27號,25.0773375,121.38664109999999
1,三重文化店,02-29706979,新北市三重區文化北路75號,25.0668729,121.4985317
2,三峽和平店,02-26722836,新北市三峽區和平街101號,24.9381148,121.37027169999999
20,蘆洲光華店,02-82816275,新北市蘆洲區光華路92號,25.082709,121.46766399999998
7,永和樂華店,02-29257008,新北市永和區永和路1段146號,25.0031104,121.49971770000002
3,土城中央店,02-22607222,新北市土城區中央路2段242號,24.975019600000003,121.44177979999999
16,五股五工店,02-22988999,新北市新莊區五工三路94巷1號,25.065767,121.45811499999999
5,中和員山店,02-22259825,新北市中和區員山路146-4號,24.997032,121.481353
18,新莊幸福店,02-29919175,新北市新莊區福壽街75號,25.049652,121.4580949
6,中和景新店,02-29406721,新北市中和區景新街391號,24.9901704,121.51251869999999
14,高雄草衙店,07-8414999,高雄市前鎮區草衙二路444號,22.579529,120.32276200000001
20,高雄武廟店,07-7277141,高雄市苓雅區武廟路118-2號,22.630988100000003,120.3289896
22,高雄後昌店,07-3630456,高雄市楠梓區後昌路734號,22.710228100000002,120.29667099999999
19,高雄自強店,07-2692666,高雄市苓雅區自強三路129號,22.6167609,120.2984726
27,鳳山中山店,07-7405655,高雄市鳳山區中山路100號,22.622612,120.3585225
13,岡山壽天店,07-6231880,高雄市岡山區壽天路113號,22.7945181,120.2911122
26,高雄瑞豐店,07-5525308,高雄市鼓山區裕誠路1172號,22.665999,120.29761940000002
1,高雄大昌店,07-3813335,高雄市三民區大昌一路2-6號,22.652790600000003,120.3287182
2,高雄站前店,07-2860770,高雄市三民區中山一路337號,22.6375404,120.3022057
21,高雄文化店,07-2233275,高雄市苓雅區廣州一街145-1號,22.6254937,120.3165126
12,岡山站前店,07-6211321,高雄市岡山區民有路28號,22.792306600000003,120.2979206
18,高雄文橫店,07-3388900,高雄市苓雅區文橫二路5號,22.615045199999997,120.30660549999999
28,五甲自強店,07-8310750,高雄市鳳山區自強二路157號,22.59686,120.32700009999999
17,高雄六合店,07-2239800,高雄市苓雅區六合路42-5號,22.632356,120.318246
4,高雄陽明店,07-3803003,高雄市三民區陽明路153號,22.640447,120.34145600000001
10,左營大店,07-5886000,高雄市左營區左營大路112號,22.682737699999997,120.28867609999999
25,路竹中正店,07-6075098,高雄市路竹區中正路193號,22.854718899999998,120.263873
23,楠梓站前店,07-3522570,高雄市楠梓區楠梓新路173號,22.726714,120.324874
15,高雄瑞隆店,07-7615598,高雄市前鎮區瑞隆路540號,22.605327600000003,120.32745770000001
11,左營崇德店,07-3454543,高雄市左營區崇德路246號,22.6754305,120.30456059999999
9,小港崇文店,07-8067008,高雄市小港區崇文路20號,22.567254000000002,120.353086
8,高雄大社店,07-3520899,高雄市大社區中山路401號,22.7315117,120.3521787
24,楠梓德賢店,07-3652110,高雄市楠梓區德賢路264號,22.7265767,120.30499509999999
5,高雄鼎山店,07-3928123,高雄市三民區鼎山街560號,22.652182,120.31786100000001
3,高雄博愛店,07-3229582,高雄市三民區博愛一路316號,22.649604,120.303726
7,高雄熱河店,07-3120101,高雄市三民區熱河一街307號,22.643545,120.307813
16,高雄三多店,07-7216246,高雄市苓雅區三多一路285號,22.6219447,120.32941799999999
29,鳳山青年店,07-7777102,高雄市鳳山區青年路二段204號,22.637850699999998,120.35087060000001
6,高雄鼎中店,07-3101307,高雄市三民區鼎中路731號,22.673909899999998,120.3215507
7,豐原店,(04)2524-7221,台中市豐原區中正路198號,24.252010000000002,120.71836100000002
2,新光三越台中店,(04)2259-3484,台中市西屯區台灣大道3段301號B2,24.165131,120.64363300000001
6,大墩店,(04)2328-2695,台中市南屯區大墩路791號,24.154483,120.6494841
5,美村店,(04)2327-3300,台中市西區美村路1段58號,24.1530859,120.66138899999999
3,台中大遠百店,(04)2259-3365,台中市西屯區台灣大道三段251號B2,24.163700199999997,120.64461670000001
4,台中店(老虎城),(04)3606-8899,台中市西屯區河南路3段120號B1(TigerCity),24.1643486,120.6378631
1,自由店,(04)2224-5761,台中市中區自由路2段71號,24.140075600000003,120.6819713
2,西門店,(06)229-0245,台南市中西區西門路2段243號,22.995544,120.199175
3,東寧店,(06)275-2233,台南市東區東寧路246號,22.99062,120.22537700000001
1,新光三越新天地,(06)303-0058,台南市中西區西門路1段658號B2,22.987966,120.1972997
2,新竹巨城店,(03)531-8299,新竹市東區中央路229號B1,24.8094861,120.974721
3,新竹愛買店,(03)572-8345,新竹市東區公道五路2段469號1樓,24.804445899999997,120.9929709
4,大潤發忠孝店,(03)562-3989,新竹市東區忠孝路300號1樓,24.8052292,120.98451659999999
1,新竹店,(03)524-6655,新竹市北區中正路102號,24.8120503,120.96431580000001
2,SOGO中壢店,(03)427-5508,桃園市中壢區元化路357號B1,24.9626957,121.2238507
5,台茂購物中心,(03)212-0217,桃園市蘆竹區南崁路1段112號5樓,25.0462073,121.29530890000001
3,桃園店,(03)333-0056,桃園市桃園區中山路110號,24.994179000000003,121.310111
4,桃園家樂福經國專櫃,(03)316-3169,桃園市桃園區經國路369號2樓,25.0159488,121.30501229999999
1,中壢店,(03)425-1686,桃園市中壢區大同路119號,24.9571733,121.2224085
33,衡陽店,(02)2383-1921,台北市中正區衡陽路62號1樓,25.042155899999997,121.5118
42,誠品信義店,(02)8780-8677,台北市信義區松高路11號B2,25.0397197,121.5658739
9,和平店,(02)2341-0199,台北市大安區和平東路1段13號,25.0272959,121.52268400000001
18,中山店,(02)2541-5660,台北市中山區中山北路1段105巷11號,25.056176899999997,121.52299199999999
1,中山店,(02)2888-2929,台北市士林區中山北路5段570號,25.0950725,121.528351
14,信義店,(02)2707-3598,台北市大安區信義路四段88號1樓,25.033058999999998,121.54756
44,新光三越信義店,(02)2345-3513,台北市信義區松壽路11號B2,25.036544600000003,121.5672369
46,誠品松菸店,(02)6638-5206,台北市信義區菸廠路88號B2,25.0445662,121.56144669999999
16,誠品敦南店,(02)2772-3268,台北市大安區敦化南路1段245號B1,25.0391276,121.549403
3,士林店,(02)2838-4577,台北市士林區中正路300號,25.0948898,121.52323100000001
5,京站台北轉運站1樓專櫃,(02)2558-7838,台北市大同區市民大道1段209號1樓,25.0447598,121.53750900000001
34,衡陽店,(02)2312-2828,台北市中正區衡陽路62號2樓,25.042155899999997,121.5118
32,武昌店,(02)2389-6266,台北市中正區武昌街1段3號,25.044214999999998,121.512841
43,新光信義A8館,(02)8789-8209,台北市信義區松高路12號B2,25.038748899999998,121.5666702
27,台大醫院東址,(02)2391-2198,台北市中正區中山南路7號B1,25.0402741,121.5191591
4,大葉高島屋-天母店,(02)2831-6949,台北市士林區忠誠路2段55號B1,25.111826399999998,121.53152150000001
29,微風台北車站2樓,(02)2388-0756,台北市中正區北平西路3號2樓,25.047701999999997,121.5173735
40,101專櫃,(02)8101-7718,台北市信義區市府路45號B1,25.0334929,121.56410100000001
8,永康店,(02)2356-7656,台北市大安區永康街10巷1號,25.031984899999998,121.52958899999999
30,忠孝西路店(凱撒飯店),(02)2312-2598,台北市中正區忠孝西路1段38號1樓,25.0462585,121.51642179999999
38,民生社區,(02)2764-5008,台北市松山區民生東路5段126號,25.0586273,121.56126640000001
13,信義店,(02)2341-3075,台北市大安區信義路2段162號,25.0336109,121.529046
41,松山店,(02)2528-8138,台北市信義區松山路11號1樓西口廣場,25.0492788,121.57828300000001
21,林森店,(02)2562-3098,台北市中山區林森北路261號,25.0544244,121.52569299999999
20,民權西路店,(02)2563-1396,台北市中山區民權西路60號1樓,25.062592199999997,121.5202115
26,大直美麗華,(02)8501-2367,台北市中山區敬業三路20號B1,25.0833072,121.55716480000001
35,公館店,(02)2369-5955,台北市中正區羅斯福路4段36號,25.0153415,121.53340940000001
19,民生東路店,(02)2511-2213,台北市中山區民生東路1段26-2號,25.057910800000002,121.52385520000001
23,微風南京專櫃,(02)8712-2269,台北市中山區南京東路3段337號B2,25.052006,121.54828899999998
48,西門町,(02)2311-9902,台北市萬華區成都路45號,25.04275,121.5064689
7,大安店,(02)2325-8798,台北市大安區大安路一段235號1樓,25.034215,121.5460866
10,忠孝店,(02)2771-7370,台北市大安區忠孝東路3段174號,25.041528500000002,121.5387506
6,京站台北轉運站B3專櫃,(02)2558-7208,台北市大同區承德路1段1號B3,25.049308,121.5171935
31,新光三越站前店,(02)2382-4942,台北市中正區忠孝西路1段66號B2,25.045944100000003,121.5153112
28,微風台北車站1樓,(02)2375-2138,台北市中正區北平西路3號1樓,25.047701999999997,121.5173735
17,誠品大直實踐店,(02)2533-2568,台北市中山區大直街70號1樓(實踐大學綜合大樓),25.083982000000002,121.5459518
39,微風復興,(02)8772-0313,台北市松山區復興南路1段39號G樓,25.0460629,121.54417169999999
45,ATT信義專櫃,(02)77379630,台北市信義區松壽路12號1樓,25.03531,121.5660665
12,SOGO忠孝店,(02)2721-8624,台北市大安區忠孝東路4段45號B2,25.04194,121.54491370000001
36,民權東路店,(02)2543-4955,台北市內湖區民權東路2段58號,25.0622804,121.53084080000001
24,復興店,(02)2719-9900,台北市中山區復興北路152號,25.0528945,121.54382360000001
49,誠品西門店,(02)2331-3098,台北市萬華區峨眉街52號1樓,25.043798000000002,121.505412
15,通化店,(02)2738-8853,台北市大安區通化街96號,25.0298288,121.55400729999998
37,內湖店,(02)2656-0099,台北市內湖區瑞光路409號,25.078281399999998,121.5711558
22,新光三越南西店,(02)2562-6892,台北市中山區南京西路12號B2,25.0523038,121.52110479999999
11,忠孝二店,(02)2711-8868,台北市大安區忠孝東路4段107號,25.041752300000002,121.54830890000001
2,天母店,(02)2873-1590,台北市士林區中山北路7段19號,25.119218,121.53027800000001
47,南港店,(02)2652-9036,台北市南港區忠孝東路七段369號2樓(南港CITYLINK A棟),25.052222600000004,121.6053107
25,復興店,(02)2781-4649,台北市中山區復興北路84號,25.0512152,121.54381029999999
7,林口三井店,(02)2608-9185,新北市林口區文化三路一段356號1樓,25.0707347,121.3639607
10,新店店,(02)2912-7328,新北市新店區北新路3段93號,24.9817487,121.5413753
2,環球店,(02)7731-7377,新北市中和區中山路3段122號B2,25.006673199999998,121.47477849999999
6,大遠百-板橋,(02)2952-5059,新北市板橋區新站路28號B1,25.013651,121.466765
5,板橋店,(02)2969-2626,新北市板橋區府中路55號,25.009053,121.458256
9,淡水2店,(02)2621-0200,新北市淡水區中正路(老街)242號,25.168927,121.44409209999999
3,比漾廣場店,(02)8231-5238,新北市永和區中山路1段238號B2,25.0027176,121.49884920000001
4,永和店,(02)2921-0193,新北市永和區永和路2段234號,25.0143645,121.5159473
1,三重店,(02)2982-3954,新北市三重區重新路2段15-2號,25.062535399999998,121.4982825
8,淡水店,(02)2621-9120,新北市淡水區中山路34號,25.1698601,121.4443555
12,高雄大遠百店,(07)338-3528,高雄市苓雅區三多四路21號12樓,22.6130137,120.3043672
11,高雄大遠百店,(07)536-0056,高雄市苓雅區三多四路21號11樓,22.6130137,120.3043672
9,高雄夢時代店,(07)812-7098,高雄市前鎮區中華五路789號8樓,22.594904100000004,120.30661129999999
1,高雄大樂店,(07)392-5859,高雄市三民區民族一路463號1樓,22.659104,120.31536570000002
15,五福店,(07)551-1552,高雄市鹽埕區五福四路158號,22.6234063,120.2842435
14,和平店,(07)222-2869,高雄市苓雅區和平一路238號,22.631651,120.3175981
7,漢神高雄店,(07)216-0851,高雄市前金區成功一路266-1號B3,22.6193366,120.2960446
10,高雄夢時代店,(02)2772-3268,高雄市前鎮區中華五路789號B1,22.594904100000004,120.30661129999999
2,高雄漢神巨蛋店,(07)553-9055,高雄市左營區博愛二路777號6樓,22.6695926,120.30228600000001
6,大立百貨專櫃,(07)251-0868,高雄市前金區五福三路59號B1,22.6217177,120.2974801
5,岡山店,(07)621-2314,高雄市岡山區維新路7號,22.7932733,120.2954353
13,大統百貨和平店,(07)229-4980,高雄市苓雅區和平一路218號B1,22.6308988,120.31787479999998
3,高雄漢神巨蛋,(07)555-9688#2006,高雄市左營區博愛二路777號B1,22.670034,120.30307340000002
4,新榮店,(07)552-9256,高雄市左營區新榮街169號,22.670467300000002,120.30190879999999
8,SOGO高雄店,(07)335-5801,高雄市前鎮區三多三路217號B2,22.614216100000004,120.3060483
148,台中市豐原區「三豐店」,04-25150558,台中市豐原市三豐路二段218號,24.2680397,120.7208523
53,台中市北區「五權店」,04-22065718,台中市北區五權路284號,24.151457,120.678478
104,台中市東勢區「中山店」,04-25875779,台中市東勢區中山路58號,24.2572641,120.8297003
35,台中市北屯區「大連店」,04-22936622,台中市北屯區大連路一段345號,24.176792199999998,120.67906229999998
66,台中市石岡區「豐勢二店」,04-25821868,台中市石岡區豐勢路5-1號,24.2600785,120.8167375
129,台中市梧棲區「中央店」,04-26581569,台中市梧棲區中央路一段914-3號,24.247448100000003,120.53826219999999
42,台中市北屯區「昌平店」,04-22322998,台中市北屯區昌平路一段250-1號1F,24.1709079,120.691484
139,台中市潭子區「勝利店」,04-25355829,台中市潭子區勝利路127號,24.209552,120.7010251
20,台中市大雅區「中清店」,04-25608516,台中市大雅區中清路四段863號,24.2400018,120.6310389
126,台中市神岡區「中山店」,04-25626969,台中市神岡區中山路1436號,24.258733399999997,120.66251100000001
118,台中市南區「健康店」,04-22651117,台中市南區美村南路19號,24.1214729,120.6667232
15,台中市大里區「文南店」,04-24073218,台中市大里區文心南路1211號,24.1064586,120.665154
154,台中市豐原區「田心店」,04-25151885,台中市豐原區田心路二段188號,24.239391,120.72120100000001
62,台中市北區「精武店」,04-22151122,台中市北區精武路226號,24.147302800000002,120.68970790000002
102,台中市東區「樂成店」,04-22115329,台中市東區樂業路198號,24.138612,120.697725
115,台中市南區「工學店」,04-22611711,台中市南區工學路147號,24.116623999999998,120.65976699999999
140,台中市潭子區「雅潭店」,04-25332386,台中市潭子區雅潭路一段131號,24.215898000000003,120.70184679999998
64,台中市外埔區「中山店」,04-26831683,台中市外埔區甲后路328號,24.3090005,120.723192
70,台中市西屯區「大墩店」,04-23207668,台中市西屯區大墩路858號,24.155873,120.650175
61,台中市北區「永興店」,04-22306516,台中市北區漢口路四段248號,24.1669244,120.68156929999999
51,台中市北屯區「興安店」,04-22462618,台中市北屯區興安路一段273號,24.17278,120.69413999999999
138,台中市潭子區「栗林店」,04-25365772,台中市潭子區祥和路197號,24.2297401,120.71011499999999
86,台中市西屯區「櫻花店」,04-23176122,台中市西屯區櫻花路86號,24.1709086,120.651129
132,台中市清水區「中華店」,04-26223673,台中市清水區中華路470號,24.2748136,120.57099369999999
80,台中市西屯區「西屯店」,04-24527812,台中市西屯區河南路二段229號,24.1752802,120.6497558
137,台中市潭子區「東寶店」,04-25341422,台中市潭子區昌平路三段108號,24.2032575,120.67464070000001
92,台中市西區「篤行店」,04-22018822,台中市西區篤行路209號,24.1513807,120.6734979
7,台中市大肚區「沙田店」,04-26990986,台中市大肚區沙田路二段548-2號,24.148965,120.5459815
156,台中市豐原區「南陽店」,04-25224868,台中市豐原區南陽路406號,24.2469659,120.72460600000001
71,台中市西屯區「工業店」,04-23591618,台中市西屯區工業一路98之22號,24.1749455,120.61401470000001
98,台中市東區「十甲店」,04-22152516,台中市東區十甲路412號,24.144189,120.708168
131,台中市清水區「中山店」,04-26222867,台中市清水區中山路199號,24.267654399999998,120.5747473
152,台中市豐原區「水源店」,04-25255538,台中市豐原區水源路213號,24.255647399999997,120.7396739
26,台中市中區「民生店」,04-22298585,台中市中區臺灣大道一段320號,24.1453548,120.67616100000001
45,台中市北屯區「東山三店」,04-22470055,台中市北屯區東山路一段35-2號,24.1703277,120.6989895
68,台中市后里區「公安店」,04-25588827,台中市后里區公安路56號,24.304491199999998,120.71172450000002
34,台中市太平區「廣三店」,04-23950077,台中市太平區樹德路233號,24.156878,120.712143
47,台中市北屯區「松竹店」,04-22491191,台中市北屯區松竹路二段376號1樓,24.182272,120.6893389
125,台中市神岡區「大洲店」,04-25227575,台中市神岡區大洲路313號,24.2530982,120.69659740000002
130,台中市梧棲區「文化店」,04-26571693,台中市梧棲區文化路二段268號,24.2572508,120.5317369
121,台中市烏日區「中山店」,04-23375661,台中市烏日區中山路一段310號,24.1084302,120.6396203
58,台中市北區「自強店」,04-23606628,台中市北區進化路347號,24.1537763,120.694202
84,台中市西屯區「福星北店」,04-27061388,台中市西屯區福星路325號,24.181271600000002,120.64517420000001
135,台中市潭子區「興華店」,04-25317571,台中市潭子區大豐路三段70號,24.2210288,120.69228429999998
14,台中市大里區「仁愛店」,04-24920357,台中市大里區仁化路458-3號,24.0961282,120.7036603
43,台中市北屯區「北平二店」,04-22411258,台中市北屯區昌平路二段2-49號,24.179144,120.6908114
145,台中市龍井區「新興店」,04-26521766,台中市龍井區新興路38-5號,24.1808158,120.5889065
91,台中市西區「美村店」,04-23785129,台中市西區美村路一段666號,24.1356268,120.66147859999998
44,台中市北屯區「東山二店」,04-24350099,台中市北屯區東山路一段156號,24.170334,120.7084334
95,台中市沙鹿區「中興店」,04-26368327,台中市沙鹿區向上路七段26號,24.2048625,120.5661116
11,台中市大里區「中興店」,04-24817168,台中市大里區中興路二段183-7號,24.106938600000003,120.68959960000001
142,台中市潭子區「頭張店」,04-25341917,台中市潭子區頭張路一段42號,24.194496100000002,120.70137369999999
50,台中市北屯區「熱河店」,04-22470776,台中市北屯區熱河路二段180號,24.172894,120.687913
1,台中市大甲區「光明店」,04-26761186,台中市大甲區光明路19號,24.3436741,120.6247331
85,台中市西屯區「福星店」,04-27081717,台中市西屯區福星路592號,24.1747445,120.6468729
75,台中市西屯區「市政店」,04-22515176,台中市西屯區市政路614號,24.161911899999996,120.6330203
136,台中市潭子區「光陽店」,04-25362558,台中市潭子區光陽路36號,24.2108138,120.7105047
141,台中市潭子區「榮興店」,04-25359171,台中市潭子區榮興街47號,24.188598000000002,120.70169840000001
3,台中市大甲區「通天店」,04-26811618,台中市大甲區通天路218號,24.3817367,120.65365320000001
8,台中市大里區「國光店」,04-24079118,台中市大里區大里路238號,24.1002689,120.680828
127,台中市神岡區「民生店」,04-25626569,台中市神岡區民生路27之5號,24.2455639,120.68202690000001
123,台中市烏日區「中華店」,04-23388978,台中市烏日區中華路581號,24.1076683,120.63415230000001
124,台中市烏日區「溪南店」,04-23355861,台中市烏日區溪南路一段630號,24.0765855,120.64317179999999
77,台中市西屯區「福林二店」,04-24652286,台中市西屯區西屯路3段166之19號,24.1902391,120.61339369999999
90,台中市西區「公正店」,04-23020918,台中市西區美村路一段229號,24.149243,120.6618703
13,台中市大里區「仁化店」,04-24938538,台中市大里區仁化路200-5號,24.094521,120.715121
88,台中市西區「林森店」,04-23718116,台中市西區林森路249號,24.1401717,120.66759499999999
97,台中市沙鹿區「鎮南店」,04-26367373,台中市沙鹿區興安路1號,24.234154699999998,120.560032
72,台中市西屯區「中工店」,04-23588876,台中市西屯區中工三路165號,24.177047,120.61846899999999
74,台中市西屯區「福星二店」,04-24515666,台中市西屯區文華路7之4號,24.1759329,120.6452173
160,台中市霧峰區「四德店」,04-23319911,台中市霧峰區四德路348號1樓,24.0651872,120.6803922
155,台中市豐原區「豐原成功店」,04-25121265,台中市豐原區成功路173號,24.2450306,120.70930990000002
79,台中市西屯區「福林店」,04-24632168,台中市西屯區西屯路三段151-7號,24.186066,120.622309
41,台中市北屯區「四平店」,04-24226883,台中市北屯區后庄路71-3號,24.192865,120.68172
94,台中市沙鹿區「光華店」,04-26656136,台中市沙鹿區光華路345號,24.242463,120.564874
157,台中市豐原區「豐東店」,04-25283916,台中市豐原區豐東路212號,24.249467000000003,120.731297
116,台中市東區「忠孝店」,04-22812121,台中市南區忠孝路186號,24.129777999999998,120.68308
106,台中市南屯區「寶山店」,04-23820569,台中市南屯區五權西路三段97號,24.153409,120.614447
111,台中市南屯區「南屯店」,04-24755185,台中市南屯區南屯路二段105號,24.135816199999997,120.6522331
144,台中市龍井區「中央店」,04-26380783,台中市龍井區中央路二段239號,24.209827,120.52397009999999
147,台中市龍井區「遊園二店」,04-26911908,台中市龍井區遊園路二段37號,24.169879,120.57938999999999
108,台中市南屯區「向心南店」,04-24758366,台中市南屯區向心南路958號,24.1368923,120.6440392
19,台中市大雅區「民生店」,04-25602727,台中市大雅區上雅村民生路一段185號,24.2287646,120.6547575
56,台中市北區「民權店」,04-22071588,台中市北區民權路472-6號,24.158772,120.670732
73,台中市西屯區「中康店」,04-24256622,台中市西屯區中清路二段1416號,24.1963015,120.65790290000001
109,台中市南屯區「文山店」,04-23801885,台中市南屯區忠勇路991-號,24.1497551,120.6154703
28,台中市太平區「中山店」,04-23922182,台中市太平區中山路三段54號,24.1491693,120.72056709999998
18,台中市大里區「新仁店」,04-22759299,台中市大里區新仁路一段123-9號,24.1110807,120.7034314
57,台中市北區「德化店」,04-22303038,台中市北區永興街103號,24.161313600000003,120.68224740000002
23,台中市大雅區「雅環店」,04-25603586,台中市大雅區雅環路一段325號,24.2234517,120.65350500000001
25,台中市中區「建國店」,04-22257688,台中市中區建國路157號,24.138102800000002,120.6852045
153,台中市豐原區「市前店」,04-25207829,台中市豐原區市前街9號,24.2486413,120.71543020000001
24,台中市大雅區「學府店」,04-25652776,台中市大雅區學府路162號,24.2205919,120.65021159999999
128,台中市神岡區「豐洲店」,04-25122805,台中市神岡區豐洲路186號,24.259014999999998,120.71001799999999
149,台中市豐原區「站前店」,04-25222225,台中市豐原區三民路90號,24.253785600000004,120.7205959
21,台中市大雅區「永和店」,04-25692373,台中市大雅區永和路134-4號,24.220976500000003,120.64447659999998
10,台中市大里區「塗城店」,04-24966778,台中市大里區中興路一段167-1號,24.0881142,120.695573
31,台中市太平區「太平店」,04-22758779,台中市太平區太平路156號,24.1204576,120.72090370000001
69,台中市后里區「甲后店」,04-25567995,台中市后里區甲后路442號,24.3092619,120.7206487
101,台中市東區「復興店」,04-22218893,台中市東區復興路四段147號,24.135973999999997,120.68606799999999
113,台中市南屯區「萬和店」,04-23802000,台中市南屯區黎明路一段942-2號,24.1353925,120.6368219
158,台中市霧峰區「德維店」,04-23311166,台中市霧峰區中正路1118號,24.0698273,120.6994425
38,台中市北屯區「太原店」,04-22317171,台中市北屯區太原路三段199號,24.1650782,120.6918418
105,台中市東勢區「豐勢店」,04-25888279,台中市東勢區豐勢路68號,24.2483362,120.8317543
12,台中市大里區「中興二店」,04-24852666,台中市大里區中興路二段588號,24.114559,120.6898027
81,台中市西屯區「河南店」,04-27080185,台中市西屯區河南路二段471之3號,24.169179500000002,120.64238859999999
78,台中市西屯區「大信店」,04-23132686,台中市西屯區西屯路二段21之1號,24.1653583,120.6560351
29,台中市太平區「新福店」,04-23980300,台中市太平區中山路四段143號,24.148064399999996,120.7030307
159,台中市霧峰區「中正店」,04-23331658,台中市霧峰區中正路822號,24.0622974,120.6985277
150,台中市豐原區「豐大店」,04-25238566,台中市豐原區中正路668號,24.250085000000002,120.70499299999999
16,台中市大里區「東榮店」,04-24870618,台中市大里區東榮路463號,24.1095419,120.681248
89,台中市西區「勤美店」,04-23020677,台中市西區美村路一段199號,24.149918,120.662002
93,台中市沙鹿區「竹林店」,04-26633939,台中市沙鹿區中山路184-1號,24.237586399999998,120.56365349999999
9,台中市大里區「大明店」,04-24824888,台中市大里區大明路288號,24.115274399999997,120.6822743
107,台中市南屯區「永春南店」,04-23800371,台中市南屯區永春南路49號,24.138262,120.61186599999999
134,台中市潭子區「大新店」,04-25361356,台中市潭子區大新路88號,24.202428899999997,120.7066028
114,台中市南區「大慶店」,04-22627938,台中市南區大慶街二段11號,24.1129298,120.6496158
36,台中市北屯區「大鵬店」,04-22968966,台中市北屯區大鵬路62號,24.178331600000003,120.6666396
49,台中市北屯區「豐樂店」,04-24212138,台中市北屯區崇德路三段602號,24.1932493,120.6867131
120,台中市南區「國光店」,04-22850893,台中市南區國光路156-3號,24.127817999999998,120.67846000000002
2,台中市大甲區「青年店」,04-26817080,台中市大甲區青年路55號,24.405306699999997,120.64447279999999
52,台中市北區「三民店」,04-22339536,台中市北區三民路三段257號,24.15614,120.68733
87,台中市西區「五權二店」,04-22050266,台中市西區五權路56-2號,24.145889800000003,120.6718865
37,台中市北屯區「中清店」,04-22991305,台中市北屯區中清路二段222號,24.177533399999998,120.6694163
27,台中市太平區「勤益店」,04-23918688,台中市太平區中山路一段272號,24.1423488,120.73316670000001
17,台中市大里區「鳳城店」,04-24969891,台中市大里區塗城路950號,24.0908974,120.69361440000002
55,台中市北區「立人店」,04-22922186,台中市北區北平路二段19號,24.1718498,120.6727134
151,台中市豐原區「中正店」,04-25270175,台中市豐原區中正路729號,24.248959399999997,120.70107250000001
133,台中市新社區「興安店」,04-25823417,台中市新社區興安路18-40號,24.24074,120.80794329999999
161,台中市霧峰區「民生店」,04-23326681,台中市霧峰區民生路268號,24.0760345,120.71485290000001
122,台中市烏日區「成功店」,04-23365899,台中市烏日區中山路三段593號,24.1106522,120.6004433
99,台中市東區「大智店」,04-22258299,台中市東區大智路59號,24.1350199,120.688892
65,台中市外埔區「甲后店」,04-26801965,台中市外埔區甲后路717號,24.3440491,120.63490359999999
96,台中市沙鹿區「靜宜店」,04-26523388,台中市沙鹿區英才路11-2號,24.2265328,120.5750346
119,台中市南區「高工店」,04-22625611,台中市南區高工路287號,24.1139047,120.6650227
67,台中市石岡區「豐勢店」,04-25821168,台中市石岡區豐勢路766號,24.273305999999998,120.7905196
48,台中市北屯區「東山店」,04-22399916,台中市北屯區軍功路二段102號,24.177723899999997,120.71950749999999
6,台中市大肚區「沙田二店」,04-26932067,台中市大肚區沙田路一段327號,24.1215272,120.56887350000001
100,台中市東區「建成店」,04-22810599,台中市東區建成路661號,24.131768700000002,120.6907602
39,台中市北屯區「北平店」,04-22347768,台中市北屯區北平路三段151號,24.171076,120.68402900000001
46,台中市北屯區「遼寧店」,04-22465578,台中市北屯區松竹路二段169號,24.183119100000003,120.6956541
83,台中市西屯區「朝富店」,04-22595757,台中市西屯區朝富路46號,24.1665669,120.6374547
112,台中市南屯區「黎明店」,04-24701935,台中市南屯區黎明路一段118號,24.1147242,120.62648259999999
82,台中市西屯區「新青海店」,04-23175669,台中市西屯區青海路一段156號,24.165445000000002,120.653411
110,台中市南屯區「東興店」,04-24725212,台中市南屯區東興路二段276號,24.143667899999997,120.65313020000002
33,台中市太平區「樹孝店」,04-23937717,台中市太平區樹孝路95號,24.151985,120.717019
63,台中市北區「五常店」,04-22073211,台中市北區學士路151號,24.1582535,120.6807903
76,台中市西屯區「大信二店」,04-23153711,台中市西屯區甘肅路一段188號,24.168027399999996,120.6575469
5,台中市大甲區「蔣公店」,04-26882861,台中市大甲區蔣公路223號,24.3469765,120.619697
30,台中市太平區「中興店」,04-23511776,台中市太平區中興路140號,24.126494,120.71428859999999
40,台中市北屯區「后庄店」,04-24258822,台中市北屯區后庄路22號,24.188798199999997,120.663002
59,台中市北區「漢口店」,04-22928358,台中市北區漢口路三段102號,24.166692,120.67009499999999
22,台中市大雅區「雅潭店」,04-25652278,台中市大雅區雅潭路四段48號,24.2166027,120.66664070000002
143,台中市潭子區「豐興店」,04-25395345,台中市潭子區豐興路一段467號,24.2014521,120.72224709999999
117,台中市南區「南門店」,04-22856262,台中市南區南門路111號,24.122179,120.67993600000001
54,台中市北區「北屯店」,04-22377722,台中市北區北屯路14之4號,24.171545899999998,120.698977
60,台中市北區「文昌店」,04-22362007,台中市北區漢口路四段238號,24.1668699,120.681331
4,台中市大甲區「順天店」,04-26881565,台中市大甲區順天路193號,24.345801899999998,120.623314
32,台中市太平區「東平店」,04-22730369,台中市太平區東平路495號,24.133465100000002,120.71925309999999
103,台中市東區「樂業店」,04-22151815,台中市東區樂業路449號,24.1366925,120.70669550000001
146,台中市龍井區「遊園店」,04-26529779,台中市龍井區遊園南路151號,24.1830098,120.5845832
53,台南市歸仁區「中正店」,06-2306606,台南市歸仁區中正一街65號,22.9661113,120.2956003
35,台南市南區「金華總店」,06-2658812,台南市南區金華路二段15巷25號,22.9760311,120.189908
18,台南市永康區「鹽行店」,06-2542826,台南市永康區中正路505號,23.0376332,120.241111
42,台南市東區「富農店」,06-2677208,台南市富農街二段35號,22.9860545,120.2355608
23,台南市白河區「白河中山店」,06-6830001,台南市白河區中山路6-1號,23.3475575,120.41412539999999
25,台南市安平區「安平店」,06-2412986,台南市安平區安北路6號,22.9993022,120.16812079999998
24,台南市安南區「安中店」,06-2557826,台南市安中路四段32號,23.0502759,120.17283459999999
15,台南市永康區「南工店」,06-2013666,台南市永康區中山南路207號,23.0151698,120.2352142
21,台南市永康區「復國二店」,06-2329678,台南市永康區復國一路576號,23.016575699999997,120.24368600000001
10,台南市安平區「五期店」,06-2989211,台南市平通路508號,22.993546600000002,120.17220690000002
31,台南市佳里區「延平店」,06-7217077,台南市佳里區延平路20號,23.154189300000002,120.1796578
28,台南市安南區「安順店」,06-2562881,台南市安南區安和路一段273號,23.031978,120.212506
38,台南市南區「國民店」,06-2683398,台南市國民路89號,22.9672663,120.2136571
12,台南市永康區「崑山店」,06-2720616,台南市永康區大仁街75號,23.002186399999996,120.2567513
7,台南市北區「北園店」,06-2357357,台南市北區北園街55號,23.009766100000004,120.2231192
29,台南市安南區「海佃店」,06-2560928,台南市安南區海佃路二段373號,23.0395593,120.1876784
16,台南市永康區「永康店」,06-2316211,台南市永康區中山路107號,23.0302822,120.25603290000001
43,台南市新化區「新化中山」,06-5801667,台南市新化區中山路471號,23.035732199999998,120.30351929999999
26,台南市安定區「港口店」,06-5931526,台南市安定區港南村145-1號,23.1023662,120.2483047
45,台南市新化區「那拔林店」,06-5912618,台南市新化區那拔林56-2號,23.067988600000003,120.3499923
6,台南市北區「文成店」,06-3581886,台南市北區文賢三街128號,23.0125406,120.1984318
36,台南市南區「夏林店」,06-2410566,台南市南區夏林路1-31號,22.9857723,120.19505249999999
47,台南市新化區「新化店」,06-5908166,台南市新化區信義路195號,23.0350473,120.3089381
49,台南市新營區「新營店」,06-6372313,台南市新營區復興路82號,23.3033702,120.31110159999999
51,台南市楠西區「楠西店」,06-5751699,台南市楠西區楠西里中正路90號,23.1771515,120.4847538
2,台南市仁德區「太子店」,06-2718166,台南市仁德區太子路180號,22.991351,120.26211699999999
52,台南市東區「榮譽店」,06-2693125,台南市榮譽街92號1樓,22.974743,120.21764499999999
37,台南市柳營區「柳營店」,06-6220688,台南市柳營區東昇村542之1號,23.278999,120.32536999999999
27,台南市安南區「大安店」,06-2453678,台南市安南區大安街63號,23.0317748,120.1920507
17,台南市永康區「歐洲店」,06-2041787,台南市永康區中正路218號,23.0308266,120.2519861
14,台南市永康區「大灣店」,06-2732876,台南市永康區大灣路337號,23.0042758,120.2662328
9,台南市北區「武聖店」,06-3580676,台南市北區武聖路28號,23.005473300000002,120.1926688
20,台南市永康區「永安店」,06-2433777,台南市永康區永安路133號,23.0447105,120.24493159999999
55,台南市南區「灣裡店」,06-2621382,台南市灣裡路281號,22.926283899999998,120.1823297
44,台南市新化區「遠東店」,06-5981666,台南市新化區中正路1201號,23.059364000000002,120.29677959999998
11,台南市歸仁區「歸仁店」,06-2395372,台南市民權南路179號,22.9634245,120.28780590000001
34,台南市東區「裕信店」,06-3317966,台南市東區裕信路368號,22.979335100000004,120.24494399999999
50,台南市新營區「新進店」,06-6378520,台南市新營區新進路327號,23.300907000000002,120.3145883
46,台南市新化區「新化忠孝」,06-5906188,台南市新化區忠孝路43-1號,23.038376500000002,120.3074132
48,台南市新市區「民生店」,06-5899688,台南市新市區民生路5號,23.078274399999998,120.29128030000001
3,台南市北區「大興店」,06-3501698,台南市北區中華北路一段136號,23.0101355,120.18546090000002
8,台南市北區「育德總店」,06-2519686,台南市北區育德路520號,23.0148099,120.20680540000001
39,台南市麻豆區「麻豆中山」,06-5715903,台南市麻豆區中山路127號,23.1835169,120.24519790000001
1,台南市西區「民權店」,06-2215311,台南市中西區民權路三段33號,22.9963169,120.1986747
40,台南市麻豆區「興中店」,06-5725091,台南市麻豆區興中路186之3號,23.183556600000003,120.2545696
13,台南市永康區「大武店」,06-2525453,台南市永康區大武街22號,23.019746899999998,120.22257309999999
33,台南市東區「崇德店」,06-2681938,台南市東區崇德路479號,22.974636800000003,120.22685049999998
5,台南市北區「新公園店」,06-2515816,台南市北區公園路822-1號,23.0122041,120.21144469999999
30,台南市西港區「西港店」,06-7953070,台南市西港區慶安村新興街18號,23.120562,120.20149599999999
41,台南市善化區「善化二店」,06-5831133,台南市善化區中山路208-2號,23.132606600000003,120.2994018
22,台南市玉井區「玉井店」,06-5741668,台南市玉井區中華路245號,23.1210362,120.4653156
54,台南市關廟區「關廟店」,06-5950311,台南市關廟區南雄路二段178號,22.9639268,120.32888090000002
4,台南市北區「公園南店」,06-2203718,台南市北區公園南路259號,23.0020983,120.2045237
32,台南市東區「仁和店」,06-2680189,台南市東區仁和路118-1號,22.9713052,120.23300900000001
19,台南市永康區「二王店」,06-2334996,台南市永康區文化路241號,23.014964600000003,120.2548312
17,新竹市林森路「林森店」,03-5250111,新竹市林森路76號,24.8010635,120.9672408
14,新竹市東大路「東大店」,03-5360134,新竹市東大路四段246-1號,24.844903,120.929744
18,新竹市金山九街「金山店」,03-6661608,新竹市金山九街38號,24.7780201,121.020827
9,新竹市光復路「長春店」,03-5788157,新竹市光復路一段442號,24.784864600000002,121.0139108
23,新竹市寶山路「寶山店」,03-5629595,新竹市寶山路120號,24.7924747,120.9748862
20,新竹市南大路「明湖店」,03-5629787,新竹市南大路619號,24.788027399999997,120.967321
11,新竹市中山路「中山店」,03-5250586,新竹市西大路416號,24.803379,120.964904
15,新竹市東門街「東門店」,03-5285058,新竹市東門街139號,24.803935,120.9677561
21,新竹市建新路「建新店」,03-5728218,新竹市建新路34號,24.79812,120.99696000000002
10,新竹市光復路「大學店」,03-5719953,新竹市光復路二段22號,24.7914116,121.00428840000001
3,新竹市中央路「中央店」,03-5439911,新竹市中央路304號,24.810105800000002,120.97792749999999
8,新竹市光復路「光復店」,03-5632788,新竹市光復路一段162號,24.78177,121.02276699999999
1,新竹市「大庄路」,03-5387868,新竹市大庄路46號,24.78933,120.92773799999999
12,新竹市西大路「西大店」,03-5246611,新竹市西大路650號,24.80817,120.9612
7,新竹市民生路「民生店」,03-5311386,新竹市民生路262號,24.8127154,120.9751736
13,新竹市忠孝路「忠孝店」,03-5721321,新竹市忠孝路241號,24.8054,120.98735900000001
16,新竹市林森路「四維店」,03-5280369,新竹市林森路261號,24.7978882,120.96251969999999
5,新竹市五福路「五福店」,03-5183589,新竹市五福路二段719號,24.7566205,120.9526545
22,新竹市食品路「食品店」,03-5611367,新竹市食品路231號,24.795666100000002,120.974341
6,新竹市水田街「水田店」,03-5351622,新竹市水田街85號,24.815651000000003,120.967647
4,新竹市中正路「中正店」,035-313152,新竹市中正路273號,24.813022,120.963401
19,新竹市南大路「南大店」,03-5611316,新竹市南大路448號,24.796928100000002,120.968108
2,新竹市北大路「北大店」,03-5235906,新竹市中山路213號,24.802169,120.962093
17,新竹縣湖口鄉「民權店」,03-6993767,新竹縣湖口鄉民權街36之2號,24.9014109,121.045819
14,新竹縣芎林鄉「文山店」,03-5921158,新竹縣芎林鄉文山路521號,24.777085800000002,121.0778097
18,新竹縣湖口鄉「成功店」,03-5997238,新竹縣湖口鄉成功縣92號,24.905546700000002,121.0435615
9,新竹縣竹北市「華興店」,03-5511132,新竹縣竹北市華興街278號,24.8377542,120.99992920000001
25,新竹縣寶山鄉「寶新店」,03-5191500,新竹縣寶山鄉明湖路67號,24.764693700000002,120.98707720000002
23,新竹縣橫山鄉「中正店」,03-5849155,新竹縣橫山鄉內灣村中正路83號,24.705246799999998,121.1821389
20,新竹縣新豐鄉「建興店」,03-5578738,新竹縣新豐鄉建興路一段143號1樓,24.8735517,120.9946041
24,新竹縣關西鎮「明德店」,03-5871288,新竹縣關西鎮明德路99號,24.793451100000002,121.17625259999998
11,新竹縣竹東鎮「中豐店」,03-5104577,新竹縣竹東鎮中豐路二段17號,24.7219373,121.09577990000001
15,新竹縣湖口鄉「工業店」,03-5983077,新竹縣湖口鄉工業一路25號,24.869599700000002,121.02671299999999
21,新竹縣新豐鄉「新市店」,03-5575388,新竹縣新豐鄉新市路57號,24.900019699999998,120.98604590000001
10,新竹縣竹東鎮「二重店」,03-5825719,新竹縣竹東鎮中興路三段185號,24.767498100000005,121.055765
3,新竹縣竹北市「中正東店」,03-5538176,新竹縣竹北市中正東路172號,24.8352409,121.01546529999999
8,新竹縣竹北市「博愛店」,03-5527263,新竹縣竹北市博愛街455號,24.8382076,121.00976429999999
1,新竹縣竹北市「仁愛店」,03-5533755,新竹縣竹北市三民路257號,24.8330643,121.0130791
12,新竹縣竹東鎮「長春店」,03-5959843,新竹縣竹東鎮長春路二段61號1樓,24.7383664,121.0878315
7,新竹縣竹北市「博愛二店」,03-5519335,新竹縣竹北市博愛街139號1樓,24.831400100000003,121.00479409999998
13,新竹縣竹東鎮「中興店」,03-5110866,新竹縣竹東鎮長春路三段273號,24.7455921,121.08164440000002
16,新竹縣湖口鄉「仁和店」,03-6960522,新竹縣湖口鄉仁和路141號,24.872846,121.01494070000001
5,新竹縣竹北市「縣政店」,03-5588658,新竹縣竹北市光明六路45號,24.825107,121.013411
22,新竹縣新豐鄉「新興店」,03-5576815,新竹縣新豐鄉新興路39號,24.86564,120.992139
6,新竹縣竹北市「光明店」,03-5503677,新竹縣竹北市光明六路東一段255號,24.8206333,121.0268747
4,新竹縣竹北市「文興店」,03-6682088,新竹縣竹北市文興路一段194號,24.8106704,121.027654
19,新竹縣新埔鎮「中正店」,03-5888129,新竹縣新埔鎮中正路716號,24.827720000000003,121.072754
2,新竹縣竹北市「中正西店」,03-5518897,新竹縣竹北市中正西路81號,24.8405586,121.00104850000001
53,桃園市桃園區「中正二店」,03-3469977,桃園市桃園區中正路684號,25.0064123,121.3038287
35,桃園市中壢區「新明店」,03-2811597,桃園市中壢區新明路43號,24.9582417,121.2146439
66,桃園市楊梅區「中山北店」,03-4317277,桃園市楊梅區中山北路2段162號,24.908986300000002,121.1711156
42,桃園市平鎮區「中豐店」,03-4392311,桃園市平鎮區中豐路南勢二段159號,24.9149365,121.2107192
20,桃園市中壢區「中華店」,03-4634223,桃園市中壢區中華路一段197號1樓,24.973254500000003,121.2595679
15,桃園市中壢區「中山東店」,03-4567625,桃園市中壢區中山東路二段167號,24.952575699999997,121.2397824
62,桃園市桃園區「壽昌店」,03-2203882,桃園市桃園區壽昌街20巷40號,24.9901327,121.29291459999999
64,桃園市新屋區「中華店」,03-4870005,桃園市新屋區中華路247號,24.972397,121.1072136
70,桃園市龍潭區「中正店」,03-4701199,桃園市龍潭區中正路498號,24.8571087,121.2190917
61,桃園市桃園區「站前店」,03-3339009,桃園市桃園區復興路119-1號,24.990463300000002,121.3132711
51,桃園市桃園區「大興店」,03-3169091,桃園市桃園區大興路191號,25.015611,121.31196200000001
86,桃園市蘆竹區「南崁店」,03-2220918,桃園市蘆竹區南崁路125號,25.0462166,121.29503970000002
80,桃園市龜山區「迴龍店」,02-82096042,桃園市龜山區萬壽路一段244號,25.0179512,121.404541
7,桃園市八德區「廣福店」,03-3661986,桃園市八德區廣福路107號,24.959222399999998,121.29661750000001
71,桃園市龍潭區「中興店」,03-4790111,桃園市龍潭區中興路481-2號,24.8722414,121.2281973
26,桃園市中壢區「金陵店」,03-4685222,桃園市中壢區金陵路36號,24.9300699,121.22674350000001
45,桃園市平鎮區「長安店」,03-4936662,桃園市平鎮區民族路三段75號,24.9568835,121.19633049999999
68,桃園市楊梅區「永美店」,03-4315569,桃園市楊梅區永美路233號,24.918751,121.18378
34,桃園市中壢區「民權店」,03-4915380,桃園市中壢區新明路271號,24.962604000000002,121.21791499999999
47,桃園市平鎮區「宋屋店」,03-4020099,桃園市平鎮區延平路三段39號,24.9410686,121.2052397
58,桃園市桃園區「南平店」,03-3561736,桃園市桃園區南平路256號,25.0190663,121.3003522
84,桃園市蘆竹區「南山店」,03-3249768,桃園市蘆竹區南山路三段284號,25.084854999999997,121.28633300000001
14,桃園市大溪區「復興店」,03-3874519,桃園市大溪區復興路19號,24.8806503,121.2893695
43,桃園市平鎮區「文化店」,03-2813131,桃園市平鎮區文化街190號,24.9525496,121.20314979999999
91,桃園市觀音區「工業店」,03-4761526,桃園市觀音區成功路二段893號,25.050752300000003,121.1169303
44,桃園市平鎮區「平東店」,03-4601130,桃園市平鎮區平東路31號,24.91799,121.25313500000001
11,桃園市大園區「果林店」,03-3933685,桃園市大園區果林村23號-78,25.079196,121.25646499999999
50,桃園市桃園區「陽明店」,03-3645000,桃園市桃園區三民路三段593號,24.9832884,121.3076645
1,桃園市八德區「富裕店」,03-2171126,桃園市八德區中華路169號,24.9839584,121.27897549999999
85,桃園市蘆竹區「南竹店」,03-3215651,桃園市蘆竹區南竹路二段37號,25.0435819,121.2870814
75,桃園市龜山區「中興店」,03-3207799,桃園市龜山區中興路372號,24.992407999999998,121.33604369999999
3,桃園市八德區「興豐店」,03-3688000,桃園市八德區介壽路二段1217號,24.930961,121.29753500000001
8,桃園市八德區「廣福二店」,03-3685238,桃園市八德區興豐路318號,24.9292424,121.2868047
77,桃園市龜山區「振興店」,03-3279249,桃園市龜山區振興路1301號,25.033592199999998,121.37957949999999
90,桃園市觀音區「中正店」,03-4737979,桃園市觀音區中正路303號,25.035213,121.079967
13,桃園市大溪區「員林店」,03-3907517,桃園市大溪區員林路一段217-1號,24.8961913,121.27831780000001
88,桃園市觀音區「大觀店」,03-4761626,桃園市觀音區大觀路二段111號,25.046881399999997,121.14234040000001
72,桃園市龍潭區「百年店」,03-4892996,桃園市龍潭區中豐路323號,24.8789957,121.2115365
74,桃園市龍潭區「東龍店」,03-4802222,桃園市龍潭區東龍路218號,24.8646521,121.21427959999998
79,桃園市龜山區「林口復興店」,03-3277997,桃園市龜山區復興北路53號,25.0586501,121.37008909999999
41,桃園市平鎮區「山頂店」,03-4195123,桃園市平鎮區中豐路山頂段158號1樓,24.9004193,121.210943
19,桃園市中壢區「中和店」,03-4252929,桃園市中壢區中和路124號,24.9536697,121.22507590000001
56,桃園市桃園區「民生店」,03-3356385,桃園市桃園區民生路383號,24.9996963,121.3106154
73,桃園市龍潭區「北龍店」,03-4097979,桃園市龍潭區北龍路66號,24.8656483,121.21251529999999
28,桃園市中壢區「長春店」,03-4617878,桃園市中壢區長春路69號,24.9784918,121.24905700000001
18,桃園市中壢區「中央店」,03-4202777,桃園市中壢區中央路171號,24.965211,121.190734
57,桃園市桃園區「永安店」,03-3360186,桃園市桃園區永安路500號,25.0013663,121.29895049999999
23,桃園市中壢區「雙榮店」,03-4204568,桃園市中壢區民族路五段479號,24.957887799999998,121.16620630000001
25,桃園市中壢區「忠孝店」,03-4628663,桃園市中壢區忠孝路276號,24.9790727,121.2543273
24,桃園市中壢區「延平店」,03-4260788,桃園市中壢區延平路577號,24.954768100000003,121.22259199999999
21,桃園市中壢區「中園店」,03-4331768,桃園市中壢區中園路二段99號,24.991411,121.2342774
10,桃園市大園區「中華店」,03-3853282,桃園市大園區中華路13號,25.0662234,121.19750619999999
31,桃園市中壢區「新中北店」,03-4568738,桃園市中壢區新中北路234號,24.9589984,121.23961509999998
69,桃園市楊梅區「環東店」,03-4753799,桃園市楊梅區環東路470號,24.910286,121.15691899999999
38,桃園市中壢區「龍昌店」,03-4560099,桃園市中壢區龍昌路276號,24.9355272,121.2492731
12,桃園市大溪區「仁和店」,03-3893738,桃園市大溪區仁和路二段56號,24.903085100000002,121.2687843
81,桃園市龜山區「萬壽店」,03-3492111,桃園市龜山區萬壽路二段127號,25.001541500000002,121.36079790000001
78,桃園市龜山區「文化店」,03-3182993,桃園市龜山區復興一路348號,25.0557406,121.362496
29,桃園市中壢區「南園店」,03-4356328,桃園市中壢區南園二路37號,24.971552399999997,121.2350377
16,桃園市中壢區「金鋒店」,03-4387508,桃園市中壢區中山東路三段62號,24.945170899999997,121.2476436
89,桃園市觀音區「新坡店」,03-4986533,桃園市觀音區中山路二段600號,25.01333,121.134773
9,桃園市大園區「中正東店」,03-3865968,桃園市大園區中正東路67號-1,25.0633288,121.1997866
36,桃園市中壢區「實踐店」,03-4655911,桃園市中壢區實踐路112號,24.9559332,121.24026529999999
49,桃園市平鎮區「龍南店」,03-4606166,桃園市平鎮區龍南路10號,24.924953,121.244543
2,桃園市八德區「介壽店」,03-3662436,桃園市八德區介壽路ㄧ段813號,24.9620389,121.30009170000001
52,桃園市桃園區「中正店」,03-3319977,桃園市桃園區中正路475號,25.0019034,121.3063883
87,桃園市蘆竹區「中正店」,03-3220679,桃園市蘆竹區南崁路296號,25.050010999999998,121.29251399999998
37,桃園市中壢區「榮民店」,03-4614818,桃園市中壢區榮民路115號,24.9678329,121.2608707
27,桃園市中壢區「長沙店」,03-4586381,桃園市中壢區長沙路13號,24.948500199999998,121.22860379999999
17,桃園市中壢區「嘉興店」,03-4375599,桃園市中壢區中北路二段477號,24.954874,121.233254
55,桃園市桃園區「成功店」,03-3396677,桃園市桃園區民生路142號,24.992603,121.3136939
65,桃園市楊梅區「大成店」,03-4789678,桃園市楊梅區大成路186號,24.912296899999998,121.145872
67,桃園市楊梅區「文化店」,03-4313631,桃園市楊梅區文化街238號,24.911919,121.1833432
48,桃園市平鎮區「金隆店」,03-4596611,桃園市平鎮區金陵路三段110號,24.927297,121.22735700000001
6,桃園市八德區「和平店」,03-3641987,桃園市八德區和平路228號,24.95731,121.30449679999998
39,桃園市中壢區「龍東店」,03-4659066,桃園市中壢區龍東路358號,24.932214300000002,121.2559206
46,桃園市平鎮區「育達店」,03-4026683,桃園市平鎮區育達路119號,24.951725,121.2101034
83,桃園市蘆竹區「大竹店」,03-3135166,桃園市蘆竹區大竹路428-7號,25.0215076,121.2629972
82,桃園市龜山區「德明店」,03-3292982,桃園市龜山區德明路99號,24.9892201,121.34398700000001
33,桃園市中壢區「新生店」,03-4256528,桃園市中壢區新生路84號,24.9590529,121.22303500000001
63,桃園市桃園區「龍安店」,03-3780055,桃園市桃園區龍安街172-2號,24.992189899999996,121.27924170000001
76,桃園市龜山區「山鶯店」,03-3205678,桃園市龜山區中興路39號,24.9875702,121.33049790000001
5,桃園市八德區「永豐店」,03-3697758,桃園市八德區永豐路595號,24.9756326,121.2709441
30,桃園市中壢區「莊敬店」,03-4614567,桃園市中壢區莊敬路854號,24.964033800000003,121.25427590000001
40,桃園市中壢區「環北店」,03-4552212,桃園市中壢區環北路533號,24.9647689,121.2289376
59,桃園市桃園區「建國店」,03-3761234,桃園市桃園區桃鶯路275號,24.9832389,121.31888959999999
22,桃園市中壢區「民族店」,03-4921777,桃園市中壢區民族路2段116號,24.957709,121.20543899999998
54,桃園市桃園區「中埔店」,03-3163563,桃園市桃園區中浦六街48號,25.0167753,121.2960629
60,桃園市桃園區「莒光店」,03-3391189,桃園市桃園區莒光街7號,24.9953837,121.30537360000001
4,桃園市八德區「博愛店」,03-3776169,桃園市八德區介壽路二段408號,24.946951300000002,121.2972783
32,桃園市中壢區「新中北二店」,03-4340555,桃園市中壢區新中北路二段465號,24.955853899999997,121.2637706
56,台北市松山區「延吉店」,02-25775296,台北市松山區延吉街2-4號,25.047691,121.5531847
53,台北市北投區「致遠店」,02-28223996,台北市北投區實踐街31號,25.1152293,121.50854209999999
35,台北市中正區「新南昌店」,02-23675160,台北市中正區南昌路二段196號,25.0242592,121.5240648
18,台北市大安區「杭州南店」,02-23568851,台北市大安區杭州南路2段87號1樓,25.0288085,121.5219625
42,台北市內湖區「新明店」,02-27903186,台北市內湖區新明路244號,25.0568094,121.5837631
57,台北市松山區「東興店」,02-27629786,台北市松山區南京東路5段255號,25.051601,121.565233
23,台北市中山區「北安店」,02-25330098,台北市中山區北安路595巷35號,25.082269,121.547032
25,台北市中山區「德惠店」,02-25860202,台北市中山區吉林路423號,25.0667121,121.53055320000001
24,台北市中山區「民生東店」,02-25412121,台北市中山區民生東路一段40號,25.0578915,121.5243582
15,台北市大安區「市民店」,02-27772151,台北市大安區市民大道3段136號,25.044695899999997,121.53495600000001
62,台北市信義區「新松山店」,02-27272373,台北市信義區松山路590號,25.0366729,121.578274
64,台北市南港區「南港店」,02-27882811,台北市南港區南港路3段20號,25.0544553,121.5925291
21,台北市大安區「臨江店」,02-27336155,台北市大安區臨江街128號,25.030262699999998,121.55381729999999
10,台北市大同區「延平北店」,02-25964768,台北市大同區延平北路三段25之1號,25.06438,121.5112541
31,台北市中山區「雙城店」,02-25991177,台北市中山區雙城街13巷26號,25.064041800000002,121.52532340000002
70,台北市萬華區「龍山店」,02-23026069,台北市萬華區廣州街217號,25.036800600000003,121.499096
69,台北市萬華區「康定店」,02-23024378,台北市萬華區康定路322號,25.035759600000002,121.50121499999999
61,台北市信義區「五分埔店」,02-27677158,台北市信義區松山路158-1號,25.046409,121.577593
28,台北市中山區「復興北店」,02-25007119,台北市中山區復興北路514巷62號,25.065868,121.5414274
38,台北市內湖區「碧湖店」,02-27940591,台北市內湖區內湖路2段343號,25.083454,121.59173999999999
12,台北市大同區「寧夏店」,02-25581777,台北市大同區寧夏路25號,25.0553384,121.5152598
7,台北市士林區「福華店」,02-28335151,台北市士林區福華路142號,25.1033395,121.52277659999999
29,台北市松山區「民生東店」,02-27733737,台北市中山區遼寧街43號1F,25.0487835,121.5422487
58,台北市松山區「新東店」,02-25212012,台北市松山區新東街19號,25.058657800000002,121.5658656
16,台北市大安區「光復南店」,02-27041995,台北市大安區光復南路456巷6號1樓,25.035526500000003,121.5569835
43,台北市文山區「木新店」,02-29366236,台北市文山區木新路三段143號,24.9817929,121.56156440000001
26,台北市中山區「光華店」,02-25423939,台北市中山區長安東路二段46號,25.048326,121.5318842
45,台北市文山區「景文店」,02-29342121,台北市文山區景文街129號1樓,24.990223999999998,121.541183
6,台北市士林區「劍潭店」,02-28835757,台北市士林區基河路122號1樓,25.088538,121.52326699999999
68,台北市萬華區「昆明店」,02-23111818,台北市萬華區昆明街132號,25.0432056,121.50481070000001
36,台北市中正區「開封店」,02-23710880,台北市中正區開封街一段64號,25.045903,121.51163999999999
47,台北市北投區「中央北店」,02-28910379,台北市北投區中央北路四段511號,25.1281496,121.4685331
49,台北市北投區「石牌店」,02-28278806,台北市北投區石牌路二段99巷57號,25.1184265,121.51679320000001
51,台北市北投區「明德店」,02-28286161,台北市北投區明德路172號,25.111187,121.521254
2,台北市士林區「文昌店」,02-28311515,台北市士林區文昌路16號,25.095001999999997,121.52180600000001
52,台北市北投區「知行店」,02-28583399,台北市北投區知行路287號,25.121642899999998,121.467244
37,台北市中正區「公館店」,02-23678838,台北市中正區羅斯福路三段316巷10-1號1樓,25.015640899999998,121.532435
27,台北市中山區「長春店」,02-27192519,台北市中山區長春路354號,25.054435,121.542212
17,台北市大安區「和平東店」,02-87327588,台北市大安區和平東路3段294號,25.0207192,121.5561518
14,台北市大安區「大安店」,02-23256696,台北市大安區大安路一段229號,25.0344872,121.54619369999999
9,台北市大同區「大龍店」,02-25993301,台北市大同區大龍街267號,25.0717145,121.5159337
20,台北市大安區「師大店」,02-23661900,台北市大安區龍泉街13號,25.025558899999996,121.52933700000001
55,台北市松山區「八德店」,02-27531966,台北市松山區八德路四段48號,25.048258899999997,121.5594155
44,台北市文山區「辛亥店」,02-89351381,台北市文山區辛亥路四段247號,25.001054999999997,121.55492199999999
65,台北市南港區「中南店」,02-26532371,台北市南港區南港路一段154號,25.055405899999997,121.61222749999999
11,台北市大同區「重慶店」,02-25581177,台北市大同區重慶北路一段85-2號,25.0528306,121.51433349999999
34,台北市中正區「信陽店」,02-23753889,台北市中正區信陽街6-1號,25.044517499999998,121.5163291
50,台北市北投區「光明店」,02-28978088,台北市北投區光明路148號,25.1344085,121.5025155
46,台北市文山區「萬隆店」,02-29305939,台北市文山區羅斯福路5段190號,25.003784399999997,121.53843970000001
67,台北市萬華區「成都店」,02-23143280,台北市萬華區成都路30號,25.042504,121.50662700000001
48,台北市北投區「中和店」,02-28917784,台北市北投區中和街331號,25.140923,121.4997
3,台北市士林區「陽明店」,02-28805757,台北市士林區文林路22號,25.086606,121.52563470000001
8,台北市士林區「忠義店」,02-28382099,台北市士林區德行東路207-1號,25.1092345,121.53239930000001
39,台北市內湖區「西湖店」,02-87971968,台北市內湖區內湖路一段285巷3號1F,25.082522100000002,121.56694099999999
1,台北市士林區「天母店」,02-28761717,台北市士林區天母西路44號,25.118323699999998,121.5256111
40,台北市內湖區「港墘店」,02-27996737,台北市內湖區內湖路一段737巷56號,25.080777100000002,121.57897879999999
66,台北市萬華區「中華店」,02-23091959,台北市萬華區中華路二段307巷20號,25.0288815,121.5052748
13,台北市大同區「保生店」,02-25507985,台北市大同區歸綏街172號,25.058072,121.512483
33,台北市中正區「青島東店」,02-33225069,台北市中正區杭州南路一段10號,25.0430557,121.526439
63,台北市信義區「松仁店」,02-27587181,台北市信義區松仁路198號,25.02739,121.56824099999999
71,台北市萬華區「寶興店」,02-23328618,台北市萬華區寶興街94號,25.025842899999997,121.49431259999999
5,台北市士林區「社子店」,02-28126988,台北市士林區延平北路六段129號,25.088884,121.5079925
30,台北市中山區「松江店」,02-25042858,台北市中山區錦州街247-1號,25.0604633,121.5340317
41,台北市內湖區「東湖店」,02-26306626,台北市內湖區東湖路146號,25.0679573,121.61705659999998
59,台北市信義區「永吉店」,02-27611525,台北市信義區永吉路30巷73之2號,25.044214,121.56888909999998
22,台北市中山區「大直店」,02-25335922,台北市中山區北安路528號,25.079704,121.546447
54,台北市松山區「饒河店」,02-25288288,台北市松山區八德路4段779號,25.0512753,121.5783187
60,台北市信義區「世貿店」,02-27323861,台北市信義區吳興街152號,25.029332999999998,121.561678
4,台北市士林區「中正店」,02-28829191,台北市士林區文林路434號,25.0946885,121.52483600000001
32,台北市中正區「南門店」,02-23883315,台北市中正區延平南路240號,25.0337267,121.50726909999999
19,台北市大安區「成功店」,02-27014040,台北市大安區復興南路二段151巷49號,25.028402,121.5456983
53,新北市汐止區「樟樹店」,02-26476696,新北市汐止區樟樹一路139巷2號,25.066144100000002,121.642223
104,新北市新莊區「五權店」,02-22992661,新北市新莊區五權ㄧ路68號1樓,25.0664409,121.45857209999998
35,新北市中和區「泰和店」,02-22431599,新北市中和區泰和街41號,24.9995407,121.49916100000002
66,新北市板橋區「重慶店」,02-89530676,新北市板橋區重慶路232號,25.0015758,121.46278000000001
129,新北市蘆洲區「民義店」,02-22881627,新北市蘆洲區民義街119-2號,25.0912269,121.4740862
42,新北市中和區「興南店」,02-29455299,新北市中和區興南路1段98號,24.989056100000003,121.50972409999999
20,新北市三峽區「中華店」,02-26747547,新北市三峽區中華路21號1樓,24.931601899999997,121.3733
126,新北市蘆洲區「三民店」,02-82835516,新北市蘆洲區中山一路145號,25.081445000000002,121.47555109999999
118,新北市萬里區「野柳店」,02-24928587,新北市萬里區野柳港東路74-10號,25.205095800000002,121.6890236
15,新北市三重區「仁愛店」,02-29715561,新北市三重區自強路五段26號,25.0808324,121.4927354
62,新北市板橋區「民權店」,02-29587522,新北市板橋區民權路25號,25.010656,121.462275
102,新北市新莊區「中原店」,02-89936890,新北市新莊區中原路337號,25.054261399999998,121.4455284
115,新北市新莊區「四維店」,02-22013493,新北市新莊區龍安街238號,25.01959,121.420612
64,新北市板橋區「長江店」,02-22528466,新北市板橋區長江路二段8號,25.0313223,121.46473
70,新北市板橋區「漢生西店」,02-22533389,新北市板橋區漢生西路84號,25.019399,121.4628781
61,新北市板橋區「民治店」,02-22561601,新北市板橋區民治街130號,25.0310073,121.47779609999999
51,新北市汐止區「忠孝東店」,02-86478282,新北市汐止區忠孝東路394號,25.0704599,121.665876
86,新北市淡水區「中正東店」,02-26264399,新北市淡水區中正東路6-1號,25.167239000000002,121.4472317
132,新北市蘆洲區「得勝店」,02-22889666,新北市蘆洲區得勝街123號,25.083177,121.472439
80,新北市金山區「中山店」,02-24987528,新北市金山區中山路127號,25.2196921,121.63935690000001
92,新北市淡水區「真理店」,02-26290135,新北市淡水區新民街138號,25.177916399999997,121.43754960000001
7,新北市三重區「中興店」,02-29866505,新北市三重區中正北路413-4號,25.0722347,121.4709092
71,新北市板橋區「中正店」,02-89532218,新北市板橋區漢生東路179號,25.012007,121.469633
98,新北市新店區「安康店」,02-86661032,新北市新店區安康路二段146-1號,24.9615186,121.5122767
131,新北市蘆洲區「光華店」,02-22830005,新北市蘆洲區光華路85號,25.082520000000002,121.46774099999999
26,新北市土城區「裕生店」,02-22638618,新北市土城區裕生路6號,24.9878588,121.44827099999999
45,新北市永和區「中和店」,02-32339292,新北市永和區中和路431號,25.0010568,121.50948600000001
68,新北市板橋區「裕民店」,02-22586680,新北市板橋區裕民街102號,25.0280272,121.45994089999999
34,新北市中和區「員山店」,02-22251798,新北市中和區員山路357號,25.001998999999998,121.481168
47,新北市永和區「秀朗二店」,02-29235288,新北市永和區得和路107號,25.0004,121.51831899999999
125,新北市樹林區「鎮前店」,02-26821608,新北市樹林區鎮前街62號,24.992386899999996,121.42549299999999
130,新北市蘆洲區「永樂店」,02-22883862,新北市蘆洲區永樂街43-1號,25.0883268,121.45766440000001
121,新北市樹林區「育英店」,02-26824567,新北市樹林區育英街42號,24.9892522,121.4216189
58,新北市板橋區「金華店」,02-29671886,新北市板橋區中正路291號,25.019336399999997,121.45529579999999
84,新北市淡水區「大忠店」,02-26263277,新北市淡水區中山北路二段177號,25.1847683,121.44408159999999
135,新北市鶯歌區「建國店」,02-26772222,新北市鶯歌區建國路239號,24.953342300000003,121.3482486
14,新北市三重區「自強店」,02-29881938,新北市三重區自強路一段314號,25.068335,121.49103999999998
43,新北市五股區「工商店」,02-82954587,新北市五股區工商路96號,25.085483899999996,121.437804
91,新北市淡水區「淡金店」,02-28013088,新北市淡水區淡金路四段536號,25.226735,121.45197900000001
44,新北市五股區「凌雲店」,02-22936636,新北市五股區成泰路三段482號,25.101430999999998,121.45194199999999
95,新北市新店區「碧潭店」,02-29178811,新北市新店區北新路一段67號,24.960118899999998,121.5381956
11,新北市三重區「正義北店」,02-29872998,新北市三重區正義北路219號,25.0688181,121.496108
50,新北市汐止區「新台店」,02-26473111,新北市汐止區大同路二段342號,25.066972500000002,121.65662150000001
1,新北市八里區「中山店」,02-26107577,新北市八里區中山路二段181號,25.150287,121.404941
85,新北市淡水區「中山店」,02-26265877,新北市淡水區中山路166號,25.173809,121.4412687
75,新北市板橋區「龍興店」,02-82751077,新北市板橋區龍興街65巷2號,25.00147,121.44363429999999
136,新北市鶯歌區「鶯桃店」,02-26790661,新北市鶯歌區鶯桃路589號,24.968793899999998,121.3294242
3,新北市三重區「力行店」,02-82839559,新北市三重區力行路二段119號,25.0763999,121.48301809999998
8,新北市三重區「中華店」,02-89838005,新北市三重區中華路71號,25.062483,121.483721
127,新北市蘆洲區「中華店」,02-22830707,新北市蘆洲區中華街25號,25.0815985,121.4635269
123,新北市樹林區「俊英店」,02-26888218,新北市樹林區俊英街137號,25.011634,121.4242675
124,新北市樹林區「大保店」,02-26753135,新北市樹林區保安路一段263號,24.9970237,121.41938429999999
77,新北市林口區「仁愛店」,02-26014455,新北市林口區仁愛路二段15號,25.0761051,121.38579240000001
90,新北市淡水區「英專店」,02-26297722,新北市淡水區英專路94號,25.171777399999996,121.44587779999999
13,新北市三重區「光明店」,02-29729559,新北市三重區光明路67-1號,25.057522100000003,121.4917476
88,新北市淡水區「淡大店」,02-26297899,新北市淡水區北新路182巷28號,25.1777863,121.4487155
97,新北市新店區「民族店」,02-89117732,新北市新店區民族路191號,24.9762483,121.5372875
72,新北市板橋區「篤行店」,02-86755155,新北市板橋區篤行路二段145號,24.988152,121.429957
74,新北市板橋區「龍興店」,02-82751077,新北市板橋區龍興街65巷2號,25.00147,121.44363429999999
79,新北市林口區「忠孝店」,02-26005757,新北市林口區忠孝路486號,25.0701717,121.3708182
41,新北市中和區「橋和店」,02-82454567,新北市中和區橋和路105號,25.0057254,121.4909762
94,新北市新店區「北新店」,02-29113966,新北市新店區北新路3段50號,24.9798719,121.5423098
116,新北市新莊區「雙鳳店」,02-29089977,新北市新莊區雙鳳路24號,25.0270927,121.4167274
106,新北市新莊區「民安西店」,02-22023998,新北市新莊區民安西路120號1樓,25.018516,121.426726
111,新北市新莊區「富國店」,02-29013399,新北市新莊區富國路76號,25.0257553,121.41995290000001
108,新北市新莊區「昌隆店」,02-29965111,新北市新莊區昌隆街24號,25.0507001,121.45390400000001
19,新北市三峽區「大義店」,02-26742329,新北市三峽區大義路11號,24.9437598,121.3792328
56,新北市板橋區「中山店」,02-29642877,新北市板橋區中山路二段183號,25.016983899999996,121.476228
73,新北市板橋區「館前西店」,02-29666108,新北市板橋區館前西路73號,25.0070788,121.4574639
109,新北市新莊區「建中店」,02-29921987,新北市新莊區建中街49號,25.0370671,121.44820619999999
28,新北市土城區「學府店」,02-22635050,新北市土城區學府路一段144巷2號,24.9873699,121.454944
18,新北市三重區「溪尾店」,02-29883829,新北市三重區溪尾街243號,25.081494699999997,121.4881142
57,新北市板橋區「光復店」,02-29523868,新北市板橋區中山路二段350號,25.019773999999998,121.4815244
23,新北市土城區「延吉店」,02-82615779,新北市土城區延吉街90號,24.986504999999998,121.470633
25,新北市土城區「清水店」,02-22637378,新北市土城區清水路168號,24.98142,121.459919
24,新北市土城區「安和店」,02-22631891,新北市土城區延和路35號,24.989427,121.46590800000001
128,新北市蘆洲區「民族店」,02-22882621,新北市蘆洲區民族路208號,25.0876142,121.4797876
21,新北市三峽區「文化店」,02-26742202,新北市三峽區文化路16號,24.935806600000003,121.37333829999999
10,新北市三重區「文化北店」,02-89855151,新北市三重區文化北路100號,25.066184,121.49854599999999
31,新北市中和區「南工店」,02-22428786,新北市中和區中和路198號,24.999613,121.505228
69,新北市板橋區「僑中店」,02-22711155,新北市板橋區僑中一街124巷1弄1號,25.012074,121.4458019
101,新北市新莊區「輔大店」,02-29083678,新北市新莊區中正路516-36號,25.03226,121.432601
113,新北市新莊區「新豐店」,02-22048133,新北市新莊區新泰路79號,25.034417,121.44920220000002
38,新北市中和區「華新店」,02-29479666,新北市中和區華新街117號,24.9820898,121.50712990000001
105,新北市新莊區「化成店」,02-29902888,新北市新莊區化成路488-3號,25.0518732,121.4663669
12,新北市三重區「正義南店」,02-29782929,新北市三重區正義南路35號,25.0611452,121.49806940000002
81,新北市泰山區「明志二店」,02-22977188,新北市泰山區明志路二段63號,25.052569899999998,121.4291905
78,新北市林口區「三井店」,02-26008777,新北市林口區文化二路一段66號,25.068889000000002,121.3657686
29,新北市中和區「中山店」,02-82275151,新北市中和區中山路二段664號,25.0059619,121.4804696
16,新北市三重區「重陽店」,02-29889932,新北市三重區重陽路一段71號,25.05881,121.48696699999999
89,新北市淡水區「民族店」,02-88092123,新北市淡水區民族路29巷2號,25.1368991,121.4610875
93,新北市深坑區「北深店」,02-26620222,新北市深坑區北深路三段214號,25.0038991,121.6011043
9,新北市三重區「五華店」,02-29715618,新北市三重區五華街136號之1,25.0837313,121.4915231
107,新北市新莊區「民樂店」,02-29984688,新北市新莊區民樂街95號,25.0436452,121.4578178
134,新北市鶯歌區「南雅店」,02-26700701,新北市鶯歌區南雅路41號,24.9542762,121.34862659999999
114,新北市新莊區「福壽店」,02-29907961,新北市新莊區福壽街8號,25.047546899999997,121.45780069999999
36,新北市中和區「連城店」,02-22266998,新北市中和區連城路315之2號,24.9960788,121.48942849999999
49,新北市永和區「永福店」,02-89266600,新北市永和區福和路124號,25.008201,121.522056
120,新北市樹林區「太元店」,02-86866165,新北市樹林區太元街59號,24.978809299999998,121.4190601
2,新北市三芝區「淡金店」,02-26360700,新北市三芝區淡金路二段14號,25.2595706,121.50239599999999
52,新北市汐止區「康寧店」,02-26957191,新北市汐止區康寧街390號 (公車站-北峰里下車),25.067823,121.629066
87,新北市淡水區「中正店」,02-26260816,新北市淡水區中正路95號,25.169824300000002,121.4403169
37,新北市中和區「景安店」,02-29451118,新北市中和區景安路199號,24.9928262,121.5049208
27,新北市土城區「中央店」,02-22637528,新北市土城區慶安街107號,24.9719879,121.44047379999999
17,新北市三重區「中央店」,02-29742312,新北市三重區重新路一段98號,25.0632728,121.5013896
55,新北市板橋區「大仁店」,02-89651558,新北市板橋區大仁街118號,25.0157645,121.452556
133,新北市蘆洲區「復興店」,02-22826856,新北市蘆洲區復興路104號1樓,25.0870743,121.47607479999999
122,新北市樹林區「佳園店」,02-89707258,新北市樹林區佳園路一段71-1號,24.970332100000004,121.3932736
99,新北市新莊區「八德店」,02-22048688,新北市新莊區八德街94號,25.022169,121.424529
65,新北市板橋區「南雅南店」,02-29601166,新北市板橋區南雅南路一段81號,25.0054635,121.45571470000002
96,新北市新店區「三民店」,02-89118580,新北市新店區民族路189號,24.9762703,121.5373068
119,新北市樹林區「中山店」,02-86754063,新北市樹林區中山路一段33號,24.992849300000003,121.4243567
67,新北市板橋區「莒光店」,02-82585111,新北市板橋區莒光路31號,25.0247075,121.4703327
48,新北市永和區「得和店」,02-29255979,新北市永和區得和路417號,24.9992695,121.52590990000002
6,新北市三重區「中正北店」,02-29881551,新北市三重區中正北路252號,25.068138,121.48138700000001
100,新北市新莊區「中平店」,02-29926866,新北市新莊區中平路126號,25.0465954,121.44491979999998
39,新北市中和區「圓通店」,02-22462255,新北市中和區圓通路270號,24.9907872,121.4927159
46,新北市永和區「永貞店」,02-29272298,新北市永和區永貞路392號,25.0074583,121.5094162
83,新北市泰山區「泰林店」,02-29002662,新北市泰山區泰林路二段195號,25.061205800000003,121.4332649
112,新北市新莊區「新泰店」,02-29985566,新北市新莊區新泰路323號,25.0415194,121.44496640000001
82,新北市泰山區「明志店」,02-29047979,新北市泰山區明志路三段178號,25.039012399999997,121.42420120000001
110,新北市新莊區「建安店」,02-22041384,新北市新莊區建安街36號,25.0251359,121.427823
33,新北市中和區「員山二店」,02-22236399,新北市中和區員山路146-3號,24.996991,121.481392
63,新北市板橋區「松柏店」,02-22501177,新北市板橋區松柏街4號,25.0293891,121.4740799
76,新北市林口區「工六店」,02-86012022,新北市林口區中正路10號,25.0775088,121.39628159999998
5,新北市三重區「三和店」,02-22809233,新北市三重區三和路四段197號,25.079311999999998,121.48218500000002
30,新北市中和區「漢生店」,02-82277898,新北市中和區中山路三段194號,25.006625800000002,121.47205159999999
40,新北市中和區「德光店」,02-29511488,新北市中和區德光路95號,25.0033112,121.4685988
59,新北市板橋區「廣明店」,02-89678282,新北市板橋區四川路二段47巷2弄1號,24.994772,121.4540892
22,新北市土城區「頂埔店」,02-22690022,新北市土城區中央路四段89號,24.958005399999998,121.41701570000001
117,新北市瑞芳區「明燈店」,02-24977676,新北市瑞芳區明燈路三段45號,25.1079667,121.8066423
54,新北市板橋區「三民店」,02-29539292,新北市板橋區三民路二段102巷1號1樓,25.0168022,121.4790371
60,新北市板橋區「四維店」,02-82581212,新北市板橋區四維路157號,25.0256859,121.46469499999999
4,新北市三重區「長壽店」,02-29771000,新北市三重區三和路二段65號,25.067982999999998,121.50031399999999
32,新北市永和區「中正店」,02-29455118,新北市中和區自立路187號,24.991435,121.52401499999999
103,新北市新莊區「中港店」,02-22762121,新北市新莊區中港路302號,25.044942000000002,121.452854
53,高雄市苓雅區「武慶店」,07-7211811,高雄市苓雅區武慶三路124號,22.6210215,120.3318467
35,高雄市林園區「林園文化店」,07-6426911,高雄市林園區文化街112號,22.5044537,120.3935878
66,高雄市楠梓區「德中店」,07-3625861,高雄市楠梓區德中路538號,22.7291163,120.2732131
42,高雄市前鎮區「復興店」,07-3388816,高雄市前鎮區復興三路327號,22.612673,120.311206
20,高雄市六龜區「光復店」,07-6895822,高雄市六龜區文武村光復路223號,22.9965479,120.6345311
15,高雄市大樹區「中興店」,07-6512876,高雄市大樹區久堂村中興街7-2號,22.6588658,120.42032479999999
62,高雄市新興區「七賢二店」,07-2380868,高雄市新興區七賢一路509號,22.6343362,120.3033563
64,高雄市新興區「中正店」,07-2117789,高雄市新興區林森一路174號,22.630605300000003,120.30474270000002
70,高雄市路竹區「路竹店」,07-6968961,高雄市路竹區中正路29號,22.857200600000002,120.26117759999998
61,高雄市湖內區「湖內店」,07-6997745,高雄市湖內區中正路一段526之1號,22.9087829,120.21571780000001
51,高雄市苓雅區「自強店」,07-2695055,高雄市苓雅區自強三路184號,22.618325100000003,120.298121
86,高雄市燕巢區「燕巢店」,07-6141975,高雄市燕巢區中民路663-9號之4,22.7932177,120.35966699999999
80,高雄市鳳山區「文衡店」,07-7771125,高雄市鳳山區文衡路157號,22.638805899999998,120.3562634
7,高雄市三民區「鼎力店」,07-3107886,高雄市三民區鼎力路299號,22.668989,120.32381799999999
71,高雄市鼓山區「軍校二店」,07-5537568,高雄市鼓山區明誠三路690號,22.661332199999997,120.2945963
26,高雄市左營區「華夏店」,07-3502661,高雄市左營區華夏路1155號,22.6845678,120.3093087
45,高雄市前鎮區「鎮興店」,07-8126161,高雄市前鎮區鎮興路145-1號,22.5917279,120.31224009999998
68,高雄市楠梓區「楠梓三店」,07-3515918,高雄市楠梓區興楠路299號,22.729471899999997,120.3327409
34,高雄市岡山區「嘉興店」,07-6211816,高雄市岡山區嘉興里嘉興路222號,22.820713,120.302856
47,高雄市美濃區「美濃店」,07-6818811,高雄市美濃區中興路一段764號,22.8866337,120.53182690000001
58,高雄市鳥松區「神農店」,07-7332358,高雄市鳥松區神農路501號,22.658324800000003,120.3822604
84,高雄市鳳山鄉「鳳北店」,07-7105578,高雄市鳳山區經武路312號,22.639075899999998,120.36470759999999
14,高雄市大寮區「大寮店」,07-7826363,高雄市大寮區鳳林三路568號,22.6083054,120.3951007
43,高雄市前鎮區「隆興店」,07-7610687,高雄市前鎮區瑞和街163號,22.6062237,120.32828490000001
44,高雄市前鎮區「瑞隆店」,07-7212945,高雄市前鎮區瑞隆路326號,22.605777399999997,120.3323414
11,高雄市大社區「義守中山店」,07-3526885,高雄市大社區中山路425號,22.731399300000003,120.3526333
50,高雄市苓雅區「光華店」,07-7136211,高雄市苓雅區光華二路432號,22.617719,120.31815800000001
1,高雄市三民區「高應大店」,07-3975911,高雄市三民區大昌一路12號,22.6529939,120.3281791
85,高雄市橋頭區「橋頭店」,07-6115886,高雄市橋頭區隆豐路213號,22.753457,120.30775200000001
75,高雄市鼓山區「臨海店」,07-5328858,高雄市鼓山區臨海二路49-1號,22.6230409,120.2717678
3,高雄市三民區「自強店」,07-2155112,高雄市三民區自強一路205號,22.6348728,120.2915047
8,高雄市三民區「鼎勇店」,07-3981488,高雄市三民區鼎山街365號,22.657827899999997,120.3219763
77,高雄市鳳山區「大明店」,07-7673286,高雄市鳳山區大明路164號,22.6103353,120.34171840000002
90,高雄市鹽埕區「北端店」,07-5318673,高雄市鹽埕區新興街291號,22.6318724,120.28440570000001
13,高雄市大寮區「中庄店」,07-7011261,高雄市大寮區中庄村八德路24號,22.635417999999998,120.392482
88,高雄市彌陀區「彌陀店」,07-6108216,高雄市彌陀區中正路36號,22.779989999999998,120.249806
72,高雄市鼓山區「華榮店」,07-5504788,高雄市鼓山區華榮路547號,22.669954399999998,120.29337350000002
74,高雄市鼓山區「龍德店」,07-5551668,高雄市鼓山區龍德路90號,22.654216,120.30093600000001
79,高雄市鳳山區「自強二店」,07-7685119,高雄市鳳山區五甲二路434號,22.5981205,120.3357913
41,高雄市前鎮區「康定店」,07-8232345,高雄市前鎮區康定路11-1號,22.583958,120.320632
19,高雄市仁武區「仁雄店」,07-3741699,高雄市仁武區仁雄路42-8號,22.680706699999998,120.35064709999999
56,高雄市梓官區「中崙店」,07-6170279,高雄市梓官區中崙路300號,22.7609155,120.2678258
73,高雄市鼓山區「瑞豐店」,07-5866301,高雄市鼓山區裕誠路1075號,22.665712600000003,120.30031170000001
28,高雄市岡山區「站前店」,07-6226788,高雄市岡山區中山南路525號,22.791690600000003,120.2989356
18,高雄市仁武區「仁武店」,07-3745616,高雄市仁武區仁武村中正路237-1號,22.702354999999997,120.351634
57,高雄市梓官區「蚵寮二店」,07-6170923,高雄市梓官區光明路148號,22.732871799999998,120.25032040000002
23,高雄市左營區「軍校店」,07-5812116,高雄市左營區軍校路二巷54號,22.6879812,120.2926845
25,高雄市左營區「崇德店」,07-3590861,高雄市左營區崇德路251號,22.675317800000002,120.30413870000001
24,高雄市左營區「重愛店」,07-3101166,高雄市左營區重愛路10號,22.683223,120.319446
21,高雄市六龜區「寶來店」,07-6881226,高雄市六龜區寶來村中正路80號,23.108845000000002,120.700898
10,高雄市三民區「熱河店」,07-3131316,高雄市三民區熱河一街212號,22.6437459,120.30784380000001
31,高雄市岡山區「岡北店」,07-6210989,高雄市岡山區岡山北路38-2號,22.8097506,120.28264569999999
69,高雄市路竹區「忠孝店」,07-6073376,高雄市路竹區大社路37號,22.862865,120.26171599999999
38,高雄市前金區「瑞源店」,07-2878668,高雄市前金區自立二路128-1號,22.6325513,120.2985402
12,高雄市大寮區「光明店」,07-7883171,高雄市大寮區大寮路896號對面,22.591708899999997,120.4209899
81,高雄市鳳山區「青年店」,07-7456766,高雄市鳳山區青年路一段337號,22.6264264,120.3490608
78,高雄市鳳山區「王生明店」,07-7196711,高雄市鳳山區中山東路5號,22.6205055,120.36351200000001
29,高雄市岡山區「介壽店」,07-6261161,高雄市岡山區介壽西路65號,22.7842023,120.28310520000001
16,高雄市小港區「漢民店」,07-8065885,高雄市小港區崇文路5號,22.567101,120.352929
89,高雄市鹽埕區「七賢三店」,07-5215886,高雄市鹽埕區大仁路157號,22.6263315,120.28259640000002
9,高雄市三民區「新嫩江店」,07-3232070,高雄市三民區嫩江街96號,22.6436035,120.2985561
36,高雄市阿蓮區「阿蓮店」,07-6321676,高雄市阿蓮區中正路484號,22.8806407,120.3315873
49,高雄市苓雅區「永康店」,07-3310996,高雄市苓雅區文橫二路71號,22.6168385,120.30590049999999
2,高雄市三民區「自立店」,07-2873168,高雄市三民區自立一路79號,22.6365027,120.2967189
52,高雄市苓雅區「忠孝店」,07-3301617,高雄市苓雅區忠孝二路113號,22.620662300000003,120.30767970000001
87,高雄市燕巢區「鳳旗店」,07-6153537,高雄市燕巢區鳳旗路35號,22.7556415,120.3574078
37,高雄市前金區「七賢店」,07-2851968,高雄市前金區七賢二路158-1號,22.633574300000003,120.296377
27,高雄市左營區「榮總店」,07-3599199,高雄市左營區榮總路29號,22.6785527,120.3217332
17,高雄市仁武區「仁雄二店」,07-3715616,高雄市仁武區八德中路197號,22.686792,120.336028
55,高雄市茄萣區「仁愛店」,07-6921182,高雄市茄萣區仁愛路二段112號,22.8969036,120.1850222
65,高雄市楠梓區「清豐店」,07-3541515,高雄市楠梓區清豐二路76號,22.7375863,120.33104569999999
67,高雄市楠梓區「楠梓德賢店」,07-3648181,高雄市楠梓區德賢路232號,22.7266212,120.3057135
48,高雄市苓雅區「大統店」,07-2240588,高雄市苓雅區六合路25-2號,22.632179,120.318573
6,高雄市三民區「義華店」,07-3810122,高雄市三民區義華路387號,22.643446,120.3332521
39,高雄市前金區「後金店」,07-2156633,高雄市前金區自強一路102號,22.6319032,120.29289409999998
46,高雄市美濃區「美濃二店」,07-6818811,高雄市美濃區中正路一段9號,22.901972100000002,120.541347
83,高雄市鳳山區「五甲店」,07-7114111,高雄市鳳山區南華路102號,22.601385,120.339249
82,高雄市鳳山區「文山店」,07-7676711,高雄市鳳山區青年路二段386號,22.6429902,120.3515571
33,高雄市岡山區「前鋒店」,07-6266516,高雄市岡山區前峰路109-7號,22.797145999999998,120.28501100000001
63,高雄市新興區「八德店」,07-2850881,高雄市新興區八德二路15號,22.635926899999998,120.3012808
76,高雄市旗山區「延平店」,07-6627668,高雄市旗山區延平一路722之2號,22.8829279,120.48325320000001
5,高雄市三民區「臥龍店」,07-3868211,高雄市三民區臥龍路68號,22.6395047,120.33019750000001
30,高雄市岡山區「本洲店」,07-6219986,高雄市岡山區本洲里本洲路339號,22.807516500000002,120.2618625
40,高雄市前鎮區「佛德店」,07-8123480,高雄市前鎮區佛德街12號,22.5766986,120.32357209999999
59,高雄市湖內區「大湖店」,07-6931582,高雄市湖內區大湖村民權路9-1號,23.2934495,120.2817174
22,高雄市左營區「海官二店」,07-5821388,高雄市左營區左營大路652號,22.691478,120.29780900000002
54,高雄市苓雅區「建國店」,07-7275668,高雄市苓雅區建國一路137之4號,22.6320157,120.3311143
60,高雄市湖內區「東方店」,07-6930582,高雄市湖內區中山路一段233-2號,22.881001899999998,120.2496203
4,高雄市三民區「九如店」,07-3891817,高雄市三民區延吉街54號,22.640420000000002,120.31991000000001
32,高雄市岡山區「岡山二店」,07-6231282,高雄市岡山區岡山路189號,22.791570999999998,120.2959196
