id,name,phone,address,lat,lng
52,台中美村特約服務中心,04-23029689,台中市西區美村路一段158號,24.150356,120.66136499999999
93,豐原成功特約服務中心,04-25295959,台中市豐原區中正路618號,24.250167899999997,120.705979
71,台中東興服務中心,123或0800-080123,台中市南屯區東興路二段62號,24.1377092,120.6531642
75,台中黎明二特約服務中心,04-22593858,台中市南屯區黎明路二段456號、458號,24.152123,120.63524109999999
27,台中松竹特約服務中心,04-22427755,台中市北屯區松竹路二段208號1樓,24.183404,120.694533
70,台中東興特約服務中心,04-24711289,台中市南屯區東興路二段189號,24.141302,120.652758
47,台中西屯特約服務中心,04-23153009,台中市西屯路二段10號,24.163743399999998,120.6622477
91,豐原中山服務中心,123或0800-080123,台中市豐原區中山路412號,24.24695,120.71526999999999
24,台中昌平特約服務中心,04-22470828,台中市北屯區昌平路一段109號,24.174942,120.690067
62,梨山服務中心,123或0800-080123,台中市和平區中正路90號,24.254190700000002,121.2520918
13,大雅中清特約服務中心,04-25689393,台中市大雅區中清南路292號,24.2261859,120.64518500000001
87,潭子服務中心,123或0800-080123,台中市潭子區潭興路三段40號,24.211755399999998,120.70411709999999
95,豐原南陽特約服務中心,04-25120797,台中市豐原區南陽路352號,24.246363,120.725669
88,潭子頭張特約服務中心,04-25351889,台中市潭子區頭張路一段1號,24.194309,120.70227709999999
89,國際服務中心,123或0800-080123,台中市龍井區國際街126號,24.1868021,120.5955158
10,立仁服務中心,123或0800-080123,台中市大里區立仁路172號,24.107086,120.70361899999999
63,台中復興特約服務中心,04-22203838,台中市東區復興路四段116號,24.1355805,120.686048
57,沙鹿中山服務中心,123或0800-080123,台中市沙鹿區中山路205號,24.2678749,120.574762
65,東勢服務中心,123或0800-080123,台中市東勢區本街244號,24.2570585,120.827739
45,台中福雅特約服務中心,04-24637755,台中市西屯區福雅路111-1~113號,24.1857678,120.6192307
36,后里服務中心,123或0800-080123,台中市后里區甲后路一段641號,24.309518,120.7176149
35,學士服務中心,123或0800-080123,台中市北區學士路187號,24.159917999999998,120.68063899999999
4,大甲經國特約服務中心,04-26868383,台中市大甲區興安路8號,24.347162,120.61688400000001
20,中清服務中心,123或0800-080123,台中市北屯區中清路二段713號,24.1853613,120.66406229999998
59,台中機場服務中心(台中航空站內),123或0800-080123,台中市沙鹿區中航路1段168號,24.260477899999998,120.59564879999999
61,沙鹿沙田特約服務中心,04-26633366,台中市沙鹿區沙田路148號,24.2365775,120.5596707
58,沙鹿中山二特約服務中心,04-26633385,台中市沙鹿區中山路375號,24.240112699999997,120.560175
12,國光服務中心,123或0800-080123,台中市大里區國光路二段735號,24.115471499999998,120.67903970000002
68,文心服務中心,123或0800-080123,台中市南屯區文心路一段351號,24.147314899999998,120.646406
11,塗城服務中心,123或0800-080123,台中市大里區成功路463號,24.0894641,120.7027959
86,潭子中山特約服務中心,04-25336655,台中市潭子區中山路二段482之2號,24.2169723,120.70576750000001
77,台中國光特約服務中心,04-22855656,台中市南區國光路111號,24.128694,120.678395
25,東山服務中心,123或0800-080123,台中市北屯區東山路一段212之2號,24.172849399999997,120.7130541
79,台中學府服務中心,123或0800-080123,台中市南區學府路73、75號,24.125896700000002,120.6750267
90,台中東海特約服務中心,04-26313399,台中市龍井區新興路13之1號,24.181043300000002,120.5908014
46,永福服務中心,123或0800-080123,台中市西屯區福雅路128巷58號,24.1847657,120.6207376
15,大雅服務中心,123或0800-080123,台中市大雅區神林南路182號,24.2253748,120.65687120000001
97,霧峰服務中心,123或0800-080123,台中市霧峰區中正路933號,24.0653522,120.69864150000001
73,南屯服務中心,123或0800-080123,台中市南屯區黎明路一段975號,24.1367699,120.63681000000001
53,美村服務中心,123或0800-080123,台中市西區美村路一段685號,24.1353896,120.6618128
2,大甲光明特約服務中心,04-26803399,台中市大甲區光明路18號,24.343971,120.62476559999999
50,台中忠明特約服務中心,04-23728958,台中市西區忠明南路421號,24.139676,120.657583
28,崇德捷運服務中心,123或0800-080123,台中市北屯區崇德路二段201號,24.173604100000002,120.68534050000001
96,豐原服務中心,123或0800-080123,台中市豐原區豐西街21號,24.2515239,120.71327579999999
18,太平東平特約服務中心,04-22733355,台中市太平區東平路620號,24.1338359,120.72086000000002
72,台中南屯特約服務中心,04-24758818,台中市南屯區南屯路二段200號,24.136684600000002,120.6504535
16,太平中興特約服務中心,04-22777979,台中市太平區中興東路1號,24.132493,120.72531200000002
56,台中精誠特約服務中心,04-23203535,台中市西區精誠路29號,24.1544546,120.65551709999998
34,力行服務中心,123或0800-080123,台中市北區進化路322號,24.1533108,120.69465149999999
3,大甲服務中心,123或0800-080123,台中市大甲區順天路159號,24.3450712,120.6222652
42,台中河南特約服務中心,04-27075050,台中市西屯區河南路二段303號,24.1732609,120.64686
29,崇德服務中心,123或0800-080123,台中市北屯區崇德路三段165號,24.186583,120.686007
37,大墩服務中心,123或0800-080123,台中市西屯區大墩路932號,24.157526,120.651274
81,明道服務中心,123或0800-080123,台中市烏日區中山路一段402號,24.1077035,120.63727320000001
67,台中五權特約服務中心,04-23809797,台中市南屯區五權西路二段687-1號,24.141954000000002,120.63847379999999
8,大里中興二特約服務中心,04-24812121,台中市大里區中興路二段376號,24.1058919,120.68956200000001
38,台中水湳特約服務中心,04-22938866,台中市西屯區中清路89號1樓,24.1550019,120.67692759999998
94,豐原向陽特約服務中心,04-25287577,台中市豐原區向陽路280號,24.251298300000002,120.727779
49,台中向上特約服務中心,04-24715368,台中市西區向上路一段379號,24.1465887,120.6553877
5,大肚服務中心,123或0800-080123,台中市大肚區榮華街3號,24.1553708,120.5447971
6,大里服務中心,123或0800-080123,台中市大里區大智路727號,24.118819000000002,120.685254
22,台中北屯服務中心,123或0800-080123,台中市北屯區北屯路208之5號,24.1671502,120.69581289999999
9,大里大明特約服務中心,04-24837868,台中市大里區中興路二段596號,24.114992,120.68980259999998
78,台中大慶特約服務中心,04-22603737,台中市南區復興路一段319-20號,24.114228,120.6538116
85,清水服務中心,123或0800-080123,台中市清水區中山路79號,24.261987,120.57221299999999
69,台中嶺東特約服務中心,04-23891207,台中市南屯區忠勇路36之1號,24.138241,120.612674
92,豐原中正特約服務中心,04-25256586,台中市豐原區中正路114號,24.2519391,120.72059399999999
66,東勢豐勢特約服務中心,04-25771199,台中市東勢區豐勢路337號,24.254709100000003,120.8293459
26,台中東山特約服務中心,04-24370317,台中市北屯區東山路一段308號,24.1758344,120.72116340000001
7,大里中興特約服務中心,04-24920185,台中市大里區中興路一段247號,24.09081,120.692178
44,台中福星特約服務中心,04-27085809,台中市西屯區福星路332號,24.1803809,120.6449447
1,日南服務中心,123或0800-080123,台中市大甲區中山路二段183號,24.379853,120.6541592
41,台中中科特約服務中心,04-24653535,台中市西屯區西屯路三段166之78號,24.1902391,120.61339369999999
82,神岡社口特約服務中心,04-25613925,台中市神岡區中山路505號,24.2465035,120.6857189
17,永豐服務中心,123或0800-080123,台中市太平區太平路577號,24.125704000000002,120.712507
80,烏日服務中心,123或0800-080123,台中市烏日區三民街212號,24.107688,120.6224031
51,台中柳川特約服務中心,04-23728298,台中市西區南屯路一段96號,24.132438,120.663726
60,沙鹿服務中心,123或0800-080123,台中市沙鹿區成功東街94號,24.241647699999998,120.5645845
23,台中北平特約服務中心,04-22360725,台中市北屯區北平路三段46號,24.1710684,120.681375
40,惠來服務中心,123或0800-080123,台中市西屯區西屯路二段104號,24.1664042,120.65343109999999
30,北台中服務中心,123或0800-080123,台中市北區中清路一段347號,24.1618602,120.6746977
14,民興服務中心,123或0800-080123,台中市大雅區民興街59號,24.2255495,120.6482156
43,逢甲服務中心,123或0800-080123,台中市西屯區逢甲路230號,24.175543899999997,120.63999299999999
54,台中英才特約服務中心,04-23014751,台中市西區英才路429、431號,24.150548,120.665553
83,梧棲服務中心,123或0800-080123,台中市梧棲區大智路二段197號,24.258101999999997,120.537618
55,台中公益服務中心,123或0800-080123,台中市西區精誠路105-8號,24.1510886,120.6552884
76,工學服務中心,123或0800-080123,台中市南區工學路82號,24.117183100000002,120.66309709999999
31,曉明服務中心,123或0800-080123,台中市北區中清路一段561號,24.168561899999997,120.6725848
19,太平服務中心,123或0800-080123,台中市太平區樹孝路25號,24.1496065,120.71605520000001
74,黎明服務中心,123或0800-080123,台中市南屯區黎明路二段147之1號,24.1455157,120.6364342
48,南台中服務中心,123或0800-080123,台中市西區市府路37號,24.1375174,120.6775602
64,太平精武東特約服務中心,04-22152777,台中市東區精武東路89、91號,24.1494005,120.70917390000001
21,台中北屯特約服務中心,04-22410808,台中市北屯區文心路四段995號,24.1709432,120.6967453
84,清水中山特約服務中心,04-26238686,台中市清水區中山路158號,24.269755899999996,120.57591599999999
39,台中永安服務中心,123或0800-080123,台中市西屯區台灣大道四段1238號,24.1847838,120.61103229999999
33,台中崇德特約服務中心,04-22317755,台中市北區崇德路一段462號,24.163532699999998,120.68517040000002
32,台中中友特約服務中心,04-22203388,台中市北區育才北路46-3號,24.152509600000002,120.6864777
52,南科服務中心,123或0800-080123,台南市新市區南科六路6號之1,23.105762,120.2800909
3,大內服務中心,123或0800-080123,台南市大內區大內里1號之5,23.1192073,120.3568212
4,山上服務中心,123或0800-080123,台南市山上區南洲里381號,23.102988,120.352253
42,台南崇德特約服務中心,06-2676988,台南市東區崇德路592、596號,22.971419100000002,120.227319
27,華平服務中心,123或0800-080123,台南市安平區華平路500號,22.9932418,120.1755067
47,麻豆服務中心,123或0800-080123,台南市麻豆區興國路23號,23.1820438,120.2481591
37,台南中華東特約服務中心,06-3367099,台南市東區中華東路三段201號,22.9763741,120.22561
58,歸仁中山特約服務中心,06-3300766,台南市歸仁區中山路二段255號,22.9673181,120.2882873
24,台南中華服務中心,123或0800-080123,台南市永康區中華路680號,23.0155655,120.2296449
13,台南公園特約服務中心,06-2811688,台南市北區公園路591-37.38號,23.0129952,120.21153989999999
60,關廟服務中心,123或0800-080123,台南市關廟區忠孝街113號,22.963186,120.32740220000001
12,北門服務中心,123或0800-080123,台南市北門區永隆里1號,23.2681342,120.12425209999999
38,東門服務中心,123或0800-080123,台南市東區東門路二段350號,22.982788100000004,120.22698999999999
49,新化服務中心,123或0800-080123,台南市新化區大德路30號,23.044729999999998,120.30298059999998
10,仁德服務中心,123或0800-080123,台南市仁德區中正路二段1136號,22.9701492,120.251912
5,大同服務中心,123或0800-080123,台南市中西區大同路一段236號,22.9820365,120.2115123
6,台南民生特約服務中心,06-2229988,台南市中西區民生路一段78號,22.993642899999998,120.20236940000001
22,鹽行服務中心,123或0800-080123,台南市永康區中正南路766號,23.0406499,120.2366457
45,將軍服務中心,123或0800-080123,台南市將軍區忠興里187號,23.201848100000003,120.16326029999999
36,台南中華特約服務中心,06-2697562,台南市東區中華東路二段325號,22.981741500000002,120.2301574
2,下營服務中心,123或0800-080123,台南市下營區中山路一段257號,23.2368737,120.26632749999999
35,東原服務中心,123或0800-080123,台南市東山區東原里瓦厝1號之3,23.272735600000004,120.45144690000001
55,新營服務中心,123或0800-080123,台南市新營區民治路105號,23.308699899999997,120.30577790000001
26,白河服務中心,123或0800-080123,台南市白河區三民路408號,23.351612,120.41628
20,永康中山服務中心,123或0800-080123,台南市永康區中山南路462號,23.017541,120.23912
44,台南金華特約服務中心,06-2917070,台南市南區金華路二段119~123號,22.9800535,120.1911965
1,七股服務中心,123或0800-080123,台南市七股區大埕里373號,23.1453614,120.14449599999999
17,大灣服務中心,123或0800-080123,台南市永康區大灣路1038號,22.999014399999997,120.25251740000002
51,台南新市特約服務中心,06-5998899,台南市新市區仁愛街254號,23.0759396,120.2936236
61,鹽水服務中心,123或0800-080123,台南市鹽水區南門路132號,23.312872,120.269295
56,新營民治特約服務中心,06-6565288,台南市新營區民治路343號,23.304420999999998,120.3028478
23,永康中華特約服務中心,06-3038883,台南市永康區中華路456號,23.0106782,120.23280770000001
8,台南服務中心,123或0800-080123,台南市中西區西門路一段701號,22.9879621,120.19735829999999
16,台南西門特約服務中心,06-2277277,台南市北區西門三段77號,23.0023064,120.20300929999999
11,六甲服務中心,123或0800-080123,台南市六甲區建國街67號,23.2314802,120.35218870000001
30,台南安和特約服務中心,06-3570088,台南市安南區安和路四段496號,23.0608595,120.2187706
14,公園服務中心,123或0800-080123,台南市北區公園路966號,23.0160861,120.2143689
43,台南大林特約服務中心,06-2150262,台南市南區大林路6號,22.9763451,120.2135047
25,玉井服務中心,123或0800-080123,台南市玉井區中正路42號,23.178013,120.4840711
32,西港服務中心,123或0800-080123,台南市西港區文化路60號,23.1234224,120.20450290000001
59,歸仁服務中心,123或0800-080123,台南市歸仁區文化街二段15號,22.9696745,120.2940761
54,新營中山服務中心,06-6333199,台南市新營區中山路175之1號,23.303511,120.315592
53,新營三民特約服務中心,06-6324588,台南市新營區三民路91-2號,23.3068424,120.3131538
48,善化服務中心,123或0800-080123,台南市善化區中山路246號,23.132310600000004,120.2972175
46,麻豆興中特約服務中心,06-5713388,台南市麻豆區興中路169號,23.183832000000002,120.2530376
15,文賢服務中心,123或0800-080123,台南市北區文賢路608號,23.0089212,120.19392749999999
31,台南海佃特約服務中心,06-2597588,台南市安南區海佃路一段192號,23.024847100000002,120.19168
19,永康中山特約服務中心,06-3038188,台南市永康區中山南路32-6號,23.012154199999998,120.2277279
18,永康大灣特約服務中心,06-2051992,台南市永康區大灣路457號,23.0021372,120.26515520000001
9,健康服務中心,123或0800-080123,台南市中西區健康路一段386、388號,22.981593399999998,120.19887250000001
21,永康服務中心,123或0800-080123,台南市永康區中山南路515號,23.023034,120.25071899999999
29,安中服務中心,123或0800-080123,台南市安南區安中路三段370號,23.0490925,120.1755074
50,新化中正特約服務中心,06-5908800,台南市新化區中正路445號,23.036086100000002,120.30786529999999
28,安南服務中心,123或0800-080123,台南市安南區安中路一段678號,23.042835500000002,120.19615520000002
41,成大服務中心,123或0800-080123,台南市東區東寧路西段15號,22.9922087,120.2172915
57,學甲服務中心,123或0800-080123,台南市學甲區濟生路67號,23.232222,120.183554
7,成功服務中心,123或0800-080123,台南市中西區成功路3號,22.9973073,120.21034180000001
39,台南東寧特約服務中心,06-2351712,台南市東區東寧路429號,22.989814199999998,120.22989129999999
40,台南東寧二特約服務中心,06-2758099,台南市東區東寧路63號,22.9920151,120.2220078
34,佳里服務中心,123或0800-080123,台南市佳里區進學路256號,23.1641802,120.1758537
33,佳里延平服務中心,123或0800-080123,台南市佳里區延平路106號,23.155921499999998,120.179348
5,民生服務中心,123或0800-080123,新竹市東區民生路168號,24.8109544,120.97660359999999
11,新竹南大特約服務中心,03-5613300,新竹市東區南大路333號,24.7975448,120.96990109999999
8,新竹光復特約服務中心,03-5726363,新竹市東區光復路二段330號,24.7959063,120.99829809999999
3,新竹西大特約服務中心,03-5257099,新竹市北區西大路465號,24.8047629,120.9632794
4,新竹湳雅特約服務中心,03-5328359,新竹市北區湳雅街8號1樓,24.817034,120.9697281
9,西門服務中心,123或0800-080123,新竹市東區西大路322號,24.8008927,120.96657990000001
2,新竹中正特約服務中心,03-5318788,新竹市北區中正路233號,24.8117745,120.96453319999999
7,關新服務中心,123或0800-080123,新竹市東區光復路一段354巷1弄7號1樓,24.783578100000003,121.01815900000001
12,建新服務中心,123或0800-080123,新竹市東區建新路112號,24.799073100000005,121.0001002
6,新竹竹科特約服務中心,03-5785757,新竹市東區光復路一段117號,24.7811941,121.023401
13,科園服務中心,123或0800-080123,新竹市東區園區一路99號,24.7762415,121.0148419
1,新竹服務中心,123或0800-080123,新竹市北區中正路105號,24.807146499999998,120.9680385
14,新竹香山特約服務中心,03-5397373,新竹市香山區中華路五段2號,24.7885293,120.9287654
10,林森服務中心,123或0800-080123,新竹市東區林森路22號,24.8019759,120.9693708
5,竹北六家特約服務中心,03-6682233,新竹縣竹北市自強南路57號,24.8180357,121.02721319999999
11,竹東長春二特約服務中心,03-5953377,新竹縣竹東鎮長春路三段221-2號,24.744635,121.0824931
8,竹東服務中心,123或0800-080123,新竹縣竹東鎮杞林路68號,24.735839399999996,121.0919574
3,竹北中正特約服務中心,03-6566565,新竹縣竹北市中正東路283號,24.8350995,121.0128514
4,竹北光明特約服務中心,03-6570527,新竹縣竹北市光明六路111號,24.827739,121.008091
9,竹東東林特約服務中心,03-5961616,新竹縣竹東鎮東林路9、11號,24.736786,121.08873390000001
17,關西服務中心,123或0800-080123,新竹縣關西鎮正義路53號,24.792680999999998,121.1758602
2,竹北中正西特約服務中心,03-6560998,新竹縣竹北市中正西路33號,24.840146,121.0020005
7,竹北服務中心,123或0800-080123,新竹縣竹北市縣政九路136號,24.8286261,121.0108381
12,湖口中山特約服務中心,03-5903300,新竹縣湖口鄉中山路二段148號,24.90229,121.044219
6,博愛服務中心,123或0800-080123,新竹縣竹北市博愛街426-1號,24.837631,121.00961389999999
13,湖口服務中心,123或0800-080123,新竹縣湖口鄉中央街20號,24.901442000000003,121.04791000000002
1,北埔服務中心,123或0800-080123,新竹縣北埔鄉北埔街107號,24.7003881,121.0549338
16,新豐新興特約服務中心,03-5571599,新竹縣新豐鄉新興路167之5號,24.8685245,120.9945229
15,新豐服務中心,123或0800-080123,新竹縣新豐鄉建興路一段201巷9-1號,24.877056399999997,120.9932294
14,新埔服務中心,123或0800-080123,新竹縣新埔鎮中正路208號,24.8271531,121.082528
10,竹東長春特約服務中心,03-5953939,新竹縣竹東鎮長春路三段122號,24.742683800000002,121.0845179
52,蘆竹服務中心,123或0800-080123,桃園市蘆竹區南崁路128號,25.0463111,121.295172
3,八德大湳服務中心,123或0800-080123,桃園市八德區介壽路一段894號,24.959839000000002,121.299353
4,八德更寮腳特約服務中心,03-3653878,桃園市八德區介壽路二段1194號,24.9310565,121.29715959999999
42,新屋服務中心,123或0800-080123,桃園市新屋區電信街10號,24.9714629,121.1090642
27,平鎮中豐特約服務中心,03-4699797,桃園市平鎮區中豐路山頂段183號,24.900016600000004,121.21109469999999
47,龜山服務中心,123或0800-080123,桃園市龜山區中興路359號,24.9921059,121.33503300000001
37,中平服務中心,123或0800-080123,桃園市桃園區宏昌六街237號,24.9869247,121.292185
24,內壢服務中心,123或0800-080123,桃園市中壢區興仁路一段188號,24.968945,121.26163400000002
13,大溪服務中心,123或0800-080123,桃園市大溪區慈湖路78號,24.8818408,121.28880579999999
12,大園服務中心,123或0800-080123,桃園市大園區新興路42號,25.064001,121.194278
38,桃鶯服務中心,123或0800-080123,桃園市桃園區桃鶯路157號,24.9858733,121.3182179
49,龜山長庚服務中心,123或0800-080123,桃園市龜山區復興一路310號,25.0561629,121.3632092
10,桃園機場服務中心(第二航廈入境),123或0800-080123,桃園市大園區國際機場第二航廈一樓入境大廳,25.0770139,121.232025
5,八德桃鶯特約服務中心,03-3673030,桃園市八德區桃鶯路109號,24.970053200000002,121.32811409999998
6,大園中正東特約服務中心,03-3860488,桃園市大園區中正東路43號,25.063981,121.198847
22,中壢龍岡特約服務中心,03-4288066,桃園市中壢區健行路255號,24.947162600000002,121.22859240000001
45,龍潭服務中心,123或0800-080123,桃園市龍潭區中正路194巷25號,24.864955899999998,121.21622830000001
36,桃園成功特約服務中心,03-3346060,桃園市桃園區成功路一段30號,24.992638,121.3114527
2,八德服務中心,123或0800-080123,桃園市八德區介壽路一段199號,24.973022,121.302978
35,桃園中正特約服務中心,03-3269393,桃園市桃園區中正路645號,25.0055953,121.30406059999999
55,觀音服務中心,123或0800-080123,桃園市觀音區中山路38號,25.0352723,121.08422350000001
26,中壢環中特約服務中心,03-2850757,桃園市中壢區環中東路212之2號,24.9631735,121.2562379
20,內壢忠孝服務中心,123或0800-080123,桃園市中壢區忠孝路65號,24.973983899999997,121.25579099999999
44,楊梅埔心特約服務中心,03-4821100,桃園市楊梅區中興路19號,24.9187777,121.18414070000001
1,八德介壽特約服務中心,03-3763699,桃園市八德區介壽路一段1013號,24.9581842,121.29942220000001
17,內壢中華特約服務中心,03-4331010,桃園市中壢區中華路一段228號,24.9734091,121.2587183
51,南崁中正特約服務中心,03-3210909,桃園市蘆竹區中正路138號,25.046781399999997,121.29262279999999
23,中壢新生服務中心,123或0800-080123,桃園市中壢區新生路133號,24.9604599,121.2228488
8,桃園機場服務中心(第一航廈入境),123或0800-080123,桃園市大園區國際機場第一航廈入境大廳,25.081596700000002,121.23793899999998
16,中壢中正特約服務中心,03-4025067,桃園市中壢區中正路322號,24.955451999999998,121.21756299999998
11,桃園機場服務中心(第二航廈出境),123或0800-080123,桃園市大園區國際機場第二航廈三樓出境大廳,25.081596700000002,121.23793899999998
30,大有服務中心,123或0800-080123,桃園市桃園區大有路455號,25.011986399999998,121.31876770000001
14,中壢中原特約服務中心,03-4569090,桃園市中壢區中山東路二段39號,24.954241500000002,121.23761470000001
43,楊梅服務中心,123或0800-080123,桃園市楊梅區大成路167號,24.912277,121.1456755
25,龍東服務中心,123或0800-080123,桃園市中壢區龍東路471號,24.934883600000003,121.25664609999998
32,桃園大興特約服務中心,03-3552000,桃園市桃園區大興西路二段8號,25.0121247,121.2994429
54,南崁服務中心,123或0800-080123,桃園市蘆竹區福祿五街6號,25.0535914,121.296401
53,桃園南崁特約服務中心,03-3210101,桃園市蘆竹區南崁路329號,25.049964000000003,121.291472
48,龜山文化特約服務中心,03-3270303,桃園市龜山區文化二路81-1、83-1號,25.0578783,121.3659673
46,龍潭北龍特約服務中心,03-4805151,桃園市龍潭區北龍路106號,24.865788000000002,121.2133354
15,中壢服務中心,123或0800-080123,桃園市中壢區中山路152號,24.9561729,121.2243155
31,大業服務中心,123或0800-080123,桃園市桃園區大業路一段353號,25.0123094,121.31231159999999
19,中原服務中心,123或0800-080123,桃園市中壢區日新路49號,24.954697,121.239126
18,中壢元化特約服務中心,03-4260388,桃園市中壢區元化路325號,24.962348300000002,121.22429380000001
9,桃園機場服務中心(第一航廈出境),123或0800-080123,桃園市大園區國際機場第一航廈出境大廳,25.081596700000002,121.23793899999998
21,中壢健行服務中心,123或0800-080123,桃園市中壢區健行路124號,24.9497122,121.2271372
29,平鎮服務中心,123或0800-080123,桃園市平鎮區德育路二段175號,24.941218,121.21930800000001
50,大竹服務中心,123或0800-080123,桃園市蘆竹區大竹路442號,25.021766,121.263125
28,山仔頂服務中心,123或0800-080123,桃園市平鎮區南豐路95號,24.9002087,121.2084254
41,復興服務中心,123或0800-080123,桃園市復興區中正路70號,24.8160854,121.3513831
7,桃園機場服務中心(第一航廈入境管制區),123或0800-080123,桃園市大園區航站南路15號(第一航廈入境管制區),25.081596700000002,121.23793899999998
39,桃園服務中心,123或0800-080123,桃園市桃園區復興路189號,24.989303,121.30966299999999
40,龍安服務中心,123或0800-080123,桃園市桃園區龍安街107號,24.989635800000002,121.27989369999999
34,桃園夜市服務中心,123或0800-080123,桃園市桃園區中正路417號,25.00044,121.307124
33,桃園藝文特約服務中心,03-3468777,桃園市桃園區中正路1200號,25.0180926,121.2978004
52,景美服務中心,123或0800-080123,台北市文山區羅斯福路六段159巷19號,24.9972729,121.54233390000002
3,台北天母特約服務中心,02-28722699,台北市士林區天母西路28-1號,25.118316,121.5265297
4,士林夜市服務中心,123或0800-080123,台北市士林區文林路158號,25.089048499999997,121.5268178
42,內湖服務中心,123或0800-080123,台北市內湖區內湖路一段596號,25.078705,121.57761599999999
71,台北東區服務中心,123或0800-080123,台北市信義區松仁路130號,25.0336296,121.5679096
27,台北松江服務中心,123或0800-080123,台北市中山區松江路67之1號,25.0492489,121.5331618
70,五分埔服務中心,123或0800-080123,台北市信義區永吉路525號,25.0455859,121.58033700000001
47,康寧服務中心,123或0800-080123,台北市內湖區康寧路三段75巷22號,25.0725369,121.60930400000001
37,博愛服務中心,123或0800-080123,台北市中正區博愛路168號,25.039598,121.511122
58,陽明山服務中心,123或0800-080123,台北市北投區紗帽路139號,25.151154100000003,121.5462689
67,復興服務中心,123或0800-080123,台北市松山區復興南路一段7號,25.047051899999996,121.54431509999998
24,東門服務中心,123或0800-080123,台北市大安區愛國東路35-1號,25.032072,121.526182
62,台北民生東特約服務中心,02-27662007,台北市松山區民生東路五段124之2號,25.058571899999997,121.5612791
13,台北永康特約服務中心,02-23568787,台北市大安區永康街11之1號,25.032839000000003,121.529866
60,台北饒河特約服務中心,02-27697070,台北市松山區八德路四段676號,25.0499063,121.5763166
12,大龍峒服務中心,123或0800-080123,台北市大同區承德路三段249號,25.071402,121.518832
38,立法院服務中心,123或0800-080123,台北市中正區濟南路一段1號2樓(立法院內請攜帶證件),25.0438581,121.51952779999999
69,台北光復服務中心,123或0800-080123,台北市信義區仁愛路4段420-1號,25.037315600000003,121.5577037
85,台北萬大服務中心,123或0800-080123,台北市萬華區萬大路465號,25.020581200000002,121.49828020000001
77,台北後山埤特約服務中心,02-27886622,台北市南港區忠孝東路五段998號,25.0449647,121.58276059999999
83,台北萬華特約服務中心,02-23883838,台北市萬華區桂林路103號,25.038548300000002,121.5010317
49,台北木新服務中心,123或0800-080123,台北市文山區木新路三段200號,24.981711100000002,121.56011720000001
10,台北雙連特約服務中心,02-25535656,台北市大同區民生西路75號,25.0576593,121.51983349999999
63,民生服務中心,123或0800-080123,台北市松山區民生東路五段206號,25.058714600000002,121.5647253
5,社子服務中心,123或0800-080123,台北市士林區延平北路五段211號,25.0837867,121.5098835
65,台北小巨蛋服務中心,123或0800-080123,台北市松山區南京東路4段11號,25.0519794,121.5497353
6,士林服務中心,123或0800-080123,台北市士林區基河路10號,25.081095,121.52370800000001
22,頂好服務中心,123或0800-080123,台北市大安區敦化南路一段158號,25.0435932,121.54848590000002
45,台北東湖特約服務中心,02-26333131,台北市內湖區東湖路133號,25.068219600000003,121.61681259999999
36,台北南陽特約服務中心,02-23616777,台北市中正區南陽街1-3號1樓,25.0456512,121.5162179
2,士林中正特約服務中心,02-28822005,台北市士林區中正路363號,25.094246,121.52205049999999
35,台北南昌特約服務中心,02-23210229,台北市中正區南昌路一段134號,25.029510100000003,121.51838190000001
82,西門町服務中心,123或0800-080123,台北市萬華區昆明街126號,25.043381399999998,121.5048179
66,南京東服務中心,123或0800-080123,台北市松山區南京東路五段135號,25.051724,121.56146299999999
55,石牌服務中心,123或0800-080123,台北市北投區石牌路一段73號,25.113682999999998,121.5113017
26,大直服務中心,123或0800-080123,台北市中山區北安路662號,25.0836817,121.54939830000001
20,台北通化特約服務中心,02-27367979,台北市大安區通化街100號,25.0296668,121.5539746
44,內湖德安特約服務中心,02-27906565,台北市內湖區成功路四段137號,25.0827935,121.59347340000002
1,天母中山特約服務中心,02-28337890,台北市士林區中山北路六段146號,25.1062696,121.5250636
84,萬華萬大特約服務中心,02-23013378,台北市萬華區萬大路260號,25.026013600000002,121.50031200000001
78,台北南港特約服務中心,02-27892233,台北市南港區南港路一段155號,25.0550563,121.61359209999999
17,台北信義特約服務中心,02-27046666,台北市大安區信義路三段202號,25.033070000000002,121.543226
80,台北西門特約服務中心,02-23317979,台北市萬華區西寧南路36號1樓51-54室,25.043381399999998,121.5048179
51,台北興隆特約服務中心,02-86631775,台北市文山區興隆路三段77號,25.0000338,121.55662779999999
61,台北敦北服務中心,123或0800-080123,台北市松山區民生東路4段69號,25.058057,121.55111299999999
56,台北石牌特約服務中心,02-28228181,台北市北投區石牌路二段47號,25.116276899999995,121.5158301
23,敦南服務中心,123或0800-080123,台北市大安區敦化南路二段162號,25.024829999999998,121.548148
8,德行東服務中心,123或0800-080123,台北市士林區德行東路177號,25.108783199999998,121.5310551
16,台北忠孝服務中心,123或0800-080123,台北市大安區忠孝東路三段214號,25.0414545,121.5399747
11,大橋頭服務中心,123或0800-080123,台北市大同區延平北路三段68號,25.065493399999998,121.51095149999999
30,台北北區服務中心,123或0800-080123,台北市中山區建國北路二段216號,25.060640300000003,121.5365875
14,台北師大服務中心,123或0800-080123,台北市大安區和平東路1段182之2號,25.026285,121.529753
43,內湖成功服務中心,123或0800-080123,台北市內湖區成功路三段135號,25.0793681,121.5898608
81,南機場服務中心,123或0800-080123,台北市萬華區西藏路125巷20號,25.0276074,121.50301370000001
25,大直北安特約服務中心,02-25321798,台北市中山區北安路594號,25.081583,121.54885900000001
79,南港服務中心,123或0800-080123,台北市南港區南港路一段356號,25.0545751,121.6071496
32,台北南區服務中心,123或0800-080123,台北市中正區仁愛路一段42號,25.038135,121.523817
59,台北八德特約服務中心,02-25709797,台北市松山區八德路三段135號,25.0482798,121.5546402
54,北投中和服務中心,123或0800-080123,台北市北投區中和街260號,25.1400908,121.5007989
53,景美漢神特約服務中心,02-29352088,台北市文山區羅斯福路六段244號,24.992130300000003,121.54020179999999
48,木柵服務中心,123或0800-080123,台北市文山區木柵路三段79號,24.9887907,121.56748470000001
46,台北東湖服務中心,123或0800-080123,台北市內湖區東湖路33巷1號,25.0689645,121.6134973
15,台北延吉特約服務中心,02-27117890,台北市大安區延吉街120號,25.0405521,121.5546562
76,台北莊敬特約服務中心,02-27225577,台北市信義區莊敬路448號,25.026846399999997,121.56732120000001
31,台北農安特約服務中心,02-25965759,台北市中山區農安街12之4號,25.0648571,121.5239985
19,台北師大特約服務中心,02-23661212,台北市大安區師大路106號,25.022065899999998,121.52816999999999
74,台北101服務中心(101塔樓35樓),123或0800-080123,台北市信義區信義路五段7號35樓C室,25.033976000000003,121.5645389
73,台北松山特約服務中心,02-27269999,台北市信義區松德路1號,25.039351,121.57783500000001
18,大安服務中心,123或0800-080123,台北市大安區信義路四段89之1號,25.033527499999998,121.546644
9,寧夏夜市服務中心,123或0800-080123,台北市大同區民生西路193號,25.057292999999998,121.51674399999999
64,台北民權特約服務中心,02-27197755,台北市松山區民權東路三段132號,25.061783,121.54624299999999
75,虎林服務中心,123或0800-080123,台北市信義區信義路六段90號,25.0355,121.57739299999999
21,台北通化服務中心,123或0800-080123,台北市大安區通化街177號,25.0274507,121.5535905
29,長春服務中心,123或0800-080123,台北市中山區長春路27號,25.055097699999997,121.5243814
50,景文服務中心,123或0800-080123,台北市文山區景文街60號,24.9909029,121.541106
28,台北林森特約服務中心,02-25816262,台北市中山區林森北路106號,25.0508953,121.52488500000001
41,內湖西湖特約服務中心,02-26570303,台北市內湖區內湖路一段313號,25.0823254,121.5675696
72,信義威秀服務中心,123或0800-080123,台北市信義區松壽路20號,25.035635600000003,121.5670989
68,松山機場服務中心,123或0800-080123,台北市松山區敦化北路340之9號,25.061978399999997,121.55199520000001
57,北投服務中心,123或0800-080123,台北市北投區光明路176號,25.1355547,121.5031094
7,芝山服務中心,123或0800-080123,台北市士林區福國路95號2F,25.1016936,121.522194
39,公館服務中心,123或0800-080123,台北市中正區羅斯福路四段76號,25.0141862,121.53458020000001
40,台北公館特約服務中心,02-23673030,台北市中正區羅斯褔路三段252號,25.017147,121.531539
34,台北三創服務中心,123或0800-080123,台北市中正區市民大道三段2號,25.0454897,121.5311294
33,公園服務中心,123或0800-080123,台北市中正區公園路18號,25.0452513,121.5170554
52,府中服務中心,123或0800-080123,新北市板橋區府後街1號,25.009953699999997,121.459375
93,萬里服務中心,123或0800-080123,新北市萬里區瑪鍊路16號,25.1754638,121.6874584
71,深坑服務中心,123或0800-080123,新北市深坑區深坑街14號,25.0022081,121.6156139
75,新店服務中心,123或0800-080123,新北市新店區北新路一段72號,24.967017000000002,121.541428
27,景安捷運服務中心,123或0800-080123,新北市中和區景平路476號,24.9937079,121.5052763
70,竹圍服務中心,123或0800-080123,新北市淡水區民權路157號,25.136048000000002,121.46010700000001
47,板橋華江特約服務中心,02-22537272,新北市板橋區文化路二段392號,25.0312189,121.47382579999999
91,新莊新泰特約服務中心,02-89920909,新北市新莊區新泰路283號,25.040585399999998,121.4455719
24,中和員山特約服務中心,02-22212277,新北市中和區員山路188號,25.000356,121.481399
62,泰明服務中心,123或0800-080123,新北市泰山區明志路一段167號1樓,25.062290899999997,121.4331629
13,三峽復興服務中心,123或0800-080123,新北市三峽區復興路172號,24.9385325,121.37082920000002
87,新莊幸福特約服務中心,02-89920808,新北市新莊區幸福路22號,25.0495502,121.45890359999999
95,樹林中華服務中心,123或0800-080123,新北市樹林區中華路144號,24.980273999999998,121.416477
88,新莊幸福服務中心,123或0800-080123,新北市新莊區幸福路612號1樓,25.0492683,121.4517116
89,新莊幸福二特約服務中心,02-29979595,新北市新莊區幸福路749號,25.0488789,121.448521
101,蘆洲長安特約服務中心,02-28488080,新北市蘆洲區長安街152號,25.082466399999998,121.4599767
10,三重服務中心,123或0800-080123,新北市三重區重新路三段27號,25.061747,121.494495
63,明志服務中心,123或0800-080123,新北市泰山區明志路三段155號,25.039671,121.42486299999999
57,林口服務中心,123或0800-080123,新北市林口區中山路262號,25.0799872,121.38485359999999
65,淡水中山北特約服務中心,02-26250099,新北市淡水區中山北路一段88號,25.1762217,121.44246609999999
45,板橋中正特約服務中心,02-29659292,新北市板橋區中正路218~220號,25.0184172,121.4559301
36,永和得和特約服務中心,02--29428877,新北市永和區得和路418號,24.999017600000002,121.5260998
104,鶯歌建國特約服務中心,02-26777575,新北市鶯歌區建國路193號,24.953401899999996,121.349216
35,雙和服務中心,123或0800-080123,新北市永和區國光路8號,25.0085708,121.5195412
4,三重三和特約服務中心,02-22863838,新北市三重區三和路四段410號,25.079669100000004,121.48095479999999
20,環球服務中心,123或0800-080123,新北市中和區中山路三段117號,25.0059266,121.47455579999999
59,林口竹林特約服務中心,02-26022678,新北市林口區竹林路27號,25.0773375,121.38664109999999
61,金山服務中心,123或0800-080123,新北市金山區金包里街1號,25.220288600000003,121.640359
58,林口文化特約服務中心,02-26025225,新北市林口區文化二路一段553號,25.077229199999998,121.3746749
12,三峽服務中心,123或0800-080123,新北市三峽區民權街36號,24.9339382,121.3697628
68,淡水捷運服務中心,123或0800-080123,新北市淡水區中正東路51號,25.168059500000002,121.4467307
11,北大服務中心,123或0800-080123,新北市三峽區大學路168號,24.9463845,121.3727998
86,新莊民安服務中心,123或0800-080123,新北市新莊區民安路214號1樓,25.0226659,121.425871
77,新店北新特約服務中心,02-89145888,新北市新店區北新路三段150號,24.982452399999996,121.5416503
25,連城服務中心,123或0800-080123,新北市中和區連城路94號,25.0002995,121.4965862
79,新店安康特約服務中心,02-22125388,新北市新店區安康路二段121-1號,24.961437300000004,121.5126175
90,輔大服務中心,123或0800-080123,新北市新莊區建國一路10號,25.031910399999997,121.43367849999998
46,板橋文化特約服務中心,02-22568277,新北市板橋區文化路一段296號,25.0216418,121.46758929999999
15,土城延和服務中心,123或0800-080123,新北市土城區延和路201號,24.9902435,121.46952350000001
100,蘆洲光華特約服務中心,02-82825757,新北市蘆洲區光華路95號,25.0825069,121.467349
97,雙溪服務中心,123或0800-080123,新北市雙溪區中華路107號,25.0389712,121.8658946
73,新店中正特約服務中心,02-29105656,新北市新店區中正路342號,24.9751976,121.53653840000001
53,板橋南雅特約服務中心,02-29658258,新北市板橋區南雅南路一段7號,25.007058999999998,121.45671000000002
2,三芝服務中心,123或0800-080123,新北市三芝區公正街1號,25.2575582,121.49993429999999
50,板橋四維服務中心,123或0800-080123,新北市板橋區四維路229號,25.027331399999998,121.46356599999999
28,中和興南特約服務中心,02-31515589,新北市中和區興南路一段51號,24.9903078,121.51085049999999
96,樹林服務中心,123或0800-080123,新北市樹林區樹新路15號,24.994116899999998,121.42655900000001
18,土城裕民特約服務中心,02-22605665,新北市土城區裕民路35號,24.988458899999998,121.448392
72,新店中正服務中心,123或0800-080123,新北市新店區中正路259號,24.97354,121.53872690000001
16,土城金城特約服務中心,02-82613737,新北市土城區金城路三段38號,24.986384,121.465602
56,江翠服務中心,123或0800-080123,新北市板橋區雙十路二段70巷2號,25.0281669,121.475803
34,樂華夜市服務中心,123或0800-080123,新北市永和區永和路一段57號,25.006874800000002,121.5129278
102,蘆洲長榮特約服務中心,02-22899911,新北市蘆洲區長榮路260號,25.086101899999996,121.46055630000001
3,三重三和服務中心,123或0800-080123,新北市三重區三和路二段150號1樓,25.068341,121.4994335
42,汐止福德服務中心,123或0800-080123,新北市汐止區福德一路264號,25.0641362,121.6324751
99,蘆洲中華服務中心,123或0800-080123,新北市蘆洲區中華街73號1樓,25.0803647,121.461999
29,五股成泰特約服務中心,02-22921122,新北市五股區工商路74號,25.085051999999997,121.4383813
37,石門洞服務中心,123或0800-080123,新北市石門區中央路32號,25.292476699999998,121.56822240000001
81,中平服務中心,123或0800-080123,新北市新莊區中平路369號,25.05224,121.4445511
67,淡水中山特約服務中心,02-86310300,新北市淡水區中山路78號,25.170714,121.44302890000002
103,集賢服務中心,123或0800-080123,新北市蘆洲區集賢路338號1樓,25.0844682,121.4810989
8,三重正義特約服務中心,02-89812288,新北市三重區正義北路234號,25.067963100000004,121.49600919999999
38,汐止大同特約服務中心,02-26918699,新北市汐止區大同路二段346號,25.0670245,121.65675719999999
94,樹林中山特約服務中心,02-26876161,新北市樹林區中山路一段172號,24.9892729,121.4219989
49,板橋四川特約服務中心,02-29515859,新北市板橋區四川路一段263號,25.002168100000002,121.45961570000001
5,三重中正特約服務中心,02-29823399,新北市三重區中正北路181號,25.0695884,121.47770729999999
6,三重五華特約服務中心,02-89816767,新北市三重區五華街140號,25.083844,121.4913975
22,中和中和特約服務中心,02-22458877,新北市中和區中和路33號,25.001781899999997,121.500006
9,三重重陽特約服務中心,02-89813377,新北市三重區重陽路二段3號,25.061799,121.486921
78,大坪林服務中心,123或0800-080123,新北市新店區民權路48號,24.983076,121.5395117
85,新莊民安西特約服務中心,02-22039595,新北市新莊區民安西路52號,25.020638,121.427277
69,淡水服務中心,123或0800-080123,新北市淡水區中正路201號,25.171720899999997,121.4377357
92,瑞芳服務中心,123或0800-080123,新北市瑞芳區中正路65號2樓,25.107442199999998,121.8060785
66,淡水新市服務中心,123或0800-080123,新北市淡水區中山北路二段191號,25.1854533,121.44391829999999
26,南勢角服務中心,123或0800-080123,新北市中和區景平路155號,24.9919232,121.51355520000001
7,正義服務中心,123或0800-080123,新北市三重區正義北路15-3號,25.0630514,121.49778059999998
98,蘆洲服務中心,123或0800-080123,新北市蘆洲區三民路91號,25.0845289,121.474098
44,板橋中山特約服務中心,02-29596767,新北市板橋區中山路二段281號,25.018094,121.47787
1,八里服務中心,123或0800-080123,新北市八里區中山路二段356巷12號,25.148866899999998,121.40167790000001
41,站前服務中心,123或0800-080123,新北市汐止區忠孝東路286號,25.068272600000004,121.66389199999999
82,新莊中正特約服務中心,02-22016608,新北市新莊區中正路297號,25.034976999999998,121.44859299999999
17,土城服務中心,123或0800-080123,新北市土城區青雲路136號,24.985452399999996,121.4588581
80,安康服務中心,123或0800-080123,新北市新店區安康路二段337號之一,24.9555369,121.498658
51,板橋服務中心,123或0800-080123,新北市板橋區民族路166號,25.008371,121.46526399999999
60,林口忠孝服務中心,123或0800-080123,新北市林口區忠孝路370號1樓,25.071737699999996,121.36908290000001
23,中和永安特約服務中心,02-22319797,新北市中和區中和路430號,25.0033568,121.5118138
40,汐止服務中心,123或0800-080123,新北市汐止區仁愛路12號,25.0635214,121.65937240000001
30,五股服務中心,123或0800-080123,新北市五股區成泰路三段18號,25.0883587,121.4419659
14,土城中央特約服務中心,02-82620939,新北市土城區中央路二段140號,24.977401,121.441819
43,板橋三民服務中心,123或0800-080123,新北市板橋區三民路2段171號,25.0144508,121.4792135
54,漢生服務中心,123或0800-080123,新北市板橋區漢生東路133號,25.0142621,121.46797649999999
83,新莊服務中心,123或0800-080123,新北市新莊區中華路一段57號,25.0389345,121.4518414
55,板橋篤行特約服務中心,02-26813131,新北市板橋區篤行路三段66號,24.985609,121.4271
76,新店七張特約服務中心,02-29116767,新北市新店區北新路二段163號,24.9763936,121.5426875
31,永和中山特約服務中心,02-29232020,新北市永和區中山路一段210號,25.008554,121.508467
19,海山捷運服務中心,123或0800-080123,新北市土城區裕民路73號,24.9876439,121.44973529999999
74,新店遠東特約服務中心,02-22188777,新北市新店區中正路525號1樓,24.985366199999998,121.5334926
48,板橋新埔服務中心,123或0800-080123,新北市板橋區文化路二段51號,25.0253686,121.4690122
64,貢寮服務中心,123或0800-080123,新北市貢寮區長泰路18號,25.0199517,121.90762409999999
21,中和南山服務中心,123或0800-080123,新北市中和區中和路138號,24.999576,121.503653
105,鶯歌服務中心,123或0800-080123,新北市鶯歌區國慶街93號,24.9547013,121.3503264
84,後港服務中心,123或0800-080123,新北市新莊區四維路7號,25.024579,121.423822
39,汐止中興特約服務中心,02-26927272,新北市汐止區中興路161號,25.066148499999997,121.6310008
33,永和中正服務中心,123或0800-080123,新北市永和區中正路261號,25.0005768,121.51756529999999
32,永和中正特約服務中心,02-29417879,新北市永和區中正路127號,24.997847600000004,121.51575940000001
52,高雄光華特約服務中心,07-7241988,高雄市苓雅區光華一路148-28號,22.622728,120.31627
71,文信服務中心,123或0800-080123,高雄市鼓山區文信路262號,22.6646926,120.2983077
75,旗山服務中心,123或0800-080123,高雄市旗山區延平一路509號,22.8879115,120.4833883
27,高雄新莊服務中心,123或0800-080123,高雄市左營區自由三路172號,22.671412,120.311191
70,路竹服務中心,123或0800-080123,高雄市路竹區中正路117號,22.8557115,120.2627934
47,瑞隆服務中心,123或0800-080123,高雄市前鎮區瑞隆路615號,22.6050024,120.3256533
91,鹽埕服務中心,123或0800-080123,高雄市鹽埕區五福四路267號,22.624898,120.2806168
24,六龜服務中心,123或0800-080123,高雄市六龜區華南街34號,22.9978891,120.6343519
62,楠梓建楠特約服務中心,07-3529338,高雄市楠梓區建楠路22號,22.727233,120.329131
13,大寮中庄特約服務中心,07-7021488,高雄市大寮區中庄村鳳屏一路440號,22.6358737,120.3921071
87,曹公服務中心,123或0800-080123,高雄市鳳山區曹公路25號,22.6275569,120.3571606
88,鳳山服務中心,123或0800-080123,高雄市鳳山區經武路58號,22.6342678,120.3637989
89,桂林服務中心,123或0800-080123,高雄市鳳山區鳳頂路61號,22.586417,120.358579
10,高雄鼎山特約服務中心,07-3959508,高雄市三民區鼎山街259號,22.6587311,120.3220888
63,高雄後勁特約服務中心,07-3640988,高雄市楠梓區後昌路10號,22.7202569,120.3121329
57,高雄文化服務中心,123或0800-080123,高雄市苓雅區廣州一街157-3號,22.6270952,120.315883
65,右昌服務中心,123或0800-080123,高雄市楠梓區軍校路981號,22.7122513,120.2917208
45,高雄草衙特約服務中心,07-8119488,高雄市前鎮區草衙二路399-1號,22.578725,120.322236
36,岡山服務中心,123或0800-080123,高雄市岡山區介壽路27號,22.784376,120.295809
35,岡山仁壽特約服務中心,07-6258288,高雄市岡山區仁壽路28、30號,22.7930569,120.289706
4,高雄天祥特約服務中心,07-3494788,高雄市三民區天祥一路200號,22.6679807,120.3183334
20,高雄漢民特約服務中心,07-8027288,高雄市小港區漢民路622號,22.566829,120.360268
59,五福服務中心,123或0800-080123,高雄市新興區五福二路213號,22.6231378,120.3014867
61,高雄服務中心,123或0800-080123,高雄市新興區林森一路230號,22.6339753,120.3051264
58,茄萣服務中心,123或0800-080123,高雄市茄萣區白砂路100號,22.909564,120.18457
12,大社中山特約服務中心,07-3510988,高雄市大社區中山路221號,22.7320213,120.3476881
68,楠梓德惠特約服務中心,07-3650169,高雄市楠梓區德惠路18號,22.7257013,120.3031862
11,鼎中服務中心,123或0800-080123,高雄市三民區鼎中路398號,22.6668302,120.319858
86,鳳山海洋特約服務中心,07-7636344,高雄市鳳山區海洋二路146號,22.6125635,120.348434
77,鳳山中山服務中心,123或0800-080123,高雄市鳳山區中山路83號,22.621465,120.36008
25,高雄舊城特約服務中心,07-5889488,高雄市左營區左營大路14-3號,22.680051,120.287749
79,五甲服務中心,123或0800-080123,高雄市鳳山區五甲二路280號,22.6002559,120.3385582
90,橋頭服務中心,123或0800-080123,高雄市橋頭區成功路235號,22.7561409,120.3106502
46,高雄瑞隆特約服務中心,07-7516288,高雄市前鎮區瑞隆路317號,22.6053579,120.3323921
15,九曲堂服務中心,123或0800-080123,高雄市大樹區復興街85號,22.6563543,120.4209691
73,華榮服務中心,123或0800-080123,高雄市鼓山區華榮路414號,22.669197,120.2946138
53,高雄成功特約服務中心,07-2824888,高雄市苓雅區成功一路204號,22.6167955,120.2968219
2,大昌服務中心,123或0800-080123,高雄市三民區大昌二路28號,22.641221,120.332491
50,大順服務中心,123或0800-080123,高雄市苓雅區大順三路18號,22.6304449,120.323838
18,小港機場服務中心,123或0800-080123,高雄市小港區中山四路2號,22.5712279,120.3404126
72,高雄美術館服務中心,123或0800-080123,高雄市鼓山區青海路116號,22.6515125,120.2883971
16,高雄二苓特約服務中心,07-8055488,高雄市小港區二苓路134號,22.565439,120.350431
56,高雄復興服務中心,123或0800-080123,高雄市苓雅區復興二路77號,22.6217506,120.3096081
34,甲仙服務中心,123或0800-080123,高雄市甲仙區中山路69號,23.083593,120.58733
3,建興服務中心,123或0800-080123,高雄市三民區大順二路242-1號,22.6441529,120.3264627
42,高雄中華特約服務中心,07-2851288,高雄市前金區中華三路222號,22.6335417,120.2944378
29,高雄崇德特約服務中心,07-3433868,高雄市左營區崇德路269號,22.6756425,120.3037349
37,高雄岡山特約服務中心,07-6222108,高雄市岡山區岡山路235號,22.7929982,120.2957748
81,福誠服務中心,123或0800-080123,高雄市鳳山區五甲三路8號,22.5933295,120.3280553
67,德民服務中心,123或0800-080123,高雄市楠梓區德民路154號,22.7269036,120.3104422
8,建工服務中心,123或0800-080123,高雄市三民區建工路569號,22.648391,120.320392
38,岡德服務中心,123或0800-080123,高雄市岡山區岡山路420號,22.7956921,120.2957426
49,高雄三多特約服務中心,07-3353988,高雄市苓雅區三多三路134號,22.616141,120.310446
5,高雄自由特約服務中心,07-3117388,高雄市三民區自由一路80號,22.644541,120.308876
6,十全服務中心,123或0800-080123,高雄市三民區哈爾濱街185號,22.6466649,120.2997277
22,仁武仁雄特約服務中心,07-3755790,高雄市仁武區仁雄路10之9號,22.6807341,120.3536895
9,高雄陽明特約服務中心,07-3943799,高雄市三民區陽明路77、79號,22.6395106,120.3405958
78,鳳山鳳西特約服務中心,07-7109088,高雄市鳳山區五甲一路118號,22.6205264,120.3565208
85,文山服務中心,123或0800-080123,高雄市鳳山區青年路二段358-5號,22.6418167,120.3514356
69,路竹大社特約服務中心,07-6966690,高雄市路竹區大社路25號,22.8626294,120.2615228
66,楠梓服務中心,123或0800-080123,高雄市楠梓區楠梓新路245號,22.7282046,120.3257502
26,自由服務中心,123或0800-080123,高雄市左營區自由二路261號,22.6626351,120.3083473
7,高應大服務中心,123或0800-080123,高雄市三民區建工路432、434號,22.6518836,120.3279919
44,三多服務中心,123或0800-080123,高雄市前鎮區三多三路181號,22.6149709,120.3080279
1,高雄九如特約服務中心,07-3807088,高雄市三民區九如一路888號,22.640309,120.317588
41,阿蓮服務中心,123或0800-080123,高雄市阿蓮區民生路103號,22.8832248,120.3268425
82,鳳山光遠特約服務中心,07-7429488,高雄市鳳山區光遠路28之3號,22.623392,120.367509
17,小港服務中心,123或0800-080123,高雄市小港區小港一街5號,22.5638527,120.337053
80,五甲鎮南特約服務中心,07-8126966,高雄市鳳山區五甲二路638號,22.5957194,120.3312597
51,高雄四維特約服務中心,07-5378099,高雄市苓雅區四維三路134號,22.6190106,120.308387
60,高雄新興特約服務中心,07-2350998,高雄市新興區林森一路199號,22.6323521,120.3046272
23,仁武服務中心,123或0800-080123,高雄市仁武區鳳仁路280號之8,22.7024611,120.3447218
40,林園服務中心,123或0800-080123,高雄市林園區林園北路367號,22.5106464,120.3946437
30,高雄巨蛋特約服務中心,07-5506333,高雄市左營區博愛二路682號,22.670037,120.303757
14,大寮服務中心,123或0800-080123,高雄市大寮區鳳林4路6號,22.6140066,120.3889551
43,高雄一心特約服務中心,07-3324788,高雄市前鎮區一心二路11號,22.610276,120.312371
54,武慶服務中心,123或0800-080123,高雄市苓雅區武昌路200號,22.6182132,120.3312508
83,鳳山青年特約服務中心,07-7767488,高雄市鳳山區青年路2段284號,22.6395383,120.3511371
55,高雄正言特約服務中心,07-7119488,高雄市苓雅區建國一路128號,22.6325044,120.3307421
76,鳳山中山特約服務中心,07-7106788,高雄市鳳山區中山西路22號,22.6264519,120.3548722
31,高雄高鐵特約服務中心,07-3486828,高雄市左營區華夏路1178號,22.6843734,120.3095097
19,漢民服務中心,123或0800-080123,高雄市小港區漢民路290號,22.566725,120.353828
74,西子灣服務中心,123或0800-080123,高雄市鼓山區臨海2路43號,22.622905,120.2720199
48,美濃服務中心,123或0800-080123,高雄市美濃區泰安路103號,22.902201,120.540204
64,高雄後昌特約服務中心,07-3611288,高雄市楠梓區後昌路765號,22.7101044,120.2961392
21,澄觀服務中心,123或0800-080123,高雄市仁武區八德南路351號,22.6808037,120.3403374
84,青年服務中心,123或0800-080123,高雄市鳳山區青年路一段367號,22.6271928,120.3490471
39,林園仁愛特約服務中心,07-6416788,高雄市林園區東林西路185.187號,22.503298,120.393216
33,左營服務中心,123或0800-080123,高雄市左營區實踐路45號,22.690089,120.29327
32,華夏服務中心,123或0800-080123,高雄市左營區華夏路771號,22.679441,120.3031904
57,臺中梧棲加盟服務中心,04-26582969,台中市梧棲區文化路二段137號,24.255319,120.53048999999999
11,臺中中正店,999或40507999,台中市中區台灣大道一段139號,24.139573499999997,120.6826929
58,臺中清水加盟服務中心,04-26223993,台中市清水區中山路209號,24.267944,120.574793
41,沙鹿中山加盟服務中心,04-26624322,台中市沙鹿區中山路321號,24.238604300000002,120.55985020000001
62,豐原廟東加盟服務中心,04-25251619,台中市豐原區中正路246號,24.252095,120.716815
15,太平中興加盟服務中心,04-23515158,台中市太平區太平路672號,24.1267558,120.71126470000002
27,臺中三民加盟服務中心,04-22298688,台中市北區三民路三段50-1號1樓,24.1468414,120.68299579999999
39,臺中向上加盟服務中心,04-23192345,台中市西區向上路一段374號,24.1469639,120.656199
2,大甲順天二加盟服務中心,04-26760982,台中市大甲區順天路180號1樓,24.3460046,120.62377659999999
36,臺中河南加盟服務中心,04-27082985,台中市西屯區逢福里河南路二段306號1樓,24.174622,120.64821200000002
35,西屯河南加盟服務中心,04-24524828,台中市西屯區河南路二段423號1樓,24.170528,120.643794
1,大甲民生加盟服務中心,04-26872588,台中市大甲區民生路2號,24.346733399999998,120.6273251
26,臺中三民店,999或40507999,台中市北區三民路三段194-1號,24.1529551,120.68553190000002
5,臺中大里加盟服務中心,04-24969506,台中市大里區中興路1段293號1樓,24.091558499999998,120.6914345
47,臺中東勢加盟服務中心,04-25870708,台中市東勢區豐勢路357號1樓,24.2550957,120.8290588
8,大里塗城加盟服務中心,04-24930996,台中市大里區塗城路685號,24.088762300000003,120.7009207
9,大雅中清加盟服務中心,04-25606228,台中市大雅區中清南路284號1樓,24.2457569,120.6100362
23,臺中東山店,999或40507999,台中市北屯區東山路一段219-10號,24.1738366,120.7143252
50,臺中南屯加盟服務中心,04-22550090,台中市南屯區黎明路2段291號1樓,24.14888,120.63541000000001
51,臺中黎明加盟服務中心,04-23812577,台中市南屯區黎明路一段1131號1樓,24.140426,120.63824170000001
3,臺中大肚加盟服務中心,04-26999927,台中市大肚區大東里沙田路2段552號,24.1491051,120.5459832
33,西屯漢口加盟服務中心,04-23119599,台中市西屯區西屯路二段35之3號,24.1641258,120.66041270000001
42,沙鹿靜宜加盟服務中心,04-26322808,台中市沙鹿區北勢東路533號,24.2264264,120.5752935
22,臺中昌平加盟服務中心,04-22433456,台中市北屯區昌平路一段384號,24.175131,120.690625
34,臺中逢甲加盟服務中心,04-27066659,台中市西屯區西平里逢甲路171號1樓,24.1776538,120.64226969999999
13,臺中太平加盟服務中心,04-23958098,台中市太平區中山路4段104號1樓,24.148712300000003,120.7076118
45,臺中旱溪西加盟服務中心,04-22116805,台中市東區東門里旱溪西路一段223號,24.132862300000003,120.6987132
32,臺中大墩加盟服務中心,04-23265227,台中市西屯區大墩路915號1樓,24.1570313,120.6504983
10,大雅民生加盟服務中心,04-25662277,台中市大雅區民生路一段237號,24.228023,120.651587
7,大里益民加盟服務中心,04-24834191,台中市大里區益民路二段228號一樓,24.1095799,120.68405700000001
44,臺中沙鹿店,999或40507999,台中市沙鹿區鎮南路二段605號,24.2342635,120.5597848
29,臺中漢口店,999或40507999,台中市北區漢口路四段34號,24.16672,120.6744
59,潭子勝利加盟服務中心,04-25326565,台中市潭子區勝利路283號,24.2132,120.70047859999998
48,臺中新大墩店,999或40507999,台中市南屯區大墩路284號,24.1436249,120.650136
12,太平中山加盟服務中心,04-22752435,台中市太平區中山路3段198號1樓,24.148787,120.71688799999998
60,臺中東海加盟服務中心,04-26338411,台中市龍井區新東里台灣大道五段3巷9號1樓,24.1824198,120.5929494
20,臺中文心加盟服務中心,04-35005718,台中市北屯區文心路四段613號,24.172628,120.685645
66,霧峰中正加盟服務中心,04-23392570,台中市霧峰區中正路888號,24.063817,120.69871200000001
37,西屯中科加盟服務中心,04-24635808,台中市西屯區福雅里西屯路三段153號1樓,24.186369,120.62164299999999
25,臺中松竹加盟服務中心,04-22424818,台中市北屯區松強里松竹路二段398號1樓,24.182273000000002,120.68867
56,神岡社口加盟服務中心,04-25611511,台中市神岡區中山路554號,24.246693399999998,120.6841027
4,臺中大里店,999或40507999,台中市大里區大明路198號,24.115373,120.6845756
21,臺中北屯加盟服務中心,04-22308777,台中市北屯區北屯路182-1號,24.1655421,120.69501979999998
14,南太平中興加盟服務中心,04-22751999,台中市太平區中興路111-9號,24.1269149,120.715474
61,臺中東海二加盟服務中心,04-26529977,台中市龍井區新興路29-7號,24.1805701,120.589146
16,太平東平加盟服務中心,04-23511569,台中市太平區東平路610號,24.1338532,120.721074
28,臺中大雅加盟服務中心,04-22081008,台中市北區大雅路253-1號,24.163305899999997,120.67425459999998
65,臺中豐原店,999或40507999,台中市豐原區豐東路116-1號,24.247495999999998,120.72995300000001
6,大里中興加盟服務中心,04-24864777,台中市大里區中興路2段379-1號1樓,24.1116049,120.68982709999999
49,臺中嶺東加盟服務中心,04-23800585,台中市南屯區永春南路39號,24.138247,120.61210679999999
43,沙鹿成功加盟服務中心,04-26651133,台中市沙鹿區成功東街97號1樓,24.242017,120.564219
31,臺中后里加盟服務中心,04-25590008,台中市后里區三豐路三段961號1樓,24.3080842,120.7220078
52,臺中臺中加盟服務中心,04-22857766,台中市南區台中路168號,24.130871799999998,120.68453590000001
17,平東平加盟服務中心,04-23511569,台中市太平區東平路610號,24.1338532,120.721074
46,臺中德安加盟服務中心,04-22290520,台中市東區復興路四段150號,24.135781,120.68676
54,臺中復興店,999或40507999,台中市南區復興路一段 452號,24.116768399999998,120.65757169999999
18,太平樹孝加盟服務中心,04-23913655,台中市太平區新城里樹孝路38號1樓,24.1510245,120.7167551
19,臺中水湳加盟服務中心,04-22954256,台中市北屯區中清路二段331號,24.1790108,120.66787020000001
30,臺中學士加盟服務中心,04-22367008,台中市北區學士路202號1樓,24.160087,120.68113600000001
55,臺中大慶加盟服務中心,04-22637385,台中市南區復興路一段307號1樓,24.1138259,120.65333799999999
40,臺中英才店,999或40507999,台中市西區英才路458號,24.152634,120.6660836
53,臺中南平加盟服務中心,04-22608018,台中市南區美村南路42號1樓,24.1178373,120.66701189999999
24,臺中東山加盟服務中心,04-24369108,台中市北屯區東山路一段290號1樓,24.1757413,120.71975060000001
63,豐原中正二加盟服務中心,04-25257979,台中市豐原區中正路561號,24.2501255,120.70855559999998
64,豐原圓環東加盟服務中心,04-25208800,台中市豐原區圓環東路450號,24.245886,120.725742
38,臺中五權加盟服務中心,04-22288788,台中市西區五權路36之2號1樓,24.1414535,120.66738659999999
13,臺南海佃加盟服務中心,06-3580680,台南市安南區海佃路1段274號1樓,23.026159600000003,120.19135359999999
28,新營中山加盟服務中心,06-6328875,台南市新營區中山路179號1樓,23.303371,120.315446
32,歸仁中山二加盟服務中心,06-2305566,台南市歸仁區後市里中山路二段160號1樓,22.967374,120.2899125
10,臺南鹽行店,999或40507999,台南市永康區中正南路756號1樓,23.0405267,120.2364848
11,永康中華二加盟服務中心,06-3121019,台南市永康區中華路264號1樓,23.0058734,120.23553419999999
7,永康崑山加盟服務中心,06-2071136,台南市永康區大灣路928號1樓,22.9996276,120.25522340000002
29,新營中正加盟服務中心,06-6331389,台南市新營區王公里中正路34號,23.310903399999997,120.31656459999999
12,臺南華平加盟服務中心,06-2990088,台南市安平區怡平里華平路682號一樓,22.9942448,120.1639338
15,佳里延平加盟服務中心,06-7223300,台南市佳里區延平路272號1樓,23.160151899999995,120.17857
20,臺南崇德加盟服務中心,06-2605839,台南市東區崇德路635號,22.971031,120.22775
30,新營民治加盟服務中心,06-6565567,台南市新營區民治路342號1樓,23.306005600000002,120.303246
25,新化中山加盟服務中心,06-5903414,台南市新化區中山路271號,23.035839499999998,120.30743829999999
27,新營三民加盟服務中心,06-6330331,台南市新營區三民路95號1樓,23.306831,120.3127717
4,臺南文賢店,999或40507999,台南市北區文賢路1012號,23.0135745,120.19389790000001
2,臺南西門店,999或40507999,台南市中西區西門路二段369號,22.9981855,120.20011090000001
14,佳里光復加盟服務中心,06-7222885,台南市佳里區安西里光復路341號,23.163606100000003,120.17471950000001
16,臺南大林國宅加盟服務中心,06-2143559,台南市東區大同路二段243號1樓,22.9754158,120.2144877
1,臺南體驗店,999或40507999,台南市中西區公園路52號1樓,22.994919600000003,120.2057045
18,東寧後甲加盟服務中心,06-2758588,台南市東區東寧路440號,22.9894201,120.22916699999999
6,臺南開元加盟服務中心,06-2086011,台南市北區開元路553號1樓,23.011177899999996,120.22598570000001
26,新市仁愛加盟服務中心,06-5999291,台南市新市區仁愛街244號,23.0757895,120.293617
5,臺南公園加盟服務中心,06-2525259,台南市北區延平里公園路832號1樓,23.0130333,120.2118835
31,歸仁中山加盟服務中心,06-3301065,台南市歸仁區中山路551號,22.9713115,120.25324429999999
17,臺南仁和加盟服務中心,06-2897555,台南市東區仁和路108-3號,22.9719461,120.2325648
8,永康中山南加盟服務中心,06-2011555,台南市永康區中山南路1024號1樓,23.025123,120.25521540000001
9,臺南永康店,999或40507999,台南市永康區中山南路290號,23.0147991,120.23508580000001
19,臺南長榮店,999或40507999,台南市東區長榮路一段194號1-2樓,22.984935800000002,120.218337
23,麻豆中山加盟服務中心,06-5723389,台南市麻豆區中山路130號1樓,23.1841979,120.2433156
3,臺南仁德店,999或40507999,台南市仁德區中山路373-375號,22.970861199999998,120.25766850000001
33,鹽水中正加盟服務中心,06-6527289,台南市鹽水區水仙里中正路64號,23.319718100000003,120.26749440000002
24,善化中山加盟服務中心,06-5833023,台南市善化區中山路210號,23.132644600000003,120.29956010000001
22,金華健康加盟服務中心,06-2633389,台南市南區金華路二段165號,22.981142000000002,120.19119099999999
21,臺南金華加盟服務中心,06-2612525,台南市南區金華路一段452號1樓,22.9722844,120.19081010000001
2,新竹水田加盟服務中心,03-5420668,新竹市北區水田街89號,24.815711,120.96771799999999
5,新竹南大店,999或40507999,新竹市東區南大路335號,24.7975771,120.9698669
3,新竹巨城加盟服務中心,035-325553,新竹市東區民生路140號1樓,24.8103384,120.97711310000001
1,新竹中山店,999或40507999,新竹市北區中山路102-1號,24.8045411,120.965216
4,新竹林森加盟服務中心,03-5222528,新竹市東區林森路54號,24.801437600000003,120.96784790000001
2,竹北中正東加盟服務中心,03-5542627,新竹縣竹北市中正東路192號,24.835273,121.01500800000001
5,新竹新豐加盟服務中心,03-5590919,新竹縣新豐鄉新興路53號,24.8659239,120.992295
3,竹東長春加盟服務中心,03-5950859,新竹縣竹東鎮長春路3段166號,24.7435072,121.08377879999999
1,新竹竹北店,999或40507999,新竹縣竹北市三民路286號,24.8341698,121.0102841
4,湖口中正加盟服務中心,03-5903088,新竹縣湖口鄉中正路一段61號1樓,24.902231,121.045601
13,中壢新生加盟服務中心,03-4263588,桃園市中壢區新生路217號,24.962179000000003,121.222574
28,龜山文化加盟服務中心,03-3187373,桃園市龜山區文化二路129號,25.053959,121.37045900000001
10,中壢中原店,999或40507999,桃園市中壢區中北路13號,24.955987399999998,121.2358813
11,內壢忠孝加盟服務中心,03-4351555,桃園市中壢區忠孝路37號,24.9734,121.25636979999999
7,大溪慈湖加盟服務中心,03-3881088,桃園市大溪區慈湖路95號,24.8819292,121.2890289
29,蘆竹大竹加盟服務中心,03-3232139,桃園市蘆竹區大竹路426-2號1樓,25.020619,121.2648612
12,中壢健行加盟服務中心,03-4685655,桃園市中壢區健行路133號,24.9495243,121.22741270000002
15,中壢龍慈加盟服務中心,03-4667388,桃園市中壢區龍慈路1號,24.943838,121.24848
20,桃園中平加盟服務中心,03-2202999,桃園市桃園區中平路29號,24.989729,121.292273
30,蘆竹南崁加盟服務中心,03-2120567,桃園市蘆竹區南崁路102號,25.045959600000003,121.2956774
25,龍潭中正店,999或40507999,桃園市龍潭區中正路258號,24.862611899999997,121.217242
27,龜山中興加盟服務中心,03-3506655,桃園市龜山區中興路443號,24.9935206,121.33687340000002
4,大園中山北加盟服務中心,03-3841588,桃園市大園區中山北路13號,25.064383,121.19684199999999
2,八德桃鶯加盟服務中心,03-3641155,桃園市八德區桃鶯路68號,24.9707015,121.3272855
14,中壢龍東加盟服務中心,03-4666665,桃園市中壢區龍東路315號,24.931926899999997,121.25467900000001
16,內壢環中東加盟服務中心,03-4357272,桃園市中壢區環中東路250-2號,24.9623365,121.2551456
1,八德介壽加盟服務中心,03-3711611,桃園市八德區介壽路一段961號,24.959090600000003,121.2995507
18,桃園夜市店,999或40507999,桃園市桃園區中正路492號,25.0022573,121.30645690000001
6,桃園機場二航店,999或40507999,桃園市大園區航站南路9號2樓,25.0772482,121.23223119999999
26,龍潭北龍加盟服務中心,03-4894886,桃園市龍潭區北龍路205號,24.867165399999998,121.21576850000001
5,桃園機場一航店,999或40507999,桃園市大園區航站南路15號2樓,25.077863699999998,121.2359584
17,平鎮中豐加盟服務中心,03-4192677,桃園市平鎮區中豐路山頂段176號,24.8999199,121.2108216
8,中壢中山東加盟服務中心,03-4378098,桃園市中壢區中山東路二段125號一樓,24.9532882,121.2392383
9,中壢中山店,999或40507999,桃園市中壢區中山路104號,24.9558329,121.225977
19,桃園中山店,999或40507999,桃園市桃園區中山路78號,24.994644,121.31065
23,楊梅大成加盟服務中心,03-4855755,桃園市楊梅區大成路164號,24.911824,121.145844
3,八德廣福店,999或40507999,桃園市八德區廣福路187號,24.959494,121.29456100000002
24,楊梅中興加盟服務中心,03-4820333,桃園市楊梅區中興路64號,24.9179217,121.1844656
22,桃園永安加盟服務中心,03-3470022,桃園市桃園區永安路335號1樓,24.99961,121.300372
21,桃園中正店,999或40507999,桃園市桃園區中正路1248號,25.019185800000002,121.29729990000001
13,臺北襄陽店,999或40507999,台北市中正區襄陽路29號,25.0435569,121.51383100000001
10,中山林森北加盟服務中心,02-25675596,台北市中山區林森北路398-3號,25.0591206,121.52538440000001
11,臺北南京店,999或40507999,台北市中山區南京東路二段34號,25.0518652,121.5292534
7,臺北信義店,999或40507999,台北市大安區信義路三段190-3號,25.0331842,121.5429133
12,臺北三創店,999或40507999,台北市中正區市民大道三段2號1樓R107,25.0454897,121.5311294
15,內湖康寧加盟服務中心,02-26313308,台北市內湖區康寧路3段171-1號,25.0701281,121.61182079999999
20,松山東興加盟服務中心,02-27470505,台北市松山區東興路28號,25.048493,121.565487
25,萬華莒光加盟服務中心,02-23065655,台北市萬華區莒光路113號,25.030985,121.50388909999998
4,臺北雙連店,999或40507999,台北市大同區民生西路122號,25.0573528,121.51928980000001
2,臺北士林店,999或40507999,台北市士林區中正路385號,25.09411,121.52158200000001
14,內湖成功店,999或40507999,台北市內湖區成功路三段91號,25.078615799999998,121.5899896
16,文山木新加盟服務中心,02-29363659,台北市文山區木新路三段171號,24.9815547,121.56065770000001
1,天母中山北店,999或40507999,台北市士林區中山北路六段222號,25.108551000000002,121.52543200000001
18,北投光明加盟服務中心,02-28932556,台北市北投區光明路174-1號,25.1354573,121.5030469
6,臺北延平店,999或40507999,台北市大同區延平北路三段96號,25.066347,121.51068799999999
26,萬華萬大店,999或40507999,台北市萬華區萬大路240號,25.026580199999998,121.50031340000001
5,大同民權西加盟服務中心,02-25855880,台北市大同區民權西路85號,25.063062600000002,121.51907630000001
17,文山興隆加盟服務中心,02-22301331,台北市文山區興隆路3段145號,24.9982549,121.55893490000001
8,臺北通化店,999或40507999,台北市大安區通化街45號,25.0307187,121.55435940000001
9,臺北公館店,999或40507999,台北市大安區羅斯福路三段279-2號,25.0181146,121.53125159999998
19,石牌裕民加盟服務中心,02-28285700,台北市北投區裕民二路43號,25.114984200000002,121.51688030000001
23,臺北莊敬店,999或40507999,台北市信義區莊敬路476號1樓,25.026564899999997,121.56816299999998
3,士林文林店,999或40507999,台北市士林區文林路178號,25.089560100000003,121.52702450000001
24,萬華中華加盟服務中心,02-23617929,台北市萬華區中華路1段158號1樓,25.045945,121.50894299999999
22,信義虎林加盟服務中心,02-55690341,台北市信義區信義路六段94號,25.035604,121.577472
21,臺北忠孝店,999或40507999,台北市信義區忠孝東路五段776號,25.0433388,121.5815838
11,中和環球店,999或40507999,新北市中和區中山路三段115號,25.0059157,121.47461820000001
41,新莊新泰特約服務中心,02-29945590,新北市新莊區新泰路214號1樓,25.0388894,121.44690890000001
15,永和福和特約服務中心,0982-347143,新北市永和區福和路189號1樓,25.007547,121.5197601
27,金山中山加盟服務中心,02-24989361,新北市金山區中山路132號,25.220343,121.63900530000001
39,新莊幸福加盟服務中心,02-22779461,新北市新莊區幸福路35號,25.0492829,121.45863759999999
2,三重忠孝加盟服務中心,02-29847463,新北市三重區忠孝路2段154號,25.0680905,121.48245630000001
36,新莊中正店,999或40507999,新北市新莊區中正路257號,25.0045087,121.42209869999999
35,新店安康加盟服務中心,02-86663699,新北市新店區安康路二段156號,24.9610282,121.51211289999999
1,三重五華加盟服務中心,02-29803998,新北市三重區仁愛街397巷118號,25.082160199999997,121.49295749999999
26,林口竹林加盟服務中心,02-26016364,新北市林口區西林里竹林路1號1樓,25.076547899999998,121.3860817
5,三峽復興加盟服務中心,02-86743354,新北市三峽區復興路40號,24.936976,121.37381
8,土城裕生加盟服務中心,02-22700168,新北市土城區裕生路5號,24.9876466,121.4486399
9,土城學府店,999或40507999,新北市土城區學府路一段54號,24.9885424,121.4573862
23,板橋忠孝加盟服務中心,02-29562677,新北市板橋區忠孝路164號,25.002433,121.46423100000001
3,三重重新店,999或40507999,新北市三重區重新路二段68號,25.061892,121.49772800000001
33,新店北新二加盟服務中心,02-29158789,新北市新店區北新路2段88號,24.9729558,121.54308940000001
42,瑞芳明燈加盟服務中心,02-24969776,新北市瑞芳區明燈路3段68號,25.1081052,121.806574
22,板橋民族加盟服務中心,02-29595000,新北市板橋區民族路147號1樓,25.0078529,121.46786999999999
34,新店北新加盟服務中心,02-55915735,新北市新店區北新路3段74號,24.980533800000003,121.5420861
13,五股成泰加盟服務中心,02-82959009,新北市五股區成泰路2段128號1樓,25.083497,121.438143
45,蘆洲長安特約服務中心,02-55786920,新北市蘆洲區長安街237號,25.082967,121.4592578
32,新店中正加盟服務中心,02-89118661,新北市新店區中正路381號,24.976812399999996,121.5345883
10,中和中山加盟服務中心,02-22466799,新北市中和區中山路二段197號1樓,25.002600100000002,121.4999111
7,土城金城三加盟服務中心,02-22737202,新北市土城區金城路三段161號1樓,24.9885925,121.4688955
44,蘆洲三民店,999或40507999,新北市蘆洲區三民路224號,25.0894201,121.4687325
29,淡水中山北加盟服務中心,02-26264000,新北市淡水區中山北路2段1-1號,25.183228699999997,121.44432309999999
12,中和南勢角加盟服務中心,02-29428399,新北市中和區安樂路46號1樓,24.9970858,121.5147419
20,板橋文化店,999或40507999,新北市板橋區文化路一段289號,25.018894399999997,121.4648005
37,新莊中華二加盟服務中心,02-22796366,新北市新莊區中華路二段93號,25.049514399999996,121.45255490000001
25,板橋雙十店,999或40507999,新北市板橋區雙十路二段51號,25.026352300000003,121.4764294
4,三重龍門特約服務中心,-,新北市三重區龍門路26-1號,25.0721025,121.4954166
21,板橋四川特約服務中心,02-55786158,新北市板橋區四川路一段223號,25.003583,121.460073
14,永和永和店,999或40507999,新北市永和區永和路二段208號,25.013912,121.5156966
16,汐止大同加盟服務中心,02-26471999,新北市汐止區大同路2段426.428.430號,25.067100399999998,121.65905079999999
28,泰山明志加盟服務中心,02-22968868,新北市泰山區明志路二段31號1樓,25.053165399999997,121.4298015
6,土城中央二加盟服務中心,02-82629211,新北市土城區中央路2段120號,24.9779189,121.44187099999999
43,樹林中山加盟服務中心,02-26851585,新北市樹林區中山路1段180號1樓,24.9879868,121.4215096
31,淡水英專店,999或40507999,新北市淡水區英專路67號,25.1712478,121.445664
17,汐止中興加盟服務中心,02-26931590,新北市汐止區中興路208號1樓,25.0662416,121.6312594
46,鶯歌建國加盟服務中心,02-26781266,新北市鶯歌區建國路201號,24.9534615,121.34930049999998
18,汐止新臺五加盟服務中心,02-26902222,新北市汐止區新台五路2段1-1號,25.0660826,121.66202040000002
19,板橋新中正加盟服務中心,02-29600016,新北市板橋區中正路150號,25.016587,121.456797
30,淡水民權加盟服務中心,02-28087500,新北市淡水區民權路79號,25.138602399999996,121.45995359999999
40,新莊新富國加盟服務中心,02-22060255,新北市新莊區富國路176巷3號,25.0242167,121.42421809999999
24,樹林站前店,999或40507999,新北市板橋區溪北路41號,24.990232000000002,121.427498
38,新莊新民安西加盟服務中心,02-22048023,新北市新莊區光正里民安西路165號1樓,25.016230800000002,121.42622
11,大寮鳳林二加盟服務中心,07-7828229,高雄市大寮區鳳林3路653號,22.6097339,120.3936787
41,高雄華榮加盟服務中心,07-5502050,高雄市鼓山區華榮路305號1樓,22.6665465,120.29645690000001
15,仁武中正加盟服務中心,07-3741795,高雄市仁武區仁武里中正路50號,22.7011177,120.34676200000001
27,高雄一心加盟服務中心,07-3325555,高雄市前鎮區一心二路50號,22.611089,120.311474
39,楠梓藍昌加盟服務中心,07-3606911,高雄市楠梓區藍昌路351號1樓,22.723251,120.290958
2,高雄九如一加盟服務中心,07-3983450,高雄市三民區九如一路960號1樓,22.640518,120.316014
36,楠梓後昌加盟服務中心,07-3646789,高雄市楠梓區後昌路753-1號,22.7098317,120.2964253
35,楠梓建楠加盟服務中心,07-3538789,高雄市楠梓區建楠路22號,22.727233,120.329131
1,高雄九如加盟服務中心,07-3131000,高雄市三民區九如2路583號,22.641515,120.29636299999999
26,高雄林園加盟服務中心,07-6438789,高雄市林園區林園北路192號1樓,22.507748199999998,120.394966
5,三民天祥加盟服務中心,07-3596659,高雄市三民區天祥一路207號,22.667804999999998,120.31780400000001
47,鳳山五甲三加盟服務中心,07-7688233,高雄市鳳山區五甲三路13號1樓,22.592772,120.3278136
8,高雄鼎山加盟服務中心,07-3598388,高雄市三民區鼎山街209號1樓,22.660609,120.322253
9,高雄覺民加盟服務中心,07-3838669,高雄市三民區覺民路224號,22.639685999999998,120.33949390000001
23,岡山岡山加盟服務中心,07-6231789,高雄市岡山區岡山路300號,22.793363199999998,120.2960209
50,鳳山建國加盟服務中心,07-7677500,高雄市鳳山區建國路二段268號,22.6365428,120.3573077
51,鳳山瑞隆東加盟服務中心,07-7658310,高雄市鳳山區瑞隆東路178號,22.606483100000002,120.34182
3,三民大昌加盟服務中心,07-3814039,高雄市三民區大昌二路121-9號1樓,22.643125899999998,120.33193870000001
33,高雄建國店,999或40507999,高雄市苓雅區建國一路171號,22.6327414,120.3266755
42,高雄裕誠店,999或40507999,高雄市鼓山區裕誠路1037號,22.665661800000002,120.30144229999999
22,高雄岡山店,999或40507999,高雄市岡山區仁壽路94號,22.7913855,120.2887587
34,高雄林森加盟服務中心,07-2363333,高雄市新興區林森一路227號2樓,22.633739399999996,120.30474790000001
13,小港漢民加盟服務中心,07-8055959,高雄市小港區漢民路347號1樓,22.567022,120.355493
45,高雄鳳山店,999或40507999,高雄市鳳山區中山路62-1號,22.621832,120.3598729
32,高雄青年加盟服務中心,07-3348686,高雄市苓雅區青年一路137號1樓,22.622356,120.309569
10,大社中山加盟服務中心,07-3551711,高雄市大社區中山路377號1樓,22.7315691,120.3516794
7,三民建工加盟服務中心,07-3987227,高雄市三民區建工路567號,22.648441000000002,120.32084499999999
44,鳳山中山東加盟服務中心,07-7991198,高雄市鳳山區中山東路86之8號1樓,22.624302800000002,120.3714496
29,高雄草衙加盟服務中心,07-8151135,高雄市前鎮區草衙二路503號,22.581032999999998,120.322823
48,光遠經武加盟服務中心,07-7455252,高雄市鳳山區光遠路266號,22.6256642,120.36180859999999
12,小港二苓加盟服務中心,07-8033099,高雄市小港區漢民路230號,22.565799,120.351975
20,高雄富國店,999或40507999,高雄市左營區富國路101號,22.6600116,120.3064268
37,楠梓新路加盟服務中心,07-3558800,高雄市楠梓區楠梓新路214號,22.7274,120.32567
25,林園東林西加盟服務中心,07-6439933,高雄市林園區東林西路179號,22.503124399999997,120.3912962
4,高雄大昌店,999或40507999,高雄市三民區大昌二路476號,22.650842800000003,120.3312465
21,高雄華夏加盟服務中心,07-3431335,高雄市左營區華夏路981號,22.6814477,120.30518880000001
14,小港漢民二加盟服務中心,07-8070708,高雄市小港區漢民路720號,22.567753,120.36250600000001
16,高雄仁武店,999或40507999,高雄市仁武區仁雄路115號,22.676482999999998,120.3406
28,高雄三多店,999或40507999,高雄市前鎮區三多三路175號,22.615023899999997,120.308186
6,十全自由加盟服務中心,07-3232233,高雄市三民區自由一路121號,22.644205,120.308493
49,鳳山青年加盟服務中心,07-7777968,高雄市鳳山區青年路二段510號,22.6451962,120.35020690000002
43,旗山延平加盟服務中心,07-6611288,高雄市旗山區延平一路525號,22.8875298,120.4832262
31,美濃中正加盟服務中心,07-6816888,高雄市美濃區中正路一段37號1樓,22.901141,120.54161
52,鹽埕五福加盟服務中心,07-5310863,高雄市鹽埕區五福四路108-1號,22.622512,120.286189
17,仁武仁雄加盟服務中心,07-3752553,高雄市仁武區仁雄路6之1號,22.681182999999997,120.354132
46,鳳山五甲加盟服務中心,07-7221879,高雄市鳳山區五甲二路211號1樓,22.600443,120.339357
18,高雄大順加盟服務中心,07-5571233,高雄市左營區大順一路200號,22.656906,120.308636
19,左營大路加盟服務中心,07-5811698,高雄市左營區左營大路222號1樓,22.6851314,120.28981440000001
30,高雄瑞隆店,999或40507999,高雄市前鎮區瑞和街290號1樓,22.605235999999998,120.3257087
40,路竹中山加盟服務中心,07-6071188,高雄市路竹區中山路844號,22.8538603,120.261154
24,岡山壽天加盟服務中心,07-6216006,高雄市岡山區壽天路105號1樓,22.794808,120.29167199999999
38,楠梓德賢加盟服務中心,07-3636996,高雄市楠梓區德賢路546號,22.726173499999998,120.30144469999999
13,台中文心直營服務中心,188或02-66062999,台中市北屯區文心路四段151號1、2樓,24.173769600000004,120.676047
112,神岡昌平,(04)2561-0565,台中市神岡區昌平路五段482號1樓,24.2462635,120.68504270000001
100,沙鹿靜宜,(04)2652-3888,台中市沙鹿區北勢東路528號1樓,24.2266607,120.57546029999999
78,大雅民生Ⅱ,(04)2566-0822,台中市大雅區民生路2段2號,24.229342199999998,120.65449679999999
76,大雅中清,(04)2567-8812,台中市大雅區中清路4段26號,24.2261941,120.6451821
107,南屯黎明II,(04)2255-5288,台中市南屯區黎明路2段311號1樓、313號1樓,24.149424,120.635429
69,大肚沙田,(04)2699-6397,台中市大肚區沙田路2段772號1樓,24.1539436,120.54459479999998
109,南區復興Ⅲ,(04)2261-5881,台中市南區復興路1段439號1樓,24.1168866,120.65709790000001
118,龍井遊園南,(04)2652-8699,台中市龍井區遊園南路215、217號,24.181311800000003,120.5839956
30,台中永福直營服務中心,188或02-66062999,台中市西屯區永福路179、181號1樓,24.186203,120.621522
39,台中美村直營服務中心,188或02-66062999,台中市西區美村路1段43號1樓,24.154164,120.66196699999999
120,豐原成功,(04)2528-5886,台中市豐原區中正路663號1樓,24.2498027,120.70632759999998
33,台中青海直營服務中心,188或02-66062999,台中市西屯區青海路1段106號1樓,24.1703635,120.64567530000001
87,北屯東山,(04)2437-5281,台中市北屯區東山路1段156之3號1樓,24.1709445,120.69933119999999
62,台中東海二直營服務中心,188或02-66062999,台中市龍井區新興路9號1樓,24.1811461,120.5912861
20,五權大雅直營服務中心,188或02-66062999,台中市北區中清路一段88號1樓,24.1530284,120.67746470000002
68,大甲蔣公,(04)2688-7667,台中市大甲區蔣公路134號,24.3461607,120.6226741
67,大甲文武,(04)2688-9098,台中市大甲區文武路26號1樓,24.345907699999998,120.6256872
91,北區進化北,(04)2233-7399,台中市北區進化北路303號1樓,24.1629225,120.68211559999999
71,大里中興,(04)2493-5052,台中市大里區中興路1段217號1樓,24.079903899999998,120.698198
31,台中西屯直營服務中心,188或02-66062999,台中市西屯區西屯路2段28之1號,24.1641037,120.6612538
74,大里內新,(04)2486-1212,台中市大里區中興路2段534號,24.113200699999997,120.6900122
21,台中一中直營服務中心,188或02-66062999,台中市北區太平路89之1號,24.147965,120.68366100000001
98,西區美村Ⅱ,(04)2301-7877,台中市西區美村路1段261號1樓,24.1483037,120.6618778
106,南屯東興II,(04)2471-1733,台中市南屯區東興路2段29號1樓,24.136972,120.65276200000001
73,大里中興V,(04)2485-3885,台中市大里區中興路2段350之1號1樓,24.105164300000002,120.68933729999999
16,東山軍功直營服務中心,188或02-66062999,台中市北屯區東山路1段250之2號,24.1709445,120.69933119999999
44,台中十甲直營服務中心,188或02-66062999,台中市東區十甲路417、419號,24.144553600000002,120.7082487
86,北屯昌平,(04)2243-0700,台中市北屯區昌平路1段105之7號1樓,24.1734242,120.69048459999999
9,太平中興直營服務中心,188或02-66062999,台中市太平區中興路108號,24.1271979,120.7153213
95,西屯中科,(04)2460-8333,台中市西屯區西屯路3段166之77號1樓,24.1902391,120.61339369999999
36,逢甲福星直營服務中心,188或02-66062999,台中市西屯區福星路338號,24.1799506,120.64494099999999
12,文心興安直營服務中心,188或02-66062999,台中市北屯區文心路4段936號1樓,24.170767899999998,120.69447
46,東勢豐勢二直營服務中心,188或02-66062999,台中市東勢區豐勢路324號1樓,24.253173800000003,120.8298538
19,台中三民直營服務中心,188或02-66062999,台中市北區三民路3段142號1~2樓,24.1512068,120.6848447
35,漢口河南直營服務中心,188或02-66062999,台中市西屯區漢口路2段223-1及223-2號,24.166755,120.66431399999999
56,興大學府直營服務中心,188或02-66062999,台中市南區學府路69.71號,24.1273807,120.67493929999999
66,豐原南陽直營服務中心,188或02-66062999,台中市豐原區南陽路370號1樓,24.246558899999997,120.725323
99,沙鹿中山,(04)2665-5830,台中市沙鹿區中山路399號,24.2406574,120.5603607
25,台中漢口直營服務中心,188或02-66062999,台中市北區漢口路3段192號,24.166808399999997,120.67253020000001
45,台中新時代直營服務中心,188或02-66062999,台中市東區復興路4段201號1樓,24.136464899999996,120.68710300000001
14,台中北屯直營服務中心,188或02-66062999,台中市北屯區北屯路178之7號,24.1653018,120.694631
94,西屯大墩,(04)2328-5589,台中市西屯區大墩路875號1樓,24.156197,120.649726
124,霧峰中正Ⅱ,(04)2330-7780,台中市霧峰區中正路860號,24.0631407,120.698848
121,豐原向陽,(04)2522-3223,台中市豐原區向陽路275之2號,24.251152800000003,120.72839180000001
51,台中黎明直營服務中心,188或02-66062999,台中市南屯區黎明路2段436號,24.15202,120.63533999999999
28,台中中工三直營服務中心,188或02-66062999,台中市西屯區中工三路46號1樓,24.179960100000002,120.61912779999999
2,台中大里直營服務中心,188或02-66062999,台中市大里區中興路2段353號1樓,24.111028899999997,120.68972099999999
8,太平中山三直營服務中心,188或02-66062999,台中市太平區中山路4段228及230號,24.1481693,120.70171299999998
40,美村南屯直營服務中心,188或02-66062999,台中市西區美村路1段767號,24.1333533,120.6618213
27,后里甲后直營服務中心,188或02-66062999,台中市后里區甲后路265號,24.308913,120.7259936
92,外埔甲后,(04)2683-9955,台中市外埔區甲后路369號1樓,24.3440656,120.63487649999999
34,台中逢甲直營服務中心,188或02-66062999,台中市西屯區逢甲路8號1樓,24.179015,120.646221
114,清水中山,(04)2622-1585,台中市清水區中山路203號,24.267839000000002,120.574748
110,烏日中山,(04)2336-8966,台中市烏日區中山路1段449號1樓,24.1073701,120.63732390000001
84,北屯中清,(04)2298-1898,台中市北屯區中清路二段258號1樓,24.1779859,120.6690932
3,大里中興二直營服務中心,188或02-66062999,台中市大里區中興路二段196、198號,24.1024384,120.6885804
104,南屯嶺東,(04)2389-6169,台中市南屯區永春南路91號,24.138362,120.6107381
4,大里益民直營服務中心,188或02-66062999,台中市大里區益民路2段270號,24.110920999999998,120.684063
6,大雅民生直營服務中心,188或02-66062999,台中市大雅區民興街147號1樓,24.2268647,120.6496861
123,霧峰中正,(04)2333-7779,台中市霧峰區中正路1093號1樓,24.0686495,120.69908329999998
47,台中大墩二直營服務中心,188或02-66062999,台中市南屯區大墩路285號1樓,24.143686300000002,120.6497744
81,太平中山II,(04)2215-3296,台中市太平區中山路4段85號1樓,24.1496305,120.7108933
89,北屯崇德,(04)2422-0077,台中市北屯區崇德路3段606號1樓,24.1933747,120.6867125
52,台中忠孝直營服務中心,188或02-66062999,台中市南區台中路178及180號1樓,24.1305121,120.68474009999998
97,西區美村III,(04)2375-7123,台中市西區五權五街80號1樓,24.1367217,120.6619611
63,豐原中山直營服務中心,188或02-66062999,台中市豐原區中山路143之4號1樓,24.2397563,120.7113832
5,大里塗城直營服務中心,188或02-66062999,台中市大里區塗城路486號1樓,24.088447,120.70243789999999
90,北區大雅Ⅱ,(04)2208-3792,台中市北區中清路1段432號1樓,24.1515603,120.6771338
116,潭子中山,(04)2535-1416,台中市潭子區中山路2段434號1樓,24.2159115,120.7054659
23,民權英才直營服務中心,188或02-66062999,台中市北區民權路410號1樓,24.156255899999998,120.670794
1,大甲光明直營服務中心,188或02-66062999,台中市大甲區光明路52號,24.344019699999997,120.6243622
55,台中復興直營服務中心,188或02-66062999,台中市南區復興路3段314號1樓,24.132284,120.678348
77,大雅學府,(04)2567-7800,台中市大雅區民生路1段95號1樓,24.2463146,120.68255570000001
42,沙鹿中山二直營服務中心,188或02-66062999,台中市沙鹿區中山路465、467號,24.244104,120.56153799999998
103,東勢豐勢,(04)2588-0099,台中市東勢區豐勢路474號,24.2568099,120.82866399999999
58,清水中華直營服務中心,188或02-66062999,台中市清水區海濱路168之1號,24.272289,120.5669489
43,台中沙鹿直營服務中心,188或02-66062999,台中市沙鹿區沙田路124號,24.2357277,120.55931899999999
41,台中精誠直營服務中心,188或02-66062999,台中市西區精誠路43之8號,24.1531401,120.6552192
18,台中崇德直營服務中心,188或02-66062999,台中市北屯區崇德路2段3號,24.1687174,120.68501029999999
70,大里大明,(04)2487-0118,台中市大里區大明路233號1樓,24.115034299999998,120.68231570000002
17,崇德文心直營服務中心,188或02-66062999,台中市北屯區崇德路2段178號,24.1731442,120.6856996
24,西屯忠明直營服務中心,188或02-66062999,台中市北區西屯路一段403、405號,24.161820000000002,120.66422079999998
93,后里三豐,(04)2558-3719,台中市后里區三豐路295號1樓,24.3084487,120.7220906
15,台中昌平直營服務中心,188或02-66062999,台中市北屯區昌平路1段446號,24.167911,120.69334509999999
105,南屯東興,(04)3601-9088,台中市南屯區東興路2段184號1樓,24.141191,120.65324299999999
65,豐原中正直營服務中心,188或02-66062999,台中市豐原區中正路448號,24.250891,120.710284
119,豐原廟東,(04)2525-1010,台中市豐原區中正路258號,24.252047,120.716326
75,大里成功,(04)2496-6677,台中市大里區成功二路1號1樓,24.092185100000002,120.70339990000001
111,烏日光日,(04)2336-7388,台中市烏日區中山路2段209號1樓,24.106137,120.62518
88,北屯松竹,(04)2242-8228,台中市北屯區松竹路2段182號1樓,24.183421600000003,120.69536540000001
64,豐原站前直營服務中心,188或02-66062999,台中市豐原區中正路2之1號,24.2539596,120.7222347
72,大里中興Ⅲ,(04)2493-8855,台中市大里區中興路1段297號1樓,24.115482999999998,120.689834
38,台中向上直營服務中心,188或02-66062999,台中市西區向上路1段376號,24.146818300000003,120.6562379
53,台中美村南直營服務中心,188或02-66062999,台中市南區美村南路62號1樓,24.1175508,120.666969
37,五權民權直營服務中心,188或02-66062999,台中市西區五權路40、42號,24.14548,120.671623
61,潭子潭興直營服務中心,188或02-66062999,台中市潭子區潭興路3段15號1樓,24.211513800000002,120.70438229999999
60,潭子勝利直營服務中心,188或02-66062999,台中市潭子區勝利路251號,24.212586399999996,120.7003165
22,台中北平直營服務中心,188或02-66062999,台中市北區北平路2段182號1樓,24.1712502,120.67800120000001
80,太平中山,(04)2393-2369,台中市太平區中山路3段156號1樓,24.148981,120.717933
82,太平太平Ⅱ,(04)2276-2636,台中市太平區太平路356號1樓,24.124113,120.71720590000001
48,文心向上直營服務中心,188或02-66062999,台中市南屯區向上路1段716號1樓,24.146945300000002,120.64704990000001
29,台中中港直營服務中心,188或02-66062999,台中市西屯區台灣大道2段687號,24.1587951,120.65603090000002
50,台中黎明二直營服務中心,188或02-66062999,台中市南屯區黎明路1段1081號1樓,24.1391349,120.637627
108,南區美村南,(04)2260-3305,台中市南區美村南路140號1樓,24.1139473,120.66674509999999
117,龍井新興,(04)2652-7266,台中市龍井區新興路40之9號1樓,24.181149899999998,120.58786599999999
101,沙鹿光華,(04)2662-7599,台中市沙鹿區光華路343號1樓,24.242424,120.564871
96,西屯逢甲,(04)2452-0099,台中市西屯區逢甲路169號1樓,24.177764899999996,120.6424491
102,東區進化,(04)2213-2213,台中市東區進化路202之3號1樓,24.147496,120.69455400000001
59,潭子頭家厝直營服務中心,188或02-66062999,台中市潭子區中山路1段168號,24.2365444,120.7100252
7,台中自由直營服務中心,188或02-66062999,台中市中區自由路2段43號1樓,24.1394553,120.68127209999999
122,豐原博愛,(04)2520-9988,台中市豐原區博愛街2號1樓,24.2515921,120.7208102
83,太平太平,(04)2273-6011,台中市太平區太平路590號1樓,24.1258146,120.71279469999999
79,中區中正,(04)2226-2550,台中市中區台灣大道1段558號1樓,24.1367808,120.6850085
11,台中中清直營服務中心,188或02-66062999,台中市北屯區中清路二段630、632號,24.183360999999998,120.6656096
115,新社興安,(04)2582-6888,台中市新社區興安路18之49號,24.240309,120.80768799999998
32,台中河南直營服務中心,188或02-66062999,台中市西屯區河南路2段300號,24.174760100000004,120.64846159999999
26,台中學士直營服務中心,188或02-66062999,台中市北區學士路157號,24.15858,120.68086399999999
54,復興大慶直營服務中心,188或02-66062999,台中市南區復興路1段297之1號及299號1樓,24.1136658,120.65314099999999
49,台中南屯直營服務中心,188或02-66062999,台中市南屯區南屯路2段207號1樓,24.136383,120.64970500000001
57,清水中山二直營服務中心,188或02-66062999,台中市清水區中山路212號,24.2715577,120.57661850000001
10,太平樹孝直營服務中心,188或02-66062999,台中市太平區樹孝路8之3號,24.150022600000003,120.7164233
85,北屯北屯Ⅱ,(04)2236-8088,台中市北屯區北屯路48號1樓,24.1619683,120.6929442
113,梧棲民生,(04)2656-9908,台中市梧棲區民生街69號1樓,24.253808,120.529671
3,台南西門直營服務中心,188或02-66062999,台南市中西區西門路2段357號,22.9980338,120.19985729999999
64,學甲中山,(06)783-6565,台南市學甲區中山路101號1樓,23.23443,120.18105700000001
6,仁德後壁直營服務中心,188或02-66062999,台南市仁德區中正路2段250號1樓,22.949447699999997,120.25151840000001
13,永康中山南二直營服務中心,188或02-66062999,台南市永康區中山南路28之1號,23.013402,120.232502
47,白河中山,(06)684-0999,台南市白河區白河里中山路104號1樓,23.350375,120.415878
16,永康中華二直營服務中心,188或02-66062999,台南市永康區中華路138之1號,23.002937,120.235478
67,鹽水中正,(06)652-7666,台南市鹽水區中境里中正路44號1樓,23.3201362,120.2676485
20,台南安中直營服務中心,188或02-66062999,台南市安南區安中路1段719號,23.043940799999998,120.1941781
55,台南永華,(06)224-7999,台南市南區永華路1段3號1樓,22.9872378,120.19714350000001
63,新營中山,(06)633-5510,台南市新營區中山路139號1樓,23.30412,120.31658999999999
5,仁德中正直營服務中心,188或02-66062999,台南市仁德區中正路2段1171號,22.9695098,120.25217240000002
30,台南東寧直營服務中心,188或02-66062999,台南市東區東寧路260號1樓,22.9905087,120.225591
39,新市中正直營服務中心,188或02-66062999,台南市新市區中正路208號1樓,23.0754348,120.2916713
23,台南安和直營服務中心,188或02-66062999,台南市安南區安和路5段143號,23.0658801,120.2180082
33,台南裕農直營服務中心,188或02-66062999,台南市東區裕農路597之1號,22.988685999999998,120.23450109999999
60,新化中山,(06)590-3568,台南市新化區中山路285號1樓,23.0358284,120.3072153
1,台南民生直營服務中心,188或02-66062999,台南市中西區民生路2段279號1樓,22.996679699999998,120.19176470000001
53,台南東寧II,(06)275-2888,台南市東區東寧路474號1樓,22.9892788,120.229773
62,新營三民II,(06)637-5198,台南市新營區三民路91之4號1樓,23.3068513,120.3132325
29,台南東門直營服務中心,188或02-66062999,台南市東區東門路2段123號1樓,22.985862,120.22198300000001
42,台南歸仁直營服務中心,188或02-66062999,台南市歸仁區中山路2段48號,22.967093,120.2927442
54,東區勝利,(06)200-3595,台南市東區勝利路113號1樓,22.9946051,120.21779879999998
58,善化中正,(06)583-9500,台南市善化區中正路410號,23.129918,120.2941378
43,台南府前,(06)214-9922,台南市中西區府前路1段423號,22.9901704,120.198202
8,台南公園南直營服務中心,188或02-66062999,台南市北區公園南路353號,23.0027121,120.2024049
17,台南永康直營服務中心,188或02-66062999,台南市永康區中華路663號,23.0157673,120.2291274
24,台南安和二直營服務中心,188或02-66062999,台南市安南區安和路一段314、316號,23.032491699999998,120.21261580000001
15,永康中正北直營服務中心,188或02-66062999,台南市永康區中正北路66號,23.041396600000002,120.24065320000001
44,六甲中山,(06)698-9188,台南市六甲區中山路55號1樓,23.23078,120.35030900000001
65,歸仁中山,(06)239-0166,台南市歸仁區中山路2段249號,22.9673035,120.28840090000001
31,台南崇德直營服務中心,188或02-66062999,台南市東區崇德路660號,22.969428399999998,120.2273904
26,台南佳里直營服務中心,188或02-66062999,台南市佳里區延平路271號,23.160905399999997,120.1782256
21,台南安中本淵直營服務中心,188或02-66062999,台南市安南區安中路3段389.391號,23.0496023,120.17458570000001
36,台南健康直營服務中心,188或02-66062999,台南市南區健康路2段268號,22.981988,120.19001899999999
38,新化中山二直營服務中心,188或02-66062999,台南市新化區中山路523號,23.0359074,120.3022429
7,台南仁德直營服務中心,188或02-66062999,台南市仁德區仁義里中山路495號,22.971150100000003,120.25489040000001
22,台南安和一直營服務中心,188或02-66062999,台南市安南區安和路1段115號,23.028492800000002,120.21424740000002
61,新市仁愛,(06)589-5008,台南市新市區仁愛街324號1樓,23.077688000000002,120.2939908
27,台南大同直營服務中心,188或02-66062999,台南市東區大同路2段55號,22.9797295,120.2128519
37,台南麻豆直營服務中心,188或02-66062999,台南市麻豆區興中路32號,23.183464899999997,120.249384
12,永康崑山一直營服務中心,188或02-66062999,台南市永康區大灣路843號1樓,22.9994719,120.25583470000001
45,台南文賢,(06)358-3667,台南市北區文賢路258號1樓,23.0046772,120.19380520000001
48,台南海佃,(06)358-7833,台南市安南區海佃路1段250號1樓,23.0255146,120.1914879
18,永康復國直營服務中心,188或02-66062999,台南市永康區復國一路333號,23.0107967,120.2462798
35,台南金華二直營服務中心,188或02-66062999,台南市南區金華路2段152號,22.979292,120.1916
50,佳里光復,(06)721-7499,台南市佳里區安西里光復路285號1樓,23.162266,120.1746415
56,台南金華,(06)263-0000,台南市南區金華路2段451號1樓,22.98795,120.191772
57,麻豆中山,(06)571-5711,台南市麻豆區新建里中山路157之2號1樓,23.183700100000003,120.24394699999999
66,關廟中山,(06)595-2393,台南市關廟區關廟里中山路2段137之2號1樓,22.960137,120.32585800000001
46,永康中山北,(06)204-0338,台南市永康區永康里中山北路9號1樓之2,23.0261991,120.25755149999999
25,台南海佃二直營服務中心,188或02-66062999,台南市安南區海佃路1段163號,23.023554100000002,120.19153370000001
59,善化中山,(06)583-8922,台南市善化區光文里中山路219之5號1樓,23.132320899999996,120.29897790000001
9,台南公園直營服務中心,188或02-66062999,台南市北區公園路591之44號,23.0129952,120.21153989999999
14,永康二王直營服務中心,188或02-66062999,台南市永康區中山南路808及810號,23.0209,120.24693700000002
52,台南仁和,(06)267-7889,台南市東區仁和路108-1、108-2號,22.9720751,120.23249550000001
51,台南大同II,(06)215-9115,台南市東區大福里大同路2段245號1樓,22.9753805,120.21424850000001
11,永康大灣直營服務中心,188或02-66062999,台南市永康區大灣路213號,23.007621899999997,120.26814399999999
28,台南中華東一直營服務中心,188或02-66062999,台南市東區中華東路3段196號,22.977065,120.22549599999999
2,台南民族直營服務中心,188或02-66062999,台南市中西區民族路2段55之1號,22.9943157,120.2102347
32,台南崇學直營服務中心,188或02-66062999,台南市東區崇學路119號,22.978901500000003,120.22221809999999
41,新營民權直營服務中心,188或02-66062999,台南市新營區民權路11之1號,23.3101319,120.311249
19,台南華平直營服務中心,188或02-66062999,台南市安平區華平路684號,22.9965883,120.1759715
40,台南新營直營服務中心,188或02-66062999,台南市新營區民治路261號,23.3054281,120.30327920000002
49,西港中山,(06)795-0507,台南市西港區中山路328號1樓,23.12154,120.203455
4,台南金華三直營服務中心,188或02-66062999,台南市中西區金華路三段110、112號,22.9916499,120.193026
34,台南金華一直營服務中心,188或02-66062999,台南市南區金華路1段511號,22.9747125,120.19070590000001
10,台南開元直營服務中心,188或02-66062999,台南市北區北園街1之1號1樓,23.012083999999998,120.2227743
1,新竹中正三直營服務中心,188或02-66062999,新竹市北區中正路167號1樓,24.809517899999996,120.96619399999999
3,新竹中正直營服務中心,188或02-66062999,新竹市東區中正路9、11號,24.802906699999998,120.97111909999998
8,新竹南大直營服務中心,188或02-66062999,新竹市東區南大路364號,24.798204000000002,120.970153
5,新竹光復直營服務中心,188或02-66062999,新竹市東區光復路1段182號1樓,24.801763,120.98341200000002
6,新竹清大直營服務中心,188或02-66062999,新竹市東區光復路2段318號1樓,24.7957468,120.99847050000001
4,新竹巨城直營服務中心,188或02-66062999,新竹市東區民權路171號1樓,24.809317999999998,120.9740182
7,新竹林森直營服務中心,188或02-66062999,新竹市東區林森路167號1樓,24.799309,120.96494299999999
9,新竹香山直營服務中心,188或02-66062999,新竹市香山區中華路5段18號,24.7885611,120.928106
10,新竹西大,(03)524-5111,新竹市北區西門里西大路522號1樓,24.8054769,120.9631527
11,新竹光復II,(03)563-5000,新竹市東區光復路1段362之3號,24.78414,121.01600400000001
2,新竹水田直營服務中心,188或02-66062999,新竹市北區水田街93、95號,24.8157457,120.9678024
1,竹北三民直營服務中心,188或02-66062999,新竹縣竹北市三民路320號1樓,24.8345261,121.00957
3,竹北光明直營服務中心,188或02-66062999,新竹縣竹北市光明六路95號,24.827153,121.008777
8,新豐新興二直營服務中心,188或02-66062999,新竹縣新豐鄉新興路173號1樓,24.8686564,120.9946821
5,竹東東寧直營服務中心,188或02-66062999,新竹縣竹東鎮東寧路3段90號,24.738782999999998,121.0868574
6,竹東長春直營服務中心,188或02-66062999,新竹縣竹東鎮長春路3段116號,24.7425692,121.0846074
4,竹北自強直營服務中心,188或02-66062999,新竹縣竹北市自強南路66號1樓,24.818337300000003,121.02666869999999
7,湖口仁和直營服務中心,188或02-66062999,新竹縣湖口鄉仁和路21號,24.874557100000004,121.0122088
9,竹北中正東,(03)555-7372,新竹縣竹北市中正東路209號1樓,24.834996,121.01482800000001
10,湖口中正,(03)599-3590,新竹縣湖口鄉中正路1段121號1樓,24.9014858,121.04695159999999
2,竹北中正西直營服務中心,188或02-66062999,新竹縣竹北市中正西路94號,24.8401692,121.0023521
3,桃園機場直營服務中心,188或02-66062999,桃園市大園區埔心村航站南路15號(1樓入境大廳),25.081596700000002,121.23793899999998
78,林口長庚,(03)211-5659,桃園市龜山區復興一路145號,25.0588245,121.36643829999998
81,蘆竹大竹,(03)313-7779,桃園市蘆竹區大竹路405號,25.021155,121.26350900000001
64,桃園中正,(03)337-6111,桃園市桃園區中正路541號1樓,25.003248899999996,121.3054601
6,中壢中北直營服務中心,188或02-66062999,桃園市中壢區中北路141號,24.956819,121.23905900000001
13,中壢龍東直營服務中心,188或02-66062999,桃園市中壢區龍東路330號,24.931804999999997,121.2553112
47,中壢中山東,(03)456-8818,桃園市中壢區中山東路2段121號1樓,24.953433999999998,121.239281
16,平鎮民族直營服務中心,188或02-66062999,桃園市平鎮區民族路2段113號1樓,24.957183800000003,121.2054395
76,龜山后街,(03)359-9767,桃園市龜山區中興路306號1樓,24.991001100000002,121.33448
69,桃園龍安,(03)369-6005,桃園市桃園區龍安里龍安街145號,24.9912628,121.2794463
67,桃園建國,(03)367-0001,桃園市桃園區建國里桃鶯路143號,24.986152399999998,121.31812930000001
20,桃園中正二直營服務中心,188或02-66062999,桃園市桃園區中正路675號,25.006216199999997,121.30365590000001
55,中壢環中,(03)435-0140,桃園市中壢區自立里環中東路196號1樓,24.9637517,121.2568919
63,桃園國際,(03)217-0851,桃園市桃園區中山里國際路1段1107號,24.9869615,121.2892933
5,桃園大溪直營服務中心,188或02-66062999,桃園市大溪區慈湖路125號1樓,24.8811411,121.28889040000001
74,龍潭中正II,(03)489-3336,桃園市龍潭區中正路188號1樓,24.8652975,121.21686729999999
30,龍潭中正直營服務中心,188或02-66062999,桃園市龍潭區中正路121號,24.8676691,121.2161469
39,八德介壽II,(03)363-9393,桃園市八德區介壽路1段876號1樓,24.983707,121.31026200000001
23,桃園成功直營服務中心,188或02-66062999,桃園市桃園區成功路2段86號,24.993835699999998,121.31618629999998
33,龜山文化二直營服務中心,188或02-66062999,桃園市龜山區文化二路30之6號,25.060233,121.36456000000001
60,平鎮和平,(03)458-8885,桃園市平鎮區和平路208號1樓,24.9459333,121.21934840000002
1,桃園八德直營服務中心,188或02-66062999,桃園市八德區介壽路1段807號,24.983707,121.31026200000001
53,中壢元化,(03)427-6828,桃園市中壢區元化路2段19號,24.9622968,121.2223354
62,桃園大業,(03)356-7677,桃園市桃園區大業路1段428號1樓,25.0149772,121.3117352
29,楊梅永美直營服務中心,188或02-66062999,桃園市楊梅區永美路355號,24.9168861,121.18174499999999
42,八德桃鶯,(03)375-7800,桃園市八德區桃鶯路64號,24.9707635,121.32720259999998
54,內壢文化,(03)455-0088,桃園市中壢區文化路348號1樓,24.9789208,121.2509848
58,中壢龍慈,(03)466-7877,桃園市中壢區龍慈路1號,24.943838,121.24848
43,八德義勇,(03)366-1935,桃園市八德區義勇街112號1樓,24.963576800000002,121.30397590000001
8,中壢新站前直營服務中心,188或02-66062999,桃園市中壢區中正路39號,24.954165600000003,121.22426229999999
75,龍潭北龍,(03)499-5335,桃園市龍潭區龍潭村北龍路56號1樓,24.865259899999998,121.212332
70,桃園三民,(03)367-3666,桃園市桃園區豐林里三民路3段531號,24.984927,121.30756000000001
17,新桃園中山直營服務中心,188或02-66062999,桃園市桃園區中山路790號,24.991175,121.29132800000001
24,桃園南華直營服務中心,188或02-66062999,桃園市桃園區南華街139號1樓,24.992422,121.30745900000001
15,平鎮南勢直營服務中心,188或02-66062999,桃園市平鎮區中豐路南勢2段124號1樓,24.919591600000004,121.21110790000002
44,大園果林,(03)393-3277,桃園市大園區三民路2段601號,25.075073800000002,121.2607872
65,桃園大興西,(03)316-2333,桃園市桃園區中正路933號1樓,25.0124054,121.299994
31,龍潭中興直營服務中心,188或02-66062999,桃園市龍潭區中興路277號1樓,24.874052600000002,121.23419960000001
26,桃園寶山直營服務中心,188或02-66062999,桃園市桃園區寶山街165號,25.0125127,121.3169476
21,桃園中華直營服務中心,188或02-66062999,桃園市桃園區中華路30號1樓,24.9910745,121.3109075
85,蘆竹南崁,(03)311-5500,桃園市蘆竹區新南路1段2號,25.047174899999998,121.29384499999999
73,楊梅環東,(03)485-3616,桃園市楊梅區環東路510號1樓,24.911089800000003,121.1562257
36,蘆竹南崁二直營服務中心,188或02-66062999,桃園市蘆竹區南崁路328號1樓,25.050352,121.29163899999999
72,楊梅埔心,(03)431-5859,桃園市楊梅區光華里中興路70號,24.917804399999998,121.18453170000001
38,八德大智,(03)377-5777,桃園市八德區大智路35號,24.9642582,121.2991841
7,中壢中正二直營服務中心,188或02-66062999,桃園市中壢區中正路371號,24.9553841,121.21609440000002
22,桃園永安直營服務中心,188或02-66062999,桃園市桃園區永安路361號,25.0000564,121.2998592
61,平鎮中豐,(03)469-2272,桃園市平鎮區湧光里中豐路山頂段174號,24.900025199999998,121.2108466
27,楊梅站前直營服務中心,188或02-66062999,桃園市楊梅區大成路151號,24.911595000000002,121.1456456
37,觀音草漯直營服務中心,188或02-66062999,桃園市觀音區大觀路2段145之1號,25.0464204,121.1418142
12,中壢新生直營服務中心,188或02-66062999,桃園市中壢區新生路132號,24.960161,121.223293
80,龜山萬壽,(03)349-2310,桃園市龜山區萬壽路2段974號,24.9942013,121.33523090000001
45,大園中華,(03)386-9111,桃園市大園區大園村中華路67號1樓,25.0669738,121.19858319999999
82,蘆竹中山,(03)312-1678,桃園市蘆竹區仁愛路3段1號,25.0533326,121.3001591
48,中壢士校,(03)437-1580,桃園市中壢區中山東路4段109號,24.935901,121.257231
18,桃園中正三直營服務中心,188或02-66062999,桃園市桃園區中正路1220號,25.018632999999998,121.2975395
35,桃園蘆竹直營服務中心,188或02-66062999,桃園市蘆竹區南竹路1段49號,25.0477825,121.29368640000001
50,中壢中正,(03)491-6565,桃園市中壢區中正路321號,24.955219800000002,121.217281
56,中壢復興,(03)422-2716,桃園市中壢區復興路47號,24.9571359,121.22542
57,中壢龍岡,(03)468-6646,桃園市中壢區龍岡路2段128號,24.945200399999997,121.22931129999999
66,桃園南平,(03)356-3967,桃園市桃園區南平路100號1樓,25.020347100000002,121.3034835
46,大園中正東,(03)384-2299,桃園市大園區中正東路3號1樓,25.064280899999996,121.197731
25,桃園桃鶯直營服務中心,188或02-66062999,桃園市桃園區桃鶯路283號,24.983063,121.319027
59,內壢環中東,(03)461-2405,桃園市中壢區環中東路9號1樓,24.9670108,121.2605433
9,新內壢中華直營服務中心,188或02-66062999,桃園市中壢區中華路一段232號1~2樓,24.973342600000002,121.25872890000001
14,中壢環北直營服務中心,188或02-66062999,桃園市中壢區環北路538號,24.964969,121.228245
68,桃園復興,(03)339-1717,桃園市桃園區復興路69號,24.990876999999998,121.314862
52,中壢中園,(03)452-5333,桃園市中壢區中園路155號1樓,24.968609,121.23598
83,蘆竹忠孝西,(03)312-1611,桃園市蘆竹區忠孝西路76號1樓,25.041776300000002,121.29028840000001
51,內壢忠孝,(03)461-8168,桃園市中壢區中原里忠孝路34號,24.9733909,121.25656790000001
11,中壢健行直營服務中心,188或02-66062999,桃園市中壢區健行路151號,24.9491624,121.2275453
28,楊梅大成直營服務中心,188或02-66062999,桃園市楊梅區大成路32號,24.9089157,121.145655
77,龜山長庚,(03)397-5988,桃園市龜山區文化二路88號1樓,25.055752399999996,121.3678001
2,八德廣福直營服務中心,188或02-66062999,桃園市八德區廣福路168號1樓,24.9597501,121.29545719999999
32,龜山中興直營服務中心,188或02-66062999,桃園市龜山區中興路431之1號1樓,24.993271399999998,121.3365364
41,八德麻園,(03)371-0268,桃園市八德區介壽路2段374號,24.9477829,121.2973918
19,桃園夜市直營服務中心,188或02-66062999,桃園市桃園區中正路461號,25.0015438,121.3065909
40,八德更寮腳,(03)365-0055,桃園市八德區介壽路2段1155號,24.9320888,121.2975666
49,中壢站前,(03)422-5168,桃園市中壢區中央里中山路66號1樓,24.9553383,121.22680940000001
4,桃園二航直營服務中心,188或02-66062999,桃園市大園區埔心村航站南路9號(1樓入境大廳),25.0770139,121.232025
34,龜山迴龍直營服務中心,188或02-66062999,桃園市龜山區萬壽路1段122號1樓,25.0185364,121.40667690000001
10,內壢忠孝二直營服務中心,188或02-66062999,桃園市中壢區忠孝路60號,24.974059,121.2562436
71,新屋中山,(03)487-0299,桃園市新屋區中山路316號,24.9728729,121.10543190000001
79,迴龍萬壽,(02)8209-5645,桃園市龜山區萬壽路1段98號1樓,25.001714399999997,121.3504775
84,蘆竹南山,(03)324-5679,桃園市蘆竹區南山路3段286號,25.084899,121.286345
13,台北東區直營服務中心,188或02-66062999,台北市大安區忠孝東路4段216巷14號,25.0406293,121.5528225
78,大同延平北,(02)6610-5678,台北市大同區延平北路3段22號1樓,25.064076,121.51095600000001
76,台北萬大直營服務中心,188或02-66062999,台北市萬華區萬大路275號1樓,25.0254473,121.5005821
69,台北後山埤直營服務中心,188或02-66062999,台北市南港區忠孝東路5段968號,25.044228399999998,121.5822249
30,台北錦西直營服務中心,188或02-66062999,台北市中山區錦西街4之4號1樓,25.0603833,121.52240659999998
39,台北內湖直營服務中心,188或02-66062999,台北市內湖區內湖路1段727號1樓,25.07919,121.57803340000001
33,台北站前直營服務中心,188或02-66062999,台北市中正區忠孝西路1段38號1樓,25.0462585,121.51642179999999
87,文山景美,(02)2933-1399,台北市文山區羅斯福路6段238號,24.992326000000002,121.54025
62,台北永春直營服務中心,188或02-66062999,台北市信義區忠孝東路5段435-2號及437號,25.041025,121.575842
20,台北通化二直營服務中心,188或02-66062999,台北市大安區通化街16號,25.032018899999997,121.55417140000002
68,台灣大哥大數位生活台北文創直營服務中心,188或02-66062999,台北市信義區菸廠路80號,25.045008,121.5615168
67,台北莊敬直營服務中心,188或02-66062999,台北市信義區莊敬路467號1樓,25.026946,121.567894
91,萬華龍山寺,(02)2383-1551,台北市萬華區桂林路129號1樓,25.038602899999997,121.49983590000002
71,台北南港二直營服務中心,188或02-66062999,台北市南港區忠孝東路7段612號1樓,25.0528432,121.615723
31,台北龍江二直營服務中心,188或02-66062999,台北市中山區龍江路360號1樓,25.0661323,121.5408708
74,台北西園直營服務中心,188或02-66062999,台北市萬華區西園路2段288號1樓,25.0272835,121.49393719999999
21,台北復興南直營服務中心,188或02-66062999,台北市大安區復興南路2段179號,25.026893899999997,121.54372009999999
73,台北中華直營服務中心,188或02-66062999,台北市萬華區中華路2段432號1樓,25.0271999,121.50619499999999
16,台北永康直營服務中心,188或02-66062999,台北市大安區信義路2段154號1樓,25.033649,121.52885500000001
44,台北木柵直營服務中心,188或02-66062999,台北市文山區木柵路3段80號1樓,24.988493,121.56675800000001
86,文山興隆,(02)2934-7008,台北市文山區興隆路3段22號,25.000524300000002,121.5549873
9,台北南京西直營服務中心,188或02-66062999,台北市大同區南京西路22號,25.052522800000002,121.5201334
36,台北館前直營服務中心,188或02-66062999,台北市中正區館前路22號1樓,25.0450783,121.5148545
12,忠孝正義直營服務中心,188或02-66062999,台北市大安區忠孝東路3段208號1樓,25.0414588,121.53976440000001
46,文山景中直營服務中心,188或02-66062999,台北市文山區景中街39號1樓,24.9928427,121.54381640000001
19,台北通化直營服務中心,188或02-66062999,台北市大安區通化街113號,25.0293871,121.55417109999999
35,台北衡陽直營服務中心,188或02-66062999,台北市中正區衡陽路55號,25.0424206,121.5120977
56,台北東興直營服務中心,188或02-66062999,台北市松山區東興路12號,25.049727999999998,121.56505690000002
66,台北威秀直營服務中心,188或02-66062999,台北市信義區松壽路20號,25.035635600000003,121.5670989
25,台北民權東二直營服務中心,188或02-66062999,台北市中山區民權東路3段51號1樓,25.062558199999998,121.54291640000001
45,台北木新直營服務中心,188或02-66062999,台北市文山區木新路3段163號,24.981600399999998,121.56090549999999
14,台北頂好直營服務中心,188或02-66062999,台北市大安區忠孝東路4段71號1樓,25.0420013,121.5468629
51,北投明德直營服務中心,188或02-66062999,台北市北投區明德路92號,25.109446300000002,121.51967990000001
28,台北南京東二直營服務中心,188或02-66062999,台北市中山區南京東路2段20號1樓,25.0518671,121.5288294
2,士林中正直營服務中心,188或02-66062999,台北市士林區中正路327號,25.0945422,121.5232009
8,大同延平北二直營服務中心,188或02-66062999,台北市大同區延平北路2段156號,25.05795,121.511402
40,台北日湖直營服務中心,188或02-66062999,台北市內湖區成功路4段141號,25.082779100000003,121.5935389
27,台北林森北直營服務中心,188或02-66062999,台北市中山區林森北路87號1樓,25.049886100000002,121.5249453
92,萬華萬大,(02)2305-9869,台北市萬華區萬大路445號,25.020964300000003,121.49849820000001
34,台北南昌直營服務中心,188或02-66062999,台北市中正區南昌路1段107號,25.030205399999996,121.51815149999999
84,中正中華,(02)2338-1898,台北市中正區中華路2段103號1樓,25.033157100000004,121.5053611
3,台北天母直營服務中心,188或02-66062999,台北市士林區天母西路47號,25.1186132,121.52709509999998
4,士林夜市直營服務中心,188或02-66062999,台北市士林區文林路32號1樓,25.0866897,121.5256843
6,士林延平北直營服務中心,188或02-66062999,台北市士林區延平北路5段311號1樓,25.0863173,121.50927320000001
47,台北萬芳直營服務中心,188或02-66062999,台北市文山區興隆路3段122號,24.999052600000002,121.5576528
81,中山長春,(02)2508-2000,台北市中山區長春路188號,25.0546471,121.53510800000001
89,北投光明,(02)6611-5678,台北市北投區光明路170號,25.135452800000003,121.5030231
52,北投致遠直營服務中心,188或02-66062999,台北市北投區致遠一路2段9號,25.1110931,121.5143118
63,台北忠孝東直營服務中心,188或02-66062999,台北市信義區忠孝東路5段659、661號,25.041938000000002,121.579457
5,台北文林直營服務中心,188或02-66062999,台北市士林區文林路678號,25.101273000000003,121.522443
90,北投吉利,(02)2822-6258,台北市北投區吉利街114號,25.1185069,121.5066175
23,台北公館直營服務中心,188或02-66062999,台北市大安區羅斯福路3段289號1樓,25.0178,121.531539
1,士林中山北直營服務中心,188或02-66062999,台北市士林區中山北路6段144號,25.1062653,121.52509840000002
55,台北民生東二直營服務中心,188或02-66062999,台北市松山區民生東路5段103號1樓,25.0587874,121.56001470000001
77,士林文林,(02)2883-7666,台北市士林區文林路182號1樓,25.089637600000003,121.52706370000001
42,台北葫洲直營服務中心,188或02-66062999,台北市內湖區康寧路3段20之1號,25.0724032,121.6075838
58,南京三民直營服務中心,188或02-66062999,台北市松山區南京東路5段84號,25.0512622,121.561403
43,內湖光電直營服務中心,188或02-66062999,台北市內湖區瑞光路498號,25.078825,121.56832800000001
41,台北東湖直營服務中心,188或02-66062999,台北市內湖區東湖路129號,25.068267600000002,121.6167048
18,台北瑞安直營服務中心,188或02-66062999,台北市大安區建國南路2段151巷36號1樓,25.0286708,121.5392538
70,台北昆陽直營服務中心,188或02-66062999,台北市南港區忠孝東路6段378號,25.049736,121.59196100000001
17,台北信義直營服務中心,188或02-66062999,台北市大安區信義路4段48號,25.033176,121.5451571
24,台北民權東直營服務中心,188或02-66062999,台北市中山區民權東路2段87號,25.062702899999998,121.532248
15,台北杭州南直營服務中心,188或02-66062999,台北市大安區杭州南路2段107號,25.028206,121.521882
65,台北松山直營服務中心,188或02-66062999,台北市信義區松山路484之4號1樓,25.0391159,121.5778237
75,台北西門町直營服務中心,188或02-66062999,台北市萬華區西寧南路165號1樓,25.0432096,121.5061659
88,北投中和,(02)2895-2666,台北市北投區中和街297號,25.140516899999998,121.500123
64,台北五分埔直營服務中心,188或02-66062999,台北市信義區松山路131號,25.047158800000002,121.57804240000002
72,台北南港直營服務中心,188或02-66062999,台北市南港區南港路2段36及36-1號,25.0542727,121.605185
38,台北西湖直營服務中心,188或02-66062999,台北市內湖區內湖路1段277號1樓,25.0825193,121.56577759999999
53,台北八德直營服務中心,188或02-66062999,台北市松山區八德路3段34號,25.0480585,121.5519529
37,台北濟南直營服務中心,188或02-66062999,台北市中正區濟南路2段60之1號,25.0401898,121.5319768
61,台北光復南直營服務中心,188或02-66062999,台北市信義區光復南路433號1樓,25.0358495,121.5576874
60,台北永吉直營服務中心,188或02-66062999,台北市信義區永吉路30巷84號,25.044191199999997,121.56870179999999
22,台北敦南直營服務中心,188或02-66062999,台北市大安區敦化南路2段269號,25.0251,121.54907549999999
80,大直實踐,(02)2532-7682,台北市中山區北安路618之3號1樓,25.0824349,121.54911000000001
82,中山吉林,(02)2511-5383,台北市中山區新生里吉林路290號1樓,25.0611143,121.53008940000001
48,景美萬隆直營服務中心,188或02-66062999,台北市文山區羅斯福路5段266號1樓,25.000627899999998,121.53924920000001
29,台北農安直營服務中心,188或02-66062999,台北市中山區農安街19號,25.0650202,121.523951
50,台北石牌直營服務中心,188或02-66062999,台北市北投區石牌路2段70號1樓,25.1164682,121.5161992
59,台北慶城直營服務中心,188或02-66062999,台北市松山區復興北路97號1樓,25.0525835,121.5444551
7,天母德行東直營服務中心,188或02-66062999,台北市士林區德行東路211號,25.1093015,121.5325853
83,中山龍江II,(02)2504-3588,台北市中山區龍江路311號1樓,25.0613049,121.54096979999998
79,大安古亭,(02)2368-5627,台北市大安區羅斯福路3段19號,25.0239262,121.5250866
11,台北和平東直營服務中心,188或02-66062999,台北市大安區和平東路1段232號,25.026079,121.53236000000001
32,台灣大哥大數位生活台北三創直營服務中心,188或02-66062999,台北市中正區市民大道3段2號,25.0454897,121.5311294
26,台北林森北二直營服務中心,188或02-66062999,台北市中山區林森北路263號之1-2,25.0545937,121.5255416
54,台北民生東直營服務中心,188或02-66062999,台北市松山區民生東路4段71號,25.058067,121.551257
49,台北石牌二直營服務中心,188或02-66062999,台北市北投區石牌路1段91號1樓,25.1139268,121.5116611
57,台北寧安直營服務中心,188或02-66062999,台北市松山區南京東路4段105號1樓,25.051876899999996,121.5546102
10,台北酒泉直營服務中心,188或02-66062999,台北市大同區酒泉街141號1樓,25.072125,121.51421289999999
85,內湖成功,(02)8791-4131,台北市內湖區成功路3段131號,25.079238699999998,121.5897906
13,土城明德直營服務中心,188或02-66062999,新北市土城區明德路1段3號1樓,24.9858088,121.464931
151,蘆洲長安II,(02)2283-6568,新北市蘆洲區長安街307號,25.0851385,121.4578304
112,板橋中正,(02)2965-7993,新北市板橋區中正路303號1樓,25.019572699999998,121.45511809999999
100,中和復興,(02)2242-6775,新北市中和區復興路255號1樓,24.990461399999997,121.5031643
130,新店民族,(02)2911-2977,新北市新店區民族路64號,24.9784935,121.53951770000002
78,蘆洲中正直營服務中心,188或02-66062999,新北市蘆洲區中正路156之2號,25.085565,121.468871
76,新莊廟街直營服務中心,188或02-66062999,新北市新莊區新泰路32號,25.0341417,121.449546
107,永和中正,(02)8941-8915,新北市永和區中正路1號,24.9954657,121.5138308
69,新莊西盛直營服務中心,188或02-66062999,新北市新莊區民安西路243號1樓,25.013787699999998,121.4261644
109,永和成功,(02)2943-1234,新北市永和區成功路2段80號,24.998908899999996,121.52652859999999
145,蘆洲中山一,(02)2848-8877,新北市蘆洲區中山一路31號,25.080753,121.47914399999999
118,板橋實踐,(02)2962-3722,新北市板橋區實踐路205之1號,25.0027766,121.46460559999998
126,淡水中山,(02)2629-0000,新北市淡水區清水街250號,25.172214899999997,121.44034909999999
30,永和得和直營服務中心,188或02-66062999,新北市永和區得和路326號1樓,24.9995139,121.52313640000001
39,板橋民權直營服務中心,188或02-66062999,新北市板橋區中正路152號1樓,25.0166289,121.456778
120,林口竹林,(02)2603-9955,新北市林口區竹林路59號,25.0783926,121.3875479
148,蘆洲光華II,(02)2281-0558,新北市蘆洲區光華路140號,25.0824619,121.4661476
132,新莊中平,(02)2279-7979,新北市新莊區中平路89號,25.0460052,121.4446284
33,台北汐止直營服務中心,188或02-66062999,新北市汐止區中興路206號,25.0661525,121.6313628
125,淡水英專,(02)2629-2222,新北市淡水區英專路90之4號,25.171608,121.44584170000002
87,三重忠孝II,(02)2986-9669,新北市三重區忠孝路2段9號,25.0715892,121.48680520000002
62,新店大坪林直營服務中心,188或02-66062999,新北市新店區北新路3段139號,24.983130199999998,121.54110390000001
20,中和中和直營服務中心,188或02-66062999,新北市中和區中和路304號1樓之2,25.0002313,121.5090781
68,新莊化成直營服務中心,188或02-66062999,新北市新莊區化成路388號1樓,25.0502464,121.4659682
67,新莊五權直營服務中心,188或02-66062999,新北市新莊區五權一路50號1樓,25.065889600000002,121.45813559999999
136,新莊民安西,(02)2205-2966,新北市新莊區民安西路177號,25.0158535,121.42615790000002
134,新莊安寧,(02)2276-5199,新北市新莊區中華路1段56號,25.042362,121.4529203
131,新莊八德,(02)2206-8585,新北市新莊區八德街220號,25.019179,121.423075
91,三重溪尾,(02)2980-8111,新北市三重區溪尾街181號,25.080470499999997,121.48888020000001
71,新莊民安直營服務中心,188或02-66062999,新北市新莊區民安路216號,25.022636,121.42588700000002
129,新店北新II,(02)8919-7299,新北市新店區北新路1段54號,24.97129,121.5425872
31,永和福和直營服務中心,188或02-66062999,新北市永和區福和路137號,25.007533,121.521224
74,新莊昌平直營服務中心,188或02-66062999,新北市新莊區昌平街69號,25.053566600000003,121.4545121
21,中和永安直營服務中心,188或02-66062999,新北市中和區中和路406號1、2樓,25.0028961,121.51138780000001
98,土城裕生,(02)8261-6518,新北市土城區裕民路39號1樓,24.9883754,121.44848789999999
106,永和中山,(02)3233-4833,新北市永和區中山路1段190號,25.008879,121.50883700000001
73,新莊幸福二直營服務中心,188或02-66062999,新北市新莊區幸福路690號,25.049438000000002,121.450236
16,土城學府直營服務中心,188或02-66062999,新北市土城區學府路1段76號1樓,24.9883282,121.45905060000001
150,蘆洲長安,(02)8281-5885,新北市蘆洲區長安街130號,25.081959,121.46041799999999
44,板橋民族直營服務中心,188或02-66062999,新北市板橋區民族路37-2、37-3號1樓,25.0097466,121.4625382
86,三重正義北,(02)8982-4422,新北市三重區正義北路96號,25.064877,121.49686499999999
9,台北三峽直營服務中心,188或02-66062999,新北市三峽區文化路39號,24.936042899999997,121.372848
95,土城永寧,(02)2269-0777,新北市土城區中央路3段120號,24.966404999999998,121.43506000000001
36,汐止新台五二直營服務中心,188或02-66062999,新北市汐止區新台五路1段197號,25.063393899999998,121.655864
143,樹林鎮前,(02)2684-6613,新北市樹林區鎮前街8號1樓,24.993565,121.42630600000001
12,土城延吉直營服務中心,188或02-66062999,新北市土城區延吉街237號1樓,24.985007999999997,121.46796869999999
46,板橋南雅二直營服務中心,188或02-66062999,新北市板橋區南雅南路1段46號,25.0060216,121.45574009999999
19,中和南山直營服務中心,188或02-66062999,新北市中和區中和路159號,24.999866,121.50275500000001
35,汐止建成直營服務中心,188或02-66062999,新北市汐止區建成路30及32號,25.072716,121.6642908
56,淡水大忠直營服務中心,188或02-66062999,新北市淡水區大忠街113巷10號,25.1774866,121.4469256
66,新莊復興直營服務中心,188或02-66062999,新北市新莊區中港路264號1樓,25.0436697,121.45357759999999
147,蘆洲民族,(02)2281-4801,新北市蘆洲區民族路206號,25.0874026,121.4799381
99,中和員山,(02)2225-6611,新北市中和區員山路213號,24.9978879,121.48115800000001
25,中和德光直營服務中心,188或02-66062999,新北市中和區德光路68號1樓,25.003908600000003,121.46940490000001
45,板橋府中直營服務中心,188或02-66062999,新北市板橋區府中路97號,25.009350899999998,121.456907
14,土城金城直營服務中心,188或02-66062999,新北市土城區金城路3段167號,24.9886963,121.4690632
94,土城中央,(02)2261-5298,新北市土城區中央路2段172號1樓,24.976412,121.441682
124,淡水竹圍,(02)2808-0952,新北市淡水區民權路133號,25.136524899999998,121.46023500000001
121,金山中山,(02)2498-8586,新北市金山區中山路131號1樓,25.2199616,121.63922179999999
51,板橋篤行直營服務中心,188或02-66062999,新北市板橋區篤行路3段74號1樓,24.9854159,121.42691599999999
133,新莊中和,(02)2279-1888,新北市新莊區中和街131號1樓,25.0488592,121.4472513
28,永和樂華直營服務中心,188或02-66062999,新北市永和區永和路1段162號1樓,25.0031104,121.49971770000002
141,樹林中華,(02)8684-0688,新北市樹林區中華路126號,24.9805589,121.41761389999999
2,三重中華直營服務中心,188或02-66062999,新北市三重區中華路78號1樓,25.062666,121.48326999999999
144,蘆洲三民,(02)8283-3339,新北市蘆洲區三民路130號(1樓),25.087617,121.4709253
8,三峽北大直營服務中心,188或02-66062999,新北市三峽區大學路166號,24.9463843,121.3728021
40,板橋江子翠直營服務中心,188或02-66062999,新北市板橋區文化路2段320號,25.029970300000002,121.47261370000001
146,蘆洲中山II,(02)2288-8582,新北市蘆洲區中山二路40號,25.0821859,121.47433400000001
27,永和中正二直營服務中心,188或02-66062999,新北市永和區中正路320號,24.999518899999998,121.51768600000001
92,三峽中正,(02)2671-6611,新北市三峽區中正路1段118號,24.929353,121.37378100000001
34,汐止忠孝東直營服務中心,188或02-66062999,新北市汐止區忠孝東路287號,25.0686548,121.664029
114,板橋四川,(02)8952-0808,新北市板橋區四川路1段379號1樓,24.999400899999998,121.45824979999999
137,新莊後港,(02)2205-8111,新北市新莊區後港一路78號,25.026512,121.427072
110,汐止秀峰,(02)8646-2222,新北市汐止區忠孝東路202號,25.066135199999998,121.66171259999999
84,三重幸福,(02)2280-5948,新北市三重區三和路4段165之2號,25.0787401,121.48324009999999
3,三重五華直營服務中心,188或02-66062999,新北市三重區五華街127號1樓,25.084216,121.49124199999999
104,中和興南II,(02)2949-2211,新北市中和區興南路1段187號,24.9864672,121.508297
4,重陽正義直營服務中心,188或02-66062999,新北市三重區正義北路325號1樓,25.071416600000003,121.49398909999998
6,三重新天台直營服務中心,188或02-66062999,新北市三重區重新路2段46之8號,25.0623111,121.4986728
123,泰山明志II,(02)2297-9195,新北市泰山區明志路1段489號,25.0455048,121.42583559999998
47,板橋重慶直營服務中心,188或02-66062999,新北市板橋區重慶路246號,25.0009592,121.4628583
81,台北鶯歌直營服務中心,188或02-66062999,新北市鶯歌區中正一路88號1樓,24.954526,121.35242099999999
89,三重重新,(02)2979-2123,新北市三重區重新路3段38之2號,25.0613326,121.4944922
52,板橋雙十直營服務中心,188或02-66062999,新北市板橋區雙十路2段63號1樓,25.026592899999997,121.4762925
97,土城裕民,(02)8261-1327,新北市土城區裕民路157之1號,24.9859426,121.45230649999999
63,新店成康直營服務中心,188或02-66062999,新北市新店區安康路2段212之1號,24.9595242,121.5099773
5,三重重新直營服務中心,188或02-66062999,新北市三重區重新路1段125號1樓,25.058578,121.49029399999999
90,三重集成,(02)2973-9099,新北市三重區集成路26號,25.0523569,121.48865430000001
116,板橋國光,(02)2966-9998,新北市板橋區國光路190號1樓,25.0183453,121.46115879999999
23,中和連城二直營服務中心,188或02-66062999,新北市中和區連城路324號1樓,24.9961138,121.4832713
1,三重新中正北直營服務中心,188或02-66062999,新北市三重區中正北路216號1樓,25.067497699999997,121.4822092
55,台北泰山直營服務中心,188或02-66062999,新北市泰山區明志路3段160號,25.0395047,121.42449109999998
77,樹林中山直營服務中心,188或02-66062999,新北市樹林區中山路1段65號,24.9879868,121.4215096
42,板橋四維直營服務中心,188或02-66062999,新北市板橋區四維路233號,25.0273813,121.4636804
103,中和景新,(02)2943-6600,新北市中和區景新街398號,24.989544600000002,121.51258529999998
149,蘆洲光華,(02)2288-2601,新北市蘆洲區光華路81號,25.082552,121.467848
58,淡水中正直營服務中心,188或02-66062999,新北市淡水區中正路46號,25.169567999999998,121.44345159999999
142,樹林保安,(02)2686-1660,新北市樹林區保安街1段206號,24.995995699999998,121.4212336
43,板橋新埔直營服務中心,188或02-66062999,新北市板橋區民生路3段21號,25.0239639,121.46696000000001
41,板橋亞東直營服務中心,188或02-66062999,新北市板橋區四川路2段37號,24.995301,121.45425220000001
18,中和中和二直營服務中心,188或02-66062999,新北市中和區中和路12號1樓,25.0021407,121.4995503
70,新莊光華直營服務中心,188或02-66062999,新北市新莊區民安西路62號1樓,25.0203326,121.42718899999998
17,中和環球直營服務中心,188或02-66062999,新北市中和區中山路3段143號,25.0060138,121.47396840000002
24,中和大潤發直營服務中心,188或02-66062999,新北市中和區景平路166號1樓,24.9922744,121.5171278
93,三峽復興,(02)8671-2932,新北市三峽區復興路89號1樓,24.9374885,121.37240159999999
15,台北土城直營服務中心,188或02-66062999,新北市土城區裕民路261號1樓,24.982671300000003,121.45513059999999
105,五股成泰,(02)8292-5196,新北市五股區成泰路2段178號,25.084492,121.4385824
65,台北新莊直營服務中心,188或02-66062999,新北市新莊區中正路299號,25.034965,121.448544
119,林口文化三,(02)2600-9959,新北市林口區文化三路1段569號,25.0764212,121.3703743
75,新莊富國二直營服務中心,188或02-66062999,新北市新莊區富國路51號1樓,25.0263818,121.41935339999999
139,新莊新泰,(02)2276-3200,新北市新莊區新泰路253號,25.0397836,121.4460946
111,板橋三民,(02)2957-5199,新北市板橋區三民路2段202之19號,25.0133057,121.478824
88,三重重陽,(02)8985-6558,新北市三重區重陽路2段10號1樓,25.062072,121.486609
64,新莊中平二直營服務中心,188或02-66062999,新北市新莊區中平路263號1樓,25.0495541,121.4447499
72,新莊頂好直營服務中心,188或02-66062999,新北市新莊區幸福路526號1樓,25.0494189,121.4559267
38,板橋埔墘直營服務中心,188或02-66062999,新北市板橋區中山路2段243號,25.017534,121.477258
53,林口仁愛直營服務中心,188或02-66062999,新北市林口區仁愛路2段30號,25.075767499999998,121.3852371
37,汐止樟樹直營服務中心,188或02-66062999,新北市汐止區樟樹一路131號1樓,25.0650617,121.642063
61,新店七張直營服務中心,188或02-66062999,新北市新店區北新路2段165號,24.9764161,121.5426845
60,新店正興直營服務中心,188或02-66062999,新北市新店區中正路59號1樓,24.9699747,121.54427820000001
22,中和連城直營服務中心,188或02-66062999,新北市中和區連城路267之1號,24.9962768,121.4910314
80,蘆洲復興直營服務中心,188或02-66062999,新北市蘆洲區復興路110號1樓,25.0871408,121.47623359999999
82,八里中山,(02)2619-1390,新北市八里區中山路2段530號,25.1467315,121.39767509999999
48,板橋莒光直營服務中心,188或02-66062999,新北市板橋區莒光路55號,25.0243536,121.47097360000001
29,永和頂溪直營服務中心,188或02-66062999,新北市永和區永和路2段196號,25.013643,121.51576499999999
50,樹林博愛直營服務中心,188或02-66062999,新北市板橋區溪北路34號1樓,24.990163600000002,121.427025
108,永和永和III,(02)8921-0089,新北市永和區永和路2段201號,25.0136639,121.5152855
117,板橋新海II,(02)2250-5558,新北市板橋區新海路380號,25.0260652,121.45924640000001
101,中和景平,(02)8668-2688,新北市中和區景平路343號1樓,24.993216699999998,121.50523999999999
140,樹林立仁,(02)2681-0668,新北市樹林區中山路1段200號,24.988391399999998,121.42143840000001
96,土城立德,(02)8261-6655,新北市土城區立德路62號,24.9868634,121.4639771
102,中和景平II,(02)2249-8811,新北市中和區景平路537號,24.999218300000003,121.4987379
59,新店耕莘直營服務中心,188或02-66062999,新北市新店區中正路361號,24.9761824,121.53502009999998
7,湯城直營服務中心,188或02-66062999,新北市三重區重新路5段609巷2號1樓之2,25.045571,121.46832490000001
138,新莊富國,(02)8201-9889,新北市新莊區富國路132號,25.0250283,121.42262009999999
122,泰山明志,(02)2909-1711,新北市泰山區明志路1段196號1樓,25.0455048,121.42583559999998
83,三重三和II,(02)2973-6022,新北市三重區三和路2段129號,25.069295,121.49867900000001
79,蘆洲中華直營服務中心,188或02-66062999,新北市蘆洲區中華街36號1樓,25.081155300000002,121.4624511
11,土城中央二直營服務中心,188或02-66062999,新北市土城區中央路2段219之2號1樓,24.973911899999997,121.441171
135,新莊幸福,(02)2277-7599,新北市新莊區仁義里幸福路9號,25.0493664,121.45923729999998
115,板橋民族,(02)2961-8111,新北市板橋區民族路79號1樓,25.008635,121.46566299999999
32,汐止大同直營服務中心,188或02-66062999,新北市汐止區大同路2段312巷14號1樓,25.065944299999998,121.65581440000001
127,深坑文化,(02)2662-1801,新北市深坑區文化街92號,25.0020665,121.6173716
26,中和南勢角直營服務中心,188或02-66062999,新北市中和區興南路1段64巷2號,24.9903835,121.51072409999999
54,台北新泰山直營服務中心,188或02-66062999,新北市泰山區明志路2段66號,25.0526741,121.42898259999998
49,板橋新海直營服務中心,188或02-66062999,新北市板橋區新海路130號,25.023208,121.461193
152,鶯歌建國,(02)2678-5715,新北市鶯歌區建國路181號1樓,24.953382,121.34971100000001
57,淡水中正東直營服務中心,188或02-66062999,新北市淡水區中正東路49號,25.1680788,121.4466561
10,三峽民生直營服務中心,188或02-66062999,新北市三峽區民生街17號1樓,24.936536,121.37643600000001
128,新店中正,(02)8911-6166,新北市新店區中正路169號1樓,24.97196,121.540958
85,三重中正北,(02)2989-0990,新北市三重區中正北路177號,25.0695552,121.47783659999999
113,板橋文化,(02)8252-7188,新北市板橋區文化路2段406號,25.031412600000003,121.47386350000001
13,高雄漢民二直營服務中心,188或02-66062999,高雄市小港區漢民路713、715號,22.567884,120.362125
112,鳳山五甲,(07)715-1510,高雄市鳳山區五甲二路392號1樓,22.598695199999998,120.33651259999999
100,楠梓德賢,(07)365-6418,高雄市楠梓區德賢路548號1樓,22.726130899999998,120.30134779999999
78,岡山壽天,(07)622-6789,高雄市岡山區壽天路81號1樓,22.795877700000002,120.2920519
76,岡山岡山,(07)622-1155,高雄市岡山區岡山路396號1樓,22.7949712,120.29584969999999
107,鳳山大明,(07)766-3666,高雄市鳳山區大明路116號,22.609091600000003,120.34176809999998
69,小港漢民,(07)806-2057,高雄市小港區漢民路244號1樓,22.565964,120.352232
109,鳳山中山東,(07)702-0933,高雄市鳳山區中山東路226、228號1樓,22.626396,120.376522
118,橋頭隆豐,(07)612-0888,高雄市橋頭區隆豐路209號,22.7537429,120.30757539999999
30,高雄三多二直營服務中心,188或02-66062999,高雄市苓雅區三多二路244.246號,22.614594,120.305967
39,高雄林森直營服務中心,188或02-66062999,高雄市新興區林森一路243之2號,22.6347179,120.3048571
33,高雄正義直營服務中心,188或02-66062999,高雄市苓雅區正義路95號,22.630384,120.338624
87,苓雅三多,(07)338-8366,高雄市苓雅區三多三路146號,22.616002899999998,120.31011550000001
62,三民鼎山,(07)395-8882,高雄市三民區鼎山街241號1樓,22.6593488,120.32208030000001
20,高雄巨蛋直營服務中心,188或02-66062999,高雄市左營區新庄仔路179號,22.6703448,120.30388640000001
68,小港金府,(07)806-8877,高雄市小港區金府路95號1樓,22.567834,120.354491
67,大樹久堂,(07)652-2299,高雄市大樹區久堂路170號1樓,22.657998899999996,120.4169501
91,梓官蚵寮,(07)610-9698,高雄市梓官區赤崁南路96之2號1樓,22.7356642,120.24864709999999
71,仁武仁雄,(07)373-9577,高雄市仁武區仁雄路105號1樓,22.676544399999997,120.34081429999999
31,高雄三多直營服務中心,188或02-66062999,高雄市苓雅區三多三路262號,22.614417,120.305447
74,左營重和,(07)350-6832,高雄市左營區重和路15號,22.682903200000002,120.31416200000001
21,高雄裕誠直營服務中心,188或02-66062999,高雄市左營區裕誠路406號,22.6658161,120.3058653
98,楠梓後昌,(07)364-2171,高雄市楠梓區後昌路759號,22.710012,120.2962304
106,旗山延平II,(07)661-8885,高雄市旗山區延平一路686號1樓,22.88423,120.48295900000001
73,左營左營II,(07)587-7788,高雄市左營區左營大路191號,22.685239000000003,120.28952
16,高雄自由三直營服務中心,188或02-66062999,高雄市左營區自由三路351號,22.674624899999998,120.31205109999999
44,高雄路竹直營服務中心,188或02-66062999,高雄市路竹區大社路49號,22.86309,120.26194509999999
86,美濃中正,(07)682-1888,高雄市美濃區中正路1段51號1樓,22.900073000000003,120.5419659
9,高雄大寮直營服務中心,188或02-66062999,高雄市大寮區大寮路628號1樓,22.5918255,120.41320230000001
95,新興林森II,(07)235-4567,高雄市新興區林森一路210號,22.632650100000003,120.304901
36,高雄和平直營服務中心,188或02-66062999,高雄市苓雅區和平一路240號,22.631685,120.31758400000001
12,高雄漢民直營服務中心,188或02-66062999,高雄市小港區漢民路431及433號,22.5670473,120.3581342
46,高雄瑞豐直營服務中心,188或02-66062999,高雄市鼓山區裕誠路1089之1號,22.6655755,120.2993486
19,高雄華夏二直營服務中心,188或02-66062999,高雄市左營區華夏路663號1樓,22.6775508,120.3015627
35,高雄成功直營服務中心,188或02-66062999,高雄市苓雅區成功一路267之1號,22.620095000000003,120.29520690000001
56,三民大昌,(07)387-6577,高雄市三民區大昌二路92號1樓,22.642688800000002,120.3322903
66,中庄鳳屏,(07)701-1708,高雄市大寮區鳳屏一路454號1樓,22.636076100000004,120.3923588
99,楠梓軍校,(07)360-5000,高雄市楠梓區軍校路993號,22.712487300000003,120.29153259999998
25,高雄林園直營服務中心,188或02-66062999,高雄市林園區東林西路74號1樓,22.5041767,120.3939483
45,高雄華榮直營服務中心,188或02-66062999,高雄市鼓山區華榮路339號、341號1樓,22.667544,120.29588700000001
14,高雄左營直營服務中心,188或02-66062999,高雄市左營區左營大路97號,22.682714,120.288276
94,湖內保生,(07)699-6132,高雄市湖內區保生路159號1樓,22.9070073,120.2196575
51,鳳山青年二直營服務中心,188或02-66062999,高雄市鳳山區文德里青年路2段474號,22.644202399999998,120.35140020000001
28,高雄瑞隆直營服務中心,188或02-66062999,高雄市前鎮區瑞隆路564號,22.605292000000002,120.3269121
2,高雄大昌一直營服務中心,188或02-66062999,高雄市三民區大昌二路252號,22.6456851,120.3321655
8,高雄覺民直營服務中心,188或02-66062999,高雄市三民區覺民路152號1樓,22.639430100000002,120.34104369999999
40,高雄新田直營服務中心,188或02-66062999,高雄市新興區新田路177號,22.621845999999998,120.30277439999999
27,高雄草衙直營服務中心,188或02-66062999,高雄市前鎮區草衙二路321號,22.5772145,120.3235257
92,梓官和平,(07)610-0000,高雄市梓官區和平路320號,22.7600277,120.26285159999998
34,高雄光華直營服務中心,188或02-66062999,高雄市苓雅區光華一路148之27號,22.624624899999997,120.3155295
114,鳳山光遠,(07)799-2979,高雄市鳳山區光遠路338號1樓,22.626064000000003,120.35951599999999
110,鳳山中山東II,(07)740-9955,高雄市鳳山區中山東路86之6號1樓,22.624302800000002,120.3714496
84,前鎮瑞隆,(07)721-0656,高雄市前鎮區永豐路85號1樓,22.605435600000003,120.3334263
3,高雄自由直營服務中心,188或02-66062999,高雄市三民區自由一路107、109號,22.643804,120.308475
104,鼓山西子灣,(07)521-2277,高雄市鼓山區臨海二路21號1樓,22.6222252,120.2730189
4,高雄明誠直營服務中心,188或02-66062999,高雄市三民區河堤路288號,22.660864399999998,120.31191129999999
6,高雄建興直營服務中心,188或02-66062999,高雄市三民區建興路310號,22.646158800000002,120.32338610000001
47,高雄鳳山直營服務中心,188或02-66062999,高雄市鳳山區中山路148之1號,22.625697,120.35684609999998
81,阿蓮忠孝,(07)631-5156,高雄市阿蓮區忠孝路199號,22.878926,120.3297969
89,茄萣仁愛,(07)690-0185,高雄市茄萣區仁愛路3段150號1樓,22.9022193,120.1839615
52,鳳山青年一直營服務中心,188或02-66062999,高雄市鳳山區青年路1段321.323號,22.628387600000003,120.34909109999998
97,楠梓後勁,(07)360-8880,高雄市楠梓區後昌路152號1樓,22.71769,120.31000900000001
63,大社中山II,(07)353-4992,高雄市大社區中山路208號,22.7318421,120.3476123
5,高雄建工直營服務中心,188或02-66062999,高雄市三民區建工路492號,22.6512824,120.3266501
90,梓官中崙,(07)610-3235,高雄市梓官區中崙路233.235號,22.760969199999998,120.2693561
116,鳳山凱旋,(07)763-3588,高雄市鳳山區凱旋路246號1樓,22.6134017,120.34962620000002
23,岡山仁壽直營服務中心,188或02-66062999,高雄市岡山區仁壽路38號1樓,22.792737,120.28960900000001
1,高雄九如直營服務中心,188或02-66062999,高雄市三民區九如一路855號,22.6398479,120.318807
55,高雄大勇直營服務中心,188或02-66062999,高雄市鹽埕區大勇路137及139號,22.626294,120.28497800000001
77,岡山前峰,(07)625-0329,高雄市岡山區前峰路99號1樓,22.796392899999997,120.2860442
42,高雄楠梓直營服務中心,188或02-66062999,高雄市楠梓區楠梓新路250號,22.727998,120.326074
103,鼓山明誠三,(07)550-2211,高雄市鼓山區明誠三路698號,22.661280800000004,120.2944179
58,三民建工II,(07)390-4077,高雄市三民區建工路722號,22.648671,120.320045
43,高雄德賢直營服務中心,188或02-66062999,高雄市楠梓區德賢路295號,22.7261077,120.30337109999999
41,高雄後昌直營服務中心,188或02-66062999,高雄市楠梓區後昌路778及780號,22.7107784,120.2960105
18,高雄富國直營服務中心,188或02-66062999,高雄市左營區富國路99號,22.6599322,120.30645630000001
70,仁武中正,(07)375-6865,高雄市仁武區中正路13號1樓,22.709666199999997,120.353113
17,高雄崇德直營服務中心,188或02-66062999,高雄市左營區崇德路247及249號,22.675276800000002,120.3042085
24,岡山柳橋東直營服務中心,188或02-66062999,高雄市岡山區柳橋東路32之5號,22.7911313,120.29528810000001
93,鳥松學堂,(07)963-0707,高雄市鳥松區學堂路32號1樓,22.658479,120.39204199999999
15,高雄自由二直營服務中心,188或02-66062999,高雄市左營區自由二路212號,22.663488,120.308454
105,旗山延平,(07)662-5522,高雄市旗山區延平一路570號,22.8875109,120.48305249999999
65,高雄大寮,(07)781-3377,高雄市大寮區鳳林四路122號,22.616068300000002,120.3864852
119,燕巢中民,(07)616-3838,高雄市燕巢區西燕里中民路674之1號,22.7934259,120.35973829999999
75,左營華夏,(07)348-8383,高雄市左營區華夏路1106號1樓,22.683405800000003,120.30827679999999
111,鳳山五甲一,(07)710-7108,高雄市鳳山區五甲一路84號1樓,22.6212096,120.3570844
88,苓雅建國一,(07)223-6205,高雄市苓雅區建國一路314號1樓,22.6329706,120.3253723
64,大社中山,(07)355-7899,高雄市大社區中山路415號1樓,22.7314578,120.3524649
72,仁武八卦寮,(07)373-9303,高雄市仁武區仁雄路6之5號1樓,22.681182999999997,120.354132
38,高雄苓雅直營服務中心,188或02-66062999,高雄市苓雅區廣州一街153之4號,22.6265061,120.3161094
53,鳳山南華直營服務中心,188或02-66062999,高雄市鳳山區南華路194號,22.603024899999998,120.33781689999999
37,高雄武廟直營服務中心,188或02-66062999,高雄市苓雅區武廟路118之8號,22.630900399999998,120.32936310000001
61,三民裕誠,(07)350-1697,高雄市三民區裕誠路86號1樓,22.664360000000002,120.313631
60,三民陽明,(07)395-8577,高雄市三民區陽明路299號1樓,22.6436732,120.3421396
22,高雄榮總直營服務中心,188或02-66062999,高雄市左營區榮總路1號,22.677974300000002,120.32165900000001
80,林園林園北,(07)642-2277,高雄市林園區林園北路300號1樓,22.510368,120.3949149
82,前金中華三,(07)285-3539,高雄市前金區中華三路212號,22.633186600000002,120.2945492
48,鳳山中山直營服務中心,188或02-66062999,高雄市鳳山區中山路81號,22.621447,120.36012099999999
29,高雄三信直營服務中心,188或02-66062999,高雄市苓雅區三多一路279號1樓,22.6220025,120.32952879999999
50,鳳山五甲二直營服務中心,188或02-66062999,高雄市鳳山區五甲三路21、23號,22.5926893,120.32769240000002
108,鳳山中山西,(07)719-1234,高雄市鳳山區中山西路238號1樓,22.6282746,120.34654420000001
117,橋頭成功,(07)611-0808,高雄市橋頭區成功路222號1樓,22.7564038,120.31095320000001
101,路竹中山II,(07)607-6789,高雄市路竹區中山路632號1樓,22.8582906,120.2603172
96,楠梓建楠,(07)354-3555,高雄市楠梓區建楠路144號,22.7271071,120.32689380000001
102,鼓山內惟,(07)582-0117,高雄市鼓山區九如四路1129號,22.659126,120.279078
59,三民博愛一,(07)3151877,高雄市三民區博愛一路190號,22.646694,120.30348000000001
7,高雄鼎山直營服務中心,188或02-66062999,高雄市三民區鼎山街632號,22.650165700000002,120.3167655
83,前鎮一心,(07)331-9917,高雄市前鎮區一心一路394號1樓,22.609071,120.316024
79,林園東林西,(07)646-0339,高雄市林園區仁愛里東林西路168號1樓,22.5033457,120.3912031
11,高雄桂林孔鳳直營服務中心,188或02-66062999,高雄市小港區孔鳳路509、511號,22.582581,120.35853190000002
115,鳳山青年,(07)776-5795,高雄市鳳山區青年路2段326號1樓,22.640394600000004,120.3512243
32,高雄四維直營服務中心,188或02-66062999,高雄市苓雅區四維三路47號,22.618910999999997,120.31061899999999
26,高雄一心直營服務中心,188或02-66062999,高雄市前鎮區一心二路43號,22.61121,120.31048659999999
54,鳳山經武直營服務中心,188或02-66062999,高雄市鳳山區經武路198號1樓,22.636870899999998,120.3643451
49,鳳山五甲直營服務中心,188或02-66062999,高雄市鳳山區五甲二路563之1號,22.595637,120.331584
57,三民天祥,(07)310-0799,高雄市三民區天祥一路145號,22.667312,120.319767
10,大寮鳳林直營服務中心,188或02-66062999,高雄市大寮區鳳林三路711號,22.6107087,120.39278840000001
85,前鎮草衙,(07)815-8555,高雄市前鎮區草衙二路465號1樓,22.58013,120.3228
113,鳳山五甲三,(07)831-3880,高雄市鳳山區五甲三路80號1樓,22.592417,120.32668100000001
52,后里甲后加盟門市,04-25567772,台中市后里區甲后路272號1樓,24.3291176,120.65625659999999
111,潭子勝利加盟門市,04-25329999,台中市潭子區勝利路282號1樓,24.2128849,120.7007074
43,大雅五權直營門市,888或449-5888,台中市北區中清路一段33號,24.152976100000004,120.6770912
74,台中精誠直營門市,888或449-5888,台中市西區精誠路116號,24.154592,120.655172
32,水湳中清直營門市,888或449-5888,台中市北屯區中清路二段522號,24.1817323,120.6664621
108,台中新社加盟門市,04-25826688,台中市新社區興安路18-38號,24.24074,120.80794329999999
12,大里成功加盟門市,04-24960371,台中市大里區成功二路49號,24.0936218,120.703547
91,台中黎明直營門市,888或449-5888,台中市南屯區黎明路一段1181號,24.141533,120.6378909
57,台中西屯直營門市,888或449-5888,台中市西屯區西屯路三段159號,24.1872722,120.6197219
4,大甲順天加盟門市,04-26762228,台中市大甲區順天路203號,24.3459938,120.62345829999998
60,台中河南加盟門市,04-24510077,台中市西屯區河南路二段404號1樓,24.173062100000003,120.64610900000001
53,后里三豐加盟門市,04-25575299,台中市后里區后里村甲后路366號,24.309575100000004,120.7180993
25,太平東平加盟門市,04-22763635,台中市太平區中興里新平路一段221號,24.133361899999997,120.716131
103,烏日光日加盟門市,04-23388326,台中市烏日區中山路二段169號1樓,24.1059486,120.6263725
110,潭子中山直營門市,888或449-5888,台中市潭子區中山路二段504號,24.2177597,120.70592590000001
49,漢口大雅直營門市,888或449-5888,台中市北區漢口路三段196號,24.166783300000002,120.67262
115,龍井遊園南直營門市,888或449-5888,台中市龍井區遊園南路207號,24.181445,120.58401210000001
26,太平中興直營門市,888或449-5888,台中市太平區中興路111之1號,24.1270406,120.7155179
72,台中美村直營門市,888或449-5888,台中市西區美村路一段26號,24.154398,120.661594
62,台中青海直營門市,888或449-5888,台中市西屯區青海路一段71號,24.164385,120.6546341
50,台中永興加盟門市,04-22365399,台中市北區賴厝里永興街333之1號,24.1669445,120.68257549999998
31,台中中清二加盟門市,04-22921118,台中市北屯區中清路二段323號,24.1789157,120.66790120000002
101,烏日中山加盟門市,04-23368283,台中市烏日區中山路一段377號,24.1079349,120.6390695
9,大里中興加盟門市,04-24852755,台中市大里區中興路二段386之8號,24.106606399999997,120.68982849999999
17,大雅中清加盟門市,04-25678800,台中市大雅區中清南路274號,24.225612899999998,120.64540079999999
21,太平勤益直營門市,888或449-5888,台中市太平區中山路一段302號,24.142891,120.733635
44,台中文心直營門市,888或449-5888,台中市北區中清路一段872號,24.1732051,120.67171
82,台中東勢加盟門市,04-25871818,台中市東勢區豐勢路340號,24.253652,120.82991499999999
69,台中忠明暢貨中心,888或449-5888,台中市西區忠明南路119號,24.152435999999998,120.65760300000001
2,大甲光明直營門市,888或449-5888,台中市大甲區光明路15號,24.3436234,120.6248209
114,台中東海直營門市,888或449-5888,台中市龍井區新興路3之3號,24.181432,120.59257659999999
120,豐原中正二直營門市,888或449-5888,台中市豐原區中正路452號,24.250877,120.710183
16,大雅中清南加盟門市,04-25677788,台中市大雅區中清南路130號,24.2220881,120.6467496
10,大里中興直營門市,888或449-5888,台中市大里區中興路二段540號,24.1133444,120.68992890000001
33,文心興安直營門市,888或449-5888,台中市北屯區文心路四段934號,24.1708625,120.6943977
5,台中大肚加盟門市,04-26991777,台中市大肚區大肚村沙田路二段585號,24.1500263,120.5457321
125,霧峰樹仁直營門市,888或449-5888,台中市霧峰區樹仁路39號,24.063854199999998,120.6971396
42,台中三民直營門市,888或449-5888,台中市北區三民路三段116之1號,24.1499657,120.6843604
106,清水中山二直營門市,888或449-5888,台中市清水區中山路195號1F,24.267464,120.57458100000001
38,台中軍功直營門市,888或449-5888,台中市北屯區軍功路二段2號,24.1760163,120.71938
96,南區美村南直營門市,888或449-5888,台中市南區美村南路120號,24.1150189,120.667083
90,南屯東興直營門市,888或449-5888,台中市南屯區東興路二段104號,24.1390694,120.6532153
64,逢甲福星直營門市,888或449-5888,台中市西屯區福星路349號,24.1805951,120.6451624
20,台中中華直營門市,888或449-5888,台中市中區台灣大道一段555號,24.1449,120.67658030000001
54,台中遠百直營門市,888或449-5888,台中市西屯區台灣大道三段251號B2,24.163700199999997,120.64461670000001
93,台中文心南直營門市,888或449-5888,台中市南區文心南路745號,24.113062600000003,120.6571558
19,台中中正加盟門市,04-22256008,台中市中區台灣大道1段85號,24.1367808,120.6850085
13,大里東榮加盟門市,04-24820969,台中市大里區東榮路364號,24.110311,120.6837815
15,大雅民生加盟門市,04-25674567,台中市大雅區上雅村民生路一段380號,24.2287646,120.6547575
109,潭子頭家厝直營門市,888或449-5888,台中市潭子區中山路一段19之6號,24.190340300000003,120.7023055
95,台中興大直營門市,888或449-5888,台中市南區建成路1629號,24.126094000000002,120.674881
63,台中漢口直營門市,888或449-5888,台中市西屯區漢口路二段298號,24.1664087,120.66439979999998
37,台中松竹加盟門市,04-22463770,台中市北屯區松竹路二段197號,24.183057,120.69501299999999
48,進化學士直營門市,888或449-5888,台中市北區進化北路345號,24.163086800000002,120.6805361
84,台中大墩加盟門市,04-24755888,台中市南屯區大墩路295號,24.143949499999998,120.649732
88,台中向心南直營門市,888或449-5888,台中市南屯區向心南路971號,24.137288,120.64360500000001
99,復興工學直營門市,888或449-5888,台中市南區復興路二段2-1號,24.117087899999998,120.657855
65,福星河南直營門市,888或449-5888,台中市西屯區福星路613號,24.1750421,120.64694650000001
118,豐原中山加盟門市,04-25238748,台中市豐原區中山路321號,24.24845,120.71498000000001
61,台中河南二加盟門市,04-27062801,台中市西屯區河南路二段472之1號,24.170559,120.64301999999999
11,大里立仁加盟門市,04-22759879,台中市大里區立仁路73號,24.1079977,120.70349840000002
29,太平樹孝加盟門市,04-23921958,台中市太平區樹孝路39之10號,24.1501832,120.7162468
83,東勢豐勢直營門市,888或449-5888,台中市東勢區豐勢路429號,24.2565622,120.82849820000001
58,西屯中科直營門市,888或449-5888,台中市西屯區西屯路三段166之45號,24.1902391,120.61339369999999
89,南屯忠勇加盟門市,04-23822872,台中市南屯區忠勇路80-26號,24.1529888,120.61658919999999
59,中港大墩直營門市,888或449-5888,台中市西屯區何成里大墩路905號,24.156894,120.65020600000001
79,台中十甲直營門市,888或449-5888,台中市東區十甲路377號,24.1446367,120.70739579999999
66,中科永福加盟門市,04-24631155,台中市西屯區福雅里永福路62號,24.183147899999998,120.62026809999999
92,黎明公益直營門市,888或449-5888,台中市南屯區黎明路二段442號B1及1樓,24.152382100000004,120.6348301
98,復興愛買直營門市,888或449-5888,台中市南區復興路一段359號,24.1146951,120.65433829999999
67,台中公益直營門市,888或449-5888,台中市西區公益路153號,24.1506965,120.6643664
6,大里大明直營門市,888或449-5888,台中市大里區大明路297號,24.1149923,120.68080659999998
73,台中美村二直營門市,888或449-5888,台中市西區美村路一段578號,24.138365,120.661442
51,台中外埔加盟門市,04-26764567,台中市外埔區甲后路704號,24.341912899999997,120.6387753
40,台中崇德二直營門市,888或449-5888,台中市北屯區崇德路二段2之1號,24.177658899999997,120.68559599999999
23,太平中山加盟門市,04-23913886,台中市太平區中山路三段146號,24.149064000000003,120.718149
70,台中忠明維修站,888或449-5888,台中市西區忠明南路119號2樓,24.152435999999998,120.65760300000001
22,太平中山加盟門市,04-23913886,台中市太平區中山路三段146號,24.149064000000003,120.718149
55,西屯文華直營門市,888或449-5888,台中市西屯區西屯路二段282-13號,24.176482,120.643597
39,台中崇德三直營門市,888或449-5888,台中市北屯區崇德路二段170號,24.1729694,120.6857463
107,清水中山直營門市,888或449-5888,台中市清水區光復街39-1號,24.270667,120.57640520000001
14,大里塗城直營門市,888或449-5888,台中市大里區塗城路662號,24.0893749,120.69931809999999
41,台中遼寧加盟門市,04-22437677,台中市北屯區遼寧路一段79號,24.175763600000003,120.69659720000001
75,沙鹿中山加盟門市,04-26630999,台中市沙鹿區中山路256號,24.237987,120.5606429
36,台中昌平直營門市,888或449-5888,台中市北屯區昌平路二段3之4號,24.176997699999998,120.690551
124,霧峰中正加盟門市,04-23306567,台中市霧峰區中正路966號,24.0658984,120.69896159999999
35,台中昌平加盟門市,04-22479198,台中市北屯區昌平路一段99號,24.173072,120.6904369
116,豐原站前直營門市,888或449-5888,台中市豐原區三民路33號,24.253578,120.721703
102,烏日中山二加盟門市,04-23369008,台中市烏日區中山路一段602號,24.106399399999997,120.63411570000001
27,台中小鎮加盟門市,04-22750285,台中市太平區太平路200號,24.121010199999997,120.72026070000001
46,台中北平直營門市,888或449-5888,台中市北區北平路二段126號,24.1712497,120.67733799999999
1,大甲中山加盟門市,04-26888111,台中市大甲區中山路999號,24.3469006,120.6275673
18,台中大雅直營門市,888或449-5888,台中市大雅區民生路一段159號,24.2271757,120.6496149
113,龍井新興加盟門市,04-26332345,台中市龍井區新東村新興路40-10號,24.181110600000004,120.5878885
8,大里中興二直營門市,888或449-5888,"台中市大里區中興路二段336,338號",24.10838,120.68997079999998
86,台中嶺東直營門市,888或449-5888,"台中市南屯區永春南路72,76號",24.138676999999998,120.61116000000001
34,台中北屯直營門市,888或449-5888,台中市北屯區北屯路198之9號,24.1662319,120.695301
81,太平精武加盟門市,04-22127688,台中市東區精武東路152號,24.149034,120.70901609999999
97,台中美村南加盟門市,04-22613269,台中市南區美村南路18號,24.1184384,120.666922
122,豐原環東加盟門市,04-25229888,台中市豐原區南陽里圓環東路345號,24.245244500000002,120.723996
119,豐原中正直營門市,888或449-5888,台中市豐原區中正路207號,24.251669,120.718154
71,台中東興直營門市,888或449-5888,台中市西區東興路三段54號,24.1464181,120.65316770000001
94,台中後站直營門市,888或449-5888,台中市南區台中路82號,24.1336,120.68313300000001
24,太平中山直營門市,888或449-5888,台中市太平區中山路四段209號,24.1479491,120.70144850000001
76,台中沙鹿直營門市,888或449-5888,台中市沙鹿區中山路413號,24.2418375,120.5607957
7,大里塗城加盟門市,04-24966106,台中市大里區中興路一段287號,24.091488199999997,120.69151299999999
56,台中西屯二直營門市,888或449-5888,台中市西屯區西屯路二段30之2號,24.164136199999998,120.6608137
117,豐原中山二直營門市,888或449-5888,台中市豐原區中山路143-5號,24.2397467,120.7113318
78,沙鹿沙田加盟門市,04-26652111,台中市沙鹿區沙田路178號,24.2372783,120.55990770000001
47,台中忠明加盟門市,04-23295776,台中市北區西屯路一段409號,24.1621491,120.6639834
3,大甲經國加盟門市,04-26802188,台中市大甲區庄美里蔣公路308號,24.34808,120.617328
45,台中一中直營門市,888或449-5888,台中市北區太平路34之1號,24.148147199999997,120.68435600000001
121,豐原成功加盟門市,04-25255667,台中市豐原區社皮里中正路612號,24.2501693,120.7062071
30,太平樹孝加盟門市,04-23921958,台中市太平區樹孝路39之10號,24.1501832,120.7162468
112,潭子潭興直營門市,888或449-5888,台中市潭子區潭興路三段22號,24.211608899999998,120.7043463
104,神岡社口加盟門市,04-25630066,台中市神岡區民生路12號,24.243159,120.6752977
105,台中梧棲加盟門市,04-26580988,台中市梧棲區文化路二段147號,24.255547,120.530596
80,台中新時代直營門市,888或449-5888,台中市東區復興路四段152號1-3F,24.135873999999998,120.68676299999998
100,台中復興直營門市,888或449-5888,台中市南區復興路三段256號,24.131629999999998,120.676934
87,向上黎明直營門市,888或449-5888,台中市南屯區向上路二段433號,24.1469198,120.63746019999999
77,沙鹿光田直營門市,888或449-5888,台中市沙鹿區沙田路118號1F,24.235597,120.55928600000001
85,台中大墩直營門市,888或449-5888,"台中市南屯區大墩路502,504號",24.148690300000002,120.6498334
28,太平太平加盟門市,04-23510988,台中市太平區太平路608號,24.1260832,120.71251129999999
68,台中維修站,888或449-5888,台中市西區台灣大道二段186號8樓之一,24.151376899999995,120.6700861
123,豐原向陽加盟門市,04-25220228,台中市豐原區圓環東路678號,24.250794,120.728675
52,台南鹽埕加盟門市,06-2918585,台南市南區金華路一段442號,22.9721235,120.1907946
72,關廟中山加盟門市,06-5965939,台南市關廟區中山路二段142號1樓,22.960257199999997,120.3259946
59,台南善化二加盟門市,06-5833338,台南市善化區中山路216之2號,23.1325349,120.2988676
43,台南仁和加盟門市,06-2676888,台南市東區仁和路108-1號,22.9720997,120.232482
33,台南海佃直營門市,888或449-5888,台南市安南區海佃路一段128號,23.0231593,120.1919676
32,台南安和二直營門市,888或449-5888,台南市安南區安和路五段128號,23.0655759,120.21837450000001
73,台南鹽水加盟門市,06-6521171,台南市鹽水區水正里中正路19號1樓,23.320201500000003,120.26786270000001
67,新營民治加盟門市,06-6565309,台南市新營區民治路340號,23.3060423,120.30327150000001
6,台南成功加盟門市,06-2593118,台南市中西區成功路559號,23.0029453,120.1941604
12,台南文賢直營門市,888或449-5888,台南市北區文賢路512號,23.006904100000003,120.19378259999999
60,善化中正加盟門市,06-5852033,台南市善化區中正路462號,23.1311169,120.2939866
29,台南安中加盟門市,06-2466788,台南市安南區安中路三段333號,23.048555800000003,120.1766814
51,台南金華一加盟門市,06-2910789,台南市南區金華路一段204號,22.9663829,120.19013259999998
4,台南永樂直營門市,888或449-5888,台南市中西區民族路三段32號,22.997938100000002,120.19889369999999
53,台南金華直營門市,888或449-5888,台南市南區金華路二段134號,22.97889,120.19158300000001
23,永康中華直營門市,888或449-5888,台南市永康區中華路152號,23.003410000000002,120.23551
40,台南華東加盟門市,06-2607555,台南市東區中華東路2段151號,22.9851994,120.23322490000001
25,永康大橋加盟門市,06-3036808,台南市永康區中華路659-4號,23.0155775,120.2292472
22,台南鹽行加盟門市,06-2437999,台南市永康區中正北路86號,23.041348499999998,120.24068179999999
55,麻豆中山加盟門市,06-5718900,台南市麻豆區中山路114號,23.1838388,120.2445313
39,台南成大直營門市,888或449-5888,台南市東區大學路西段19號,22.9961557,120.21770829999998
49,台南崇學直營門市,888或449-5888,台南市東區崇學路169號,22.9801213,120.22345859999999
26,白河康樂加盟門市,06-6852117,台南市白河區中山路32之2號,23.346117800000002,120.41300990000002
41,台南裕農暢貨中心,888或449-5888,台南市東區中華東路一段269號,22.9889266,120.23383899999999
62,台南新化二直營門市,888或449-5888,台南市新化區中山路533號,23.0359435,120.30204909999999
36,佳里光復加盟門市,06-7235567,台南市佳里區光復路215號,23.1605805,120.1746256
50,台南西門二加盟門市,06-2273999,台南市南區西門路一段639號,22.9859567,120.1974115
31,台南安和直營門市,888或449-5888,台南市安南區安和路一段308號,23.032429999999998,120.212608
9,台南仁德直營門市,888或449-5888,台南市仁德區中山路451號,22.970956,120.25610490000001
35,台南西港加盟門市,06-7955269,台南市西港區中山路331號,23.1234543,120.20307509999999
38,台南大同直營門市,888或449-5888,台南市東區大同路二段95號,22.978778,120.213555
44,台南東門直營門市,888或449-5888,台南市東區東門路二段127號,22.9858282,120.2220587
27,台南華平加盟門市,06-2930000,台南市安平區華平路489號,22.9933275,120.175242
2,台南民生直營門市,888或449-5888,台南市中西區民生路一段207號,22.9942253,120.19947720000002
46,台南東寧二加盟門市,06-2003579,台南市東區東寧路385號1樓,22.989839399999997,120.22895619999998
1,台南民族直營門市,888或449-5888,台南市中西區中山路100號,22.994615300000003,120.20850800000001
16,永康大灣加盟門市,06-2050555,台南市永康區大灣路788號,23.000556,120.25891399999999
18,永康中北加盟門市,06-2019499,台南市永康區中山北路48號1樓,23.02603,120.258458
8,台南府前加盟門市,06-2295333,台南市中西區府前路二段191號,22.991394,120.19243200000001
5,台南永華加盟門市,06-2263690,台南市中西區永華路一段184號,22.988353,120.1919
42,台南中華直營門市,888或449-5888,"台南市東區中華東路三段18,20號",22.9808026,120.22880259999998
63,新市中正加盟門市,06-5891999,台南市新市區中正路321-3號,23.0796818,120.2941561
17,台南崑山直營門市,888或449-5888,台南市永康區大灣路955號,22.998783300000003,120.25278870000001
34,台南海佃加盟門市,06-3588678,台南市安南區海佃路一段286號,23.0265941,120.19127320000001
57,台南麻豆加盟門市,06-5707033,台南市麻豆區興中路3號1樓,23.183768,120.24868670000001
64,台南新市加盟門市,06-5011818,台南市新市區仁愛街298號,23.0769982,120.29394099999999
20,台南中山南直營門市,888或449-5888,台南市永康區中山南路28號,23.0120905,120.22746599999999
71,台南歸仁加盟門市,06-3309777,台南市歸仁區中山路二段265號,22.967324800000004,120.28809109999999
69,學甲中正加盟門市,06-7823977,台南市學甲區中正路173號,23.231673699999998,120.17963200000001
19,永康農會加盟門市,06-2332188,台南市永康區中山南路1026號,23.025149600000002,120.2552533
13,台南小北直營門市,888或449-5888,台南市北區西門路四段34號,23.0066981,120.206447
15,永康大灣二加盟門市,06-2730678,台南市永康區大灣路346號,23.0060861,120.26684399999999
24,台南永康加盟門市,06-3133636,台南市永康區中華路227號,23.0053091,120.235173
66,新營中山直營門市,888或449-5888,台南市新營區中山路183號,23.303332,120.31538400000001
7,台南西門直營門市,888或449-5888,台南市中西區西門路一段719號,22.9889698,120.19737250000001
56,麻豆興中加盟門市,06-5723399,台南市麻豆區興中路169之4號,23.183828899999998,120.25318200000001
61,台南新化加盟門市,06-5800101,台南市新化區中山路233號,23.035917,120.308627
58,善化站前加盟門市,06-5831377,台南市善化區中山路127號,23.132842800000002,120.30220209999999
48,台南市醫加盟門市,06-2675696,台南市東區崇德路659-2號,22.9703881,120.22778100000001
47,台南崇德直營門市,888或449-5888,台南市東區崇德路557號,22.973232,120.22759199999999
14,台南開元加盟門市,06-2085951,台南市北區開元路408號1樓,23.0104885,120.2254055
3,台南民族一加盟門市,06-2200083,台南市中西區民族路三段290號,23.000283,120.19220659999999
45,台南東寧直營門市,888或449-5888,台南市東區東寧路226號,22.9906081,120.2249702
65,台南新營加盟門市,06-6378988,台南市新營區三民路89號,23.3068665,120.3134568
30,台南安中加盟門市,06-2466788,台南市安南區安中路三段333號,23.048555800000003,120.1766814
37,佳里延平加盟門市,06-7230303,台南市佳里區延平路282號,23.160353,120.178541
11,台南公園直營門市,888或449-5888,台南市北區公園路898之3號,23.014360800000002,120.2129626
70,台南歸仁二加盟門市,06-2307199,台南市歸仁區中山路一段589號,22.9664642,120.29562390000001
10,仁德中正加盟門市,06-2495569,台南市仁德區中正路二段465號,22.954975899999997,120.2525376
28,台南安中二直營門市,888或449-5888,台南市安南區安中路一段810號,23.0435626,120.19481809999999
68,新營民權直營門市,888或449-5888,台南市新營區民權路30-4號,23.303886600000002,120.31319450000001
21,永康中山直營門市,888或449-5888,台南市永康區中山南路463號,23.021745000000003,120.248139
54,台南金華二直營門市,888或449-5888,台南市南區金華路二段223號,22.9827674,120.19138909999998
8,新竹竹科直營門市,888或449-5888,新竹市東區光復路一段184號,24.781871,121.022268
5,新竹巨城直營門市,888或449-5888,新竹市東區中央路229號B1,24.8094861,120.974721
3,新竹湳雅加盟門市,03-5315788,新竹市北區湳雅街24號,24.8174251,120.97025
9,新竹林森加盟門市,03-5236888,新竹市東區林森路101號,24.8006417,120.96699879999998
6,新竹竹塹直營門市,888或449-5888,新竹市東區中正路2號,24.8023357,120.97170700000001
12,新竹香山加盟門市,03-5305000,新竹市香山區中華路五段10號,24.788592,120.92828300000001
4,新竹經國加盟門市,03-5226525,新竹市北區經國路二段535號,24.8045465,120.95570740000001
2,新竹西大加盟門市,03-5210661,新竹市北區西大路469號,24.804830199999998,120.9632232
11,新竹建功直營門市,888或449-5888,新竹市東區建功路11號,24.796476100000003,120.99812709999999
10,新竹南大直營門市,888或449-5888,新竹市東區南大路315號,24.7978304,120.9703574
7,新竹愛買直營門市,888或449-5888,新竹市東區公道五路二段469號,24.804445899999997,120.9929709
1,新竹中正直營門市,888或449-5888,新竹市北區中正路259號,24.8128408,120.9636887
8,竹東東寧加盟門市,03-5102200,新竹縣竹東鎮東寧路三段85號,24.7385723,121.0866068
5,竹北光明直營門市,888或449-5888,新竹縣竹北市光明六路121號,24.827875,121.007694
15,新竹新豐加盟門市,03-5573399,新竹縣新豐鄉松林村新興路167之3號,24.8685245,120.9945229
14,新竹新埔加盟門市,035-885050,新竹縣新埔鎮中正路310號,24.8277109,121.0804557
3,竹北中正東加盟門市,03-5533998,新竹縣竹北市中正東路217號,24.8350171,121.01473100000001
9,竹東長春加盟門市,03-5963235,新竹縣竹東鎮長春路二段7號,24.7371728,121.0888433
6,竹北自強直營門市,888或449-5888,新竹縣竹北市自強南路160號1樓,24.8161322,121.02485190000002
12,新竹湖口加盟門市,03-5990997,新竹縣湖口鄉孝勢村民族街86號,24.9019949,121.04510800000001
13,湖口達生加盟門市,03-6992228,新竹縣湖口鄉達生路93號1樓,24.902181,121.0479993
4,竹北中華加盟門市,03-5558665,新竹縣竹北市中正東路517號,24.838525699999998,121.00546840000001
2,竹北中正西直營門市,888或449-5888,新竹縣竹北市中正西路112號,24.840348199999998,121.0019767
11,新竹竹東直營門市,888或449-5888,新竹縣竹東鎮長春路三段194號,24.7441071,121.08327209999999
10,竹東長春加盟門市,03-5963235,新竹縣竹東鎮長春路二段7號,24.7371728,121.0888433
17,新竹關西加盟門市,03-5875866,新竹縣關西鎮西安里正義路69號1樓,24.7934253,121.17595449999999
16,新豐站前直營門市,888或449-5888,新竹縣新豐鄉新興路241號,24.870185600000003,120.99667360000001
7,竹北博愛加盟門市,03-5538100,新竹縣竹北市博愛街441號,24.8378109,121.0095493
1,竹北三民加盟門市,03-5527800,新竹縣竹北市三民路347號,24.8336482,121.0109176
52,桃園中正二加盟門市,03-3253377,桃園市桃園區中正路618號,25.004962699999997,121.304722
43,桃園三民直營門市,888或449-5888,桃園市桃園區三民路三段190號,24.992688100000002,121.30580259999998
74,龍潭北龍加盟門市,03-4791295,桃園市龍潭區北龍路14號,24.865094,121.211491
32,中壢新生直營門市,888或449-5888,桃園市中壢區新生路266號,24.963300600000004,121.2231175
12,桃園大溪加盟門市,03-3880055,桃園市大溪區一心里慈湖路43號1樓,24.8828107,121.2891265
57,桃園成功直營門市,888或449-5888,桃園市桃園區成功路二段55號,24.9941109,121.315793
4,八德介壽加盟門市,03-3678222,桃園市八德區介壽路一段999號,24.958545899999997,121.29963400000001
60,桃園桃鶯加盟門市,03-3756820,桃園市桃園區桃鶯路122之2號,24.9846448,121.31812240000002
53,桃園大興加盟門市,03-3169699,桃園市桃園區中正路931號,25.0124913,121.2999003
25,內壢文化加盟門市,03-4556177,桃園市中壢區文化路354號,24.979077899999997,121.25100549999999
49,桃園中正三加盟門市,03-3253338,桃園市桃園區中正路1221之1號,25.019977700000002,121.29656499999999
26,中壢日新直營門市,888或449-5888,桃園市中壢區日新路75號,24.955233,121.239842
72,龍潭中興加盟門市,03-4991825,桃園市龍潭區中興路345號,24.873439,121.2324804
62,桃園龍安加盟門市,03-3441434,桃園市桃園區龍安街121-1號,24.9901597,121.2797173
50,桃園遠百直營門市,888或449-5888,桃園市桃園區中正路20號B1,24.9897388,121.31379479999998
31,中壢健行加盟門市,03-4577505,桃園市中壢區健行路179號,24.9483349,121.22783770000001
9,大園中正東加盟門市,03-3843151,桃園市大園區中正東路151號,25.0620346,121.20278700000001
17,中壢中山東二加盟門市,03-4560288,桃園市中壢區中山東路三段198號,24.942705,121.249625
21,中壢中央直營門市,888或449-5888,桃園市中壢區中央西路一段102號1F,24.958385,121.220913
44,桃園大有加盟門市,03-3558888,桃園市桃園區大有路648號,25.0160562,121.3168033
82,桃園大竹加盟門市,03-3238889,桃園市蘆竹區大竹路506之27號,25.023035,121.26096899999999
69,楊梅永美加盟門市,03-4311766,桃園市楊梅區永美路357號,24.9168677,121.18172340000002
2,八德介壽二加盟門市,03-3672727,桃園市八德區介壽路一段784號,24.963048800000003,121.2999185
16,中壢中原加盟門市,03-4560931,桃園市中壢區中山東路二段126號,24.9531001,121.2391544
10,桃園機場一期直營門市,888或449-5888,桃園市大園區航站南路15號1樓(入境服務中心),25.077863699999998,121.2359584
33,中壢南區加盟門市,03-4265888,桃園市中壢區興南里新生路150號,24.9607296,121.2230835
5,八德更寮腳加盟門市,03-3653355,桃園市八德區介壽路二段1188號,24.9312422,121.2971987
42,中壢環南加盟門市,03-4948000,桃園市平鎮區環南路2號1樓,24.957195499999997,121.2067034
38,平鎮南勢直營門市,888或449-5888,桃園市平鎮區中豐路南勢二段104號1-3F,24.9167261,121.2107134
90,觀音草漯加盟門市,03-4761177,桃園市觀音區草漯村大觀路二段171號,25.0457574,121.14100520000001
64,新屋中山加盟門市,03-4972203,桃園市新屋區中山路336號,24.972873800000002,121.10499779999999
20,中壢中北加盟門市,03-4662853,桃園市中壢區中北路二段458號1樓,24.9547425,121.2337452
54,桃園中華直營門市,888或449-5888,桃園市桃園區中華路20號,24.9911599,121.311178
19,中壢中山加盟門市,03-4257877,桃園市中壢區中山路145號,24.9558003,121.22422959999999
13,桃園崎頂加盟門市,03380-2255,桃園市大溪區介壽路842號,24.9012952,121.2836639
15,中壢大同加盟門市,03-4261887,桃園市中壢區大同路130號,24.9570237,121.221974
63,桃園寶山加盟門市,03-3558880,桃園市桃園區寶山街78號,25.0128865,121.3173966
37,平鎮中豐加盟門市,03-4691229,桃園市平鎮區中豐路山頂段199號,24.899635699999997,121.211005
48,桃園中平加盟門市,03-2208777,桃園市桃園區中平路29號,24.989729,121.292273
84,蘆竹仁愛加盟門市,03-3121808,桃園市蘆竹區仁愛路三段1號,25.0533326,121.3001591
88,蘆竹南崁加盟門市,03-3113366,桃園市蘆竹區南崁路225號,25.0485369,121.2933904
65,楊梅大成直營門市,888或449-5888,桃園市楊梅區大成路157號,24.9117573,121.1456051
61,桃園國際加盟門市,03-3795818,桃園市桃園區國際路一段1105-2號,24.986863500000002,121.28931979999999
11,桃園機場二期直營門市,888或449-5888,桃園市大園區航站南路9號1樓(入境服務中心),25.0770139,121.232025
29,中壢延平直營門市,888或449-5888,桃園市中壢區延平路602號,24.954464899999998,121.222027
83,南崁中正加盟門市,03-3526161,桃園市蘆竹區中正路122號,25.0463822,121.29279009999999
58,桃園民生加盟門市,03-3359797,桃園市桃園區武陵里民生路28號,24.990599600000003,121.31557839999999
89,觀音新坡加盟門市,03-4988299,桃園市觀音區中山路二段713號,25.0125374,121.13699109999999
59,桃園南平直營門市,888或449-5888,桃園市桃園區南平路402號,25.0173923,121.29650190000001
79,林口長庚直營門市,888或449-5888,桃園市龜山區復興一路128號,25.0586832,121.3673031
66,楊梅愛買直營門市,888或449-5888,桃園市楊梅區中山北路二段23巷6號,24.9077655,121.1680568
67,楊梅大成加盟門市,03-4881166,桃園市楊梅區中山路98號,24.9069591,121.14569990000001
6,八德廣福加盟門市,03-3771077,桃園市八德區廣福路166號,24.9597585,121.2954511
73,龍潭北龍直營門市,888或449-5888,桃園市龍潭區北龍路134號,24.86616,121.21428700000001
51,桃園中正直營門市,888或449-5888,桃園市桃園區中正路515號,25.002786399999998,121.30575309999999
40,平鎮宋屋加盟門市,03-4910831,桃園市平鎮區延平路三段24號,24.941917999999998,121.20538810000001
23,內壢中華直營門市,888或449-5888,桃園市中壢區中華路一段198號,24.973617,121.259499
70,桃園楊梅加盟門市,03-4855588,桃園市楊梅區新成路104號,24.910699100000002,121.1467466
22,中壢中正加盟門市,03-4023030,桃園市中壢區中正路351號,24.955255899999997,121.21656399999999
55,桃園民生二加盟門市,03-3395757,桃園市桃園區民生路367號,24.999254500000003,121.31075659999999
39,平鎮和平加盟門市,03-4593899,桃園市平鎮區和平路213號,24.9457375,121.2195908
14,大溪慈湖加盟門市,03-3883309,桃園市大溪區慈湖路86號,24.881575899999998,121.28874950000001
41,平鎮復旦加盟門市,03-4026655,桃園市平鎮區復旦路2號,24.945694800000002,121.2000364
75,龜山中興直營門市,888或449-5888,桃園市龜山區中興路一段21號,24.9939958,121.3376498
36,內壢環中東加盟門市,03-4612171,桃園市中壢區環中東路9號,24.9670108,121.2605433
35,內壢環中東二加盟門市,888或449-5888,桃園市中壢區環中東路252號,24.962211899999996,121.25499140000001
27,中壢中福加盟門市,03-4615668,桃園市中壢區幸福里福州二街466號,24.9679343,121.23324709999999
46,桃園中山直營門市,888或449-5888,桃園市桃園區中山路445號,24.991614000000002,121.299655
1,八德桃鶯加盟門市,03-3749558,桃園市八德區大明里桃鶯路70號,24.970672699999998,121.3273196
18,中壢中山東加盟門市,03-4664567,桃園市中壢區中山東路四段126號,24.9354546,121.25742520000001
8,桃園大園加盟門市,03-3841818,桃園市大園區中山北路11號,25.064376199999998,121.197033
86,蘆竹南山直營門市,888或449-5888,桃園市蘆竹區南山路一段2之5號,25.052749,121.291549
34,中壢龍東直營門市,888或449-5888,桃園市中壢區龍東路305號,24.931680899999996,121.25461299999999
81,桃園大竹二加盟門市,03-3132976,桃園市蘆竹區大竹路428-8號,25.0210296,121.2642567
71,龍潭中正加盟門市,03-4805177,桃園市龍潭區中正路147之1號,24.8667479,121.216904
24,內壢站前加盟門市,03-4630000,桃園市中壢區中華路一段294號,24.9727988,121.25736850000001
76,龜山文化加盟門市,03-3185353,桃園市龜山區文化二路133號,25.053885,121.37054099999999
7,大園?林加盟門市,03-3837676,桃園市大園區?林村三民路二段603號,25.075032699999998,121.26078799999999
56,桃園永安加盟門市,03-3322993,桃園市桃園區永安路367之1號,24.999955,121.29963799999999
78,龜山迴龍加盟門市,02-82000229,桃園市龜山區迴龍村萬壽路一段240號,25.018683,121.4089158
47,桃園愛買直營門市,888或449-5888,桃園市桃園區中山路939號,24.9848335,121.28617179999999
3,桃園八德直營門市,888或449-5888,桃園市八德區介壽路一段884號,24.960117699999998,121.29949579999999
45,桃園大業加盟門市,03-3257555,桃園市桃園區大興路172號,25.0159096,121.3113686
30,內壢忠孝加盟門市,03-4612357,桃園市中壢區忠孝路115號,24.97525,121.25525900000001
80,桃園龜山加盟門市,03-3494499,桃園市龜山區新樂街29號,24.9933375,121.33561370000001
87,蘆竹南竹加盟門市,03-3224567,桃園市蘆竹區南竹路一段51號1樓,25.0467178,121.2909258
77,龜山文化二加盟門市,03-3187888,桃園市龜山區文化二路48號,25.0570695,121.36652579999999
85,蘆竹忠孝加盟門市,03-3121811,桃園市蘆竹區忠孝西路59號,25.0422873,121.29096100000001
28,中壢延平二加盟門市,03-2806685,桃園市中壢區延平路263號,24.9611828,121.22655900000001
68,埔心站前加盟門市,03-4313193,桃園市楊梅區中興路5號,24.9190242,121.18403590000001
52,台北館前直營門市,888或449-5888,台北市中正區館前路43號,25.0453997,121.5151274
43,台北錦州直營門市,888或449-5888,台北市中山區錦州街423號,25.0603742,121.54231829999999
74,北投明德門市,888或449-5888,台北市北投區明德路121號1F,25.109964399999996,121.51998130000001
32,大直北安直營門市,888或449-5888,台北市中山區北安路542之1號,25.079943,121.547899
12,台北延平北直營門市,888或449-5888,台北市大同區延平北路二段111號,25.057105,121.51169399999999
91,台北後山埤直營門市,888或449-5888,台北市南港區忠孝東路五段1000號,25.0450089,121.5827888
57,內湖成功直營門市,888或449-5888,台北市內湖區成功路四段52號,25.0823393,121.59224009999998
4,士林文林加盟門市,02-28835959,台北市士林區文林路195號,25.0898331,121.5269221
60,內湖葫洲直營門市,888或449-5888,台北市內湖區康寧路三段21號,25.0728615,121.60728370000001
53,台北維修中心,888或449-5888,台北市中正區館前路43號B1,25.0453997,121.5151274
25,台北通化加盟門市,02-23789706,台北市大安區通化街99號,25.0297297,121.5542119
49,台北車站直營門市,888或449-5888,台北市中正區忠孝西路一段49號B1,25.046384600000003,121.5178642
26,忠孝復興直營門市,888或449-5888,台北市大安區復興南路一段153號,25.0420074,121.5439821
72,北投光明二加盟門市,02-28975678,台北市北投區光明路61號,25.132990799999998,121.5000452
62,文山木柵加盟門市,02-29379862,台北市文山區木柵路三段101號,24.988897899999998,121.56798300000001
50,台北南昌直營門市,888或449-5888,台北市中正區南昌路一段35號,25.0316804,121.51702420000001
31,台北農安直營門市,888或449-5888,台北市中山區 農安街17號,25.065073,121.524002
101,台北西門直營門市,888或449-5888,台北市萬華區漢中街35號,25.044970000000003,121.507731
9,台北德行東加盟門市,888或449-5888,台北市士林區德行東路197號,25.109087399999996,121.5319699
17,台北光復南直營門市,888或449-5888,台北市大安區光復南路454號,25.0355529,121.55728329999998
21,台北延吉直營門市,888或449-5888,台北市大安區延吉街154號,25.0395681,121.5548772
44,台北龍江加盟門市,02-25179987,台北市中山區龍江路356巷17號,25.0661263,121.5402114
82,台北微風直營門市,888或449-5888,台北市松山區復興南路一段35號,25.046173800000002,121.5441598
69,台北北投加盟門市,02-28966606,台北市北投區中和街232號,25.139295,121.501616
2,士林中正直營門市,888或449-5888,台北市士林區中正路387號,25.094092,121.521533
16,台北永康直營門市,888或449-5888,台北市大安區永康街11號,25.032839000000003,121.529866
10,台北雙連直營門市,888或449-5888,台北市大同區民生西路57號,25.0577277,121.520325
33,中山民權二直營門市,888或449-5888,台北市中山區民權西路42號,25.062580899999997,121.52101019999999
5,士林文林直營門市,888或449-5888,台北市士林區文林路55號,25.0871112,121.5256435
42,台北興安直營門市,888或449-5888,台北市中山區興安街98號,25.05581,121.54241699999999
38,台北林森加盟門市,02-25818883,台北市中山區林森北路410之2號,25.0596579,121.5253804
96,台北西寧南直營門市,888或449-5888,台北市萬華區西寧南路62號,25.0438099,121.50611799999999
90,南港忠孝加盟門市,02-66152288,台北市南港區忠孝東路七段618號,25.0529687,121.6158496
64,文山景興直營門市,888或449-5888,台北市文山區景興路183號1F,24.9927392,121.5444176
20,台北和平東直營門市,888或449-5888,台北市大安區和平東路二段169號,25.0253206,121.54162930000001
54,台北西湖直營門市,888或449-5888,台北市內湖區內湖路一段317號,25.082322,121.5677183
93,台北南港直營門市,888或449-5888,台北市南港區南港路一段163號,25.0551255,121.61343159999998
19,台北師大直營門市,888或449-5888,台北市大安區和平東路一段159號,25.026586399999996,121.5314405
13,台北延三直營門市,888或449-5888,台北市大同區延平北路三段74號,25.065556100000002,121.5109283
15,台北酒泉加盟門市,02-25969755,台北市大同區酒泉街78號,25.0718379,121.51503970000002
95,台北西園直營門市,888或449-5888,台北市萬華區西園路二段227之1號,25.026797,121.494022
63,木柵木新加盟門市,02-29386010,台北市文山區木新路三段167號,24.9815817,121.5608122
37,台北林森北直營門市,888或449-5888,台北市中山區林森北路260號,25.0545782,121.5252926
48,台北汀州加盟門市,02-23680299,台北市中正區汀州路三段145號,25.016019600000003,121.53106709999999
84,台北永春直營門市,888或449-5888,台北市信義區忠孝東路五段436號,25.040684,121.57583899999999
88,台北莊敬直營門市,888或449-5888,台北市信義區莊敬路471號,25.026905600000003,121.5680295
99,台北萬大直營門市,888或449-5888,台北市萬華區萬大路290號,25.025326500000002,121.500254
65,文山萬芳加盟門市,02-22398811,台北市文山區興隆路三段130號,24.998923,121.5578244
61,內湖瑞光直營門市,888或449-5888,台北市內湖區瑞光路468號,25.078345000000002,121.569943
11,台北承德加盟門市,02-25930057,台北市大同區民族西路64號,25.0683664,121.5181723
29,台北遠企直營門市,888或449-5888,台北市大安區敦化南路二段209號1樓,25.025786,121.54931599999999
83,忠孝市府直營門市,888或449-5888,台北市信義區忠孝東路五段137號1樓及B1,25.0412647,121.56782520000002
58,內湖東湖直營門市,888或449-5888,台北市內湖區東湖路123號,25.0683017,121.6165625
89,台北中坡南直營門市,888或449-5888,台北市信義區福德街189號,25.0382651,121.5841514
59,台北東湖加盟門市,02-26339900,台北市內湖區康寧路三段188-5號,25.0687012,121.6119472
79,台北東興加盟門市,02-27489393,台北市松山區東興路28號,25.048493,121.565487
66,台北萬芳直營門市,888或449-5888,台北市文山區興隆路三段92號,24.9995493,121.55683789999999
92,台北昆陽直營門市,888或449-5888,台北市南港區忠孝東路六段412號,25.0499932,121.5929163
98,萬華桂林加盟門市,02-23815228,台北市萬華區桂林路123號,25.0385787,121.50028789999999
67,景美萬隆直營門市,888或449-5888,台北市文山區羅斯福路五段215號,25.002185,121.539124
6,台北延五直營門市,888或449-5888,台北市士林區延平北路五段309號,25.086279100000002,121.50925819999999
73,北投自強直營門市,888或449-5888,台北市北投區自強街72號1F,25.1104718,121.514283
51,台北衡陽直營門市,888或449-5888,台北市中正區衡陽路41號,25.042410999999998,121.512447
40,台北南京二直營門市,888或449-5888,台北市中山區南京東路二段72號,25.0518589,121.5307203
23,台北信義直營門市,888或449-5888,台北市大安區信義路四段42號,25.0331622,121.54494040000002
70,北投石牌直營門市,888或449-5888,台北市北投區石牌路二段77號,25.116854,121.5161152
22,台北忠孝直營門市,888或449-5888,台北市大安區忠孝東路三段227號,25.0419431,121.54023149999999
55,內湖內湖加盟門市,02-26279669,台北市內湖區內湖路一段602號,25.078664399999997,121.5782828
39,南京建國直營門市,888或449-5888,台北市中山區南京東路二段202號1樓,25.051815100000002,121.535647
14,台北重慶加盟門市,02-25536801,台北市大同區重慶北路二段136號,25.0583219,121.51351240000001
41,台北南京三直營門市,888或449-5888,台北市中山區南京東路三段210號,25.051762399999998,121.54333829999999
75,台北八德直營門市,888或449-5888,台北市松山區八德路三段114號,25.048038899999998,121.55380559999999
36,台北林森北二直營門市,888或449-5888,台北市中山區林森北路121號,25.050821399999997,121.5251558
35,台北吉林加盟門市,02-25636100,台北市中山區吉林路296號,25.0612997,121.5301264
27,台北復興南二直營門市,888或449-5888,台北市大安區復興南路一段261-2號,25.036222199999997,121.5438993
46,站前暢貨中心直營門市,888或449-5888,台北市中正區公園路22-2號&22-3號2樓,25.045133899999996,121.51696299999999
1,天母士東直營門市,888或449-5888,台北市士林區士東路128號,25.112173100000003,121.5302426
18,台北安居直營門市,888或449-5888,台北市大安區安居街24號,25.0209163,121.5546737
8,士林芝山直營門市,888或449-5888,台北市士林區福國路42號1F,25.1022589,121.52399199999999
86,台北松山加盟門市,02-27659977,台北市信義區松山路317號,25.0422138,121.57797759999998
34,台北民權東直營門市,888或449-5888,台北市中山區民權東路三段59號,25.0625515,121.5431472
81,台北寧安直營門市,888或449-5888,台北市松山區南京東路四段107號,25.051873699999998,121.5546655
97,萬華西藏加盟門市,02-23032173,台北市萬華區西藏路121號,25.029536,121.502601
71,北投光明直營門市,888或449-5888,"台北市北投區光明路162,164號",25.1361858,121.5052838
94,台北龍山寺直營門市,888或449-5888,台北市萬華區西園路一段214號,25.0356467,121.4992294
24,台北通化直營門市,888或449-5888,台北市大安區通化街17之3號,25.0317485,121.5543657
76,松山饒河直營門市,888或449-5888,台北市松山區八德路四段717號,25.0502372,121.577105
7,天母忠誠直營門市,888或449-5888,台北市士林區忠誠路一段36號,25.104535000000002,121.52636100000001
56,內湖成功二加盟門市,02-27930955,台北市內湖區成功路三段95號,25.0786862,121.5897761
78,台北民生東直營門市,888或449-5888,台北市松山區民生東路四段99號,25.058204,121.55224299999999
47,台北資訊園區,888或449-5888,台北市中正區市民大道３段２號,25.0454897,121.5311294
3,台北天母西直營門市,888或449-5888,台北市士林區天母西路15之2號,25.118680899999998,121.52923700000001
45,萬華中華加盟門市,02-23327317,台北市中正區中華路二段333號,25.0274648,121.5066389
30,台大公館直營門市,888或449-5888,台北市大安區羅斯福路三段329號,25.017023000000002,121.532321
80,台北南京東直營門市,888或449-5888,台北市松山區南京東路五段70號,25.051264,121.56093600000001
100,萬華萬大加盟門市,02-23396699,台北市萬華區萬大路461號,25.0206479,121.4983254
87,信義威秀直營門市,888或449-5888,台北市信義區松壽路20號,25.035635600000003,121.5670989
77,台北民生東二直營門市,888或449-5888,台北市松山區民生東路五段121號,25.058859899999998,121.56092579999999
85,信義忠孝直營門市,888或449-5888,台北市信義區忠孝東路五段623號,25.04178,121.579181
28,台北復興南直營門市,888或449-5888,台北市大安區復興南路二段80號,25.031052499999998,121.54335659999998
68,台北景美直營門市,888或449-5888,台北市文山區羅斯福路六段228號,24.992649,121.540411
52,永和竹林直營門市,888或449-5888,新北市永和區竹林路222號,25.007960999999998,121.52069920000001
111,新莊中港加盟門市,02-22761221,新北市新莊區中港路295號,25.044278600000002,121.4527883
43,五股成泰加盟門市,02-82922333,新北市五股區成泰路二段45號,25.082199499999998,121.43728940000001
74,板橋民治直營門市,888或449-5888,新北市板橋區民治街132號,25.0309646,121.4777354
32,中和民德加盟門市,02-29535009,新北市中和區民德路21號,25.002901899999998,121.468966
108,新莊中平直營門市,888或449-5888,新北市新莊區中平路293號,25.050887799999998,121.44469640000001
12,三重重新一直營門市,888或449-5888,新北市三重區重新路一段127號,25.0632682,121.50016409999998
91,泰山明志二加盟門市,02-22965998,新北市泰山區明志路二段38號,25.053205600000002,121.42952009999999
57,汐止中興加盟門市,02-26932963,新北市汐止區中興路210號,25.0663935,121.63107190000001
4,三重三和加盟門市,02-89724728,新北市三重區三和路二段12之1號,25.0669027,121.5009845
60,汐止樟樹直營門市,888或449-5888,新北市汐止區樟樹一路117號,25.064216899999998,121.64191699999999
53,永和秀朗加盟門市,02-86600688,新北市永和區得和路229號,25.000156,121.51993600000002
141,蘆洲光華加盟門市,02-82831133,新北市蘆洲區光華路16號,25.083474399999997,121.4696565
25,土城金城直營門市,888或449-5888,新北市土城區金城路三段21號,24.986673,121.465065
103,新店北新一直營門市,888或449-5888,新北市新店區北新路一段263號,24.9664817,121.540878
110,新莊中正直營門市,888或449-5888,新北市新莊區中正路301號,25.034953,121.448495
49,永和永和直營門市,888或449-5888,新北市永和區永和路一段55號,25.0067669,121.51288500000001
115,新莊民安西加盟門市,02-22055061,新北市新莊區民安西路168號,25.016114,121.4258821
26,土城裕民直營門市,888或449-5888,新北市土城區裕民路157號,24.9859426,121.45230649999999
72,板橋四維加盟門市,02-82526562,新北市板橋區四維路318號,25.0300906,121.46243229999999
62,板橋三民加盟門市,02-89641389,"新北市板橋區三民路二段141,143號",25.014921700000002,121.4791897
133,樹林保安加盟門市,02-26862298,新北市樹林區保安街一段53號,24.9947385,121.42364170000002
50,永和頂溪直營門市,888或449-5888,新北市永和區永和路二段96號,25.0116952,121.5150871
31,中和中和加盟門市,02-82456116,新北市中和區中和路153號,24.999852899999997,121.50266599999999
101,新店中正直營門市,888或449-5888,新北市新店區中正路209號,24.972572699999997,121.54007050000001
9,三重自強直營門市,888或449-5888,新北市三重區自強路一段266號,25.0675149,121.4923861
17,三峽文化加盟門市,02-86713396,新北市三峽區文化路96號1樓,24.936206,121.371691
21,土城中央直營門市,888或449-5888,新北市土城區中央路二段95號,24.977923,121.44236799999999
44,五股成泰加盟門市,02-82922333,新北市五股區成泰路二段45號,25.082199499999998,121.43728940000001
82,板橋新海加盟門市,02-22547393,新北市板橋區新海路118號,25.0228069,121.46127849999999
69,板橋江子翠加盟門市,02-82521888,新北市板橋區文化路二段400號,25.031287,121.4738129
2,三重力行加盟門市,02-22870707,新北市三重區力行路二段103號,25.076025,121.48283
114,新莊四維直營門市,888或449-5888,新北市新莊區四維路97巷26號,25.023229100000002,121.4244456
120,新莊幸福直營門市,888或449-5888,新北市新莊區幸福路624號,25.049308899999996,121.45113909999998
16,三峽北大加盟門市,02-35012200,新北市三峽區大學路160號,24.946213,121.373029
10,三重忠孝二加盟門市,02-89883120,新北市三重區忠孝路二段134號,25.0684777,121.48273640000001
33,中和忠孝加盟門市,02-31511698,新北市中和區忠孝街99之3號,24.9859205,121.5119836
5,三重三和二直營門市,888或449-5888,新北市三重區三和路四段376號,25.0787371,121.48273959999999
125,新莊富國加盟門市,02-29011267,新北市新莊區富國路21號,25.026543,121.41865200000001
42,中和興南直營門市,888或449-5888,新北市中和區興南路一段72號,24.9901285,121.5105517
106,新店安康直營門市,888或449-5888,新北市新店區安康路二段200-1號,24.959769,121.5104947
38,中和中山二加盟門市,02-22495858,新北市中和區連城路4號,25.0024429,121.499178
96,淡水中山加盟門市,02-26258383,新北市淡水區中山路110號,25.170820000000003,121.442136
90,泰山明志加盟門市,02-29008770,新北市泰山區明志路一段180號,25.0623863,121.43307709999999
64,板橋埔墘加盟門市,02-89517288,新北市板橋區中山路二段104號,25.016533,121.4757919
20,三峽復興加盟門市,02-86742233,新北市三峽區復興路46號,24.937028,121.3736976
54,永和福和直營門市,888或449-5888,新北市永和區福和路269號,25.007337699999997,121.5176508
136,蘆洲三民一加盟門市,02-22821111,新北市蘆洲區三民路1號,25.0818849,121.4757919
146,鶯歌建國加盟門市,02-26787373,新北市鶯歌區建國路135號,24.9535449,121.35124499999999
93,泰山泰林直營門市,888或449-5888,新北市泰山區泰林路二段180號,25.0608327,121.4336922
19,三峽光明加盟門市,02-26722602,新北市三峽區光明路14號1樓,24.9310326,121.373153
13,三重重新二直營門市,888或449-5888,新北市三重區重新路二段100號,25.061557999999998,121.496902
15,三重溪尾加盟門市,02-22872288,新北市三重區溪尾街172號,25.080524899999997,121.48856409999998
140,蘆洲民族二加盟門市,02-22836880,新北市蘆洲區民族路315號,25.091398,121.47451909999998
109,新莊中平二加盟門市,02-29902898,新北市新莊區中平路51號,25.044441,121.444581
95,淡水學府加盟門市,02-26291111,新北市淡水區中山北路二段1號,25.183228699999997,121.44432309999999
63,板橋中山直營門市,888或449-5888,新北市板橋區中山路一段37號,25.0089679,121.460573
37,中和連城直營門市,888或449-5888,新北市中和區連城路469之1號,24.995735999999997,121.48344399999999
48,永和中和直營門市,888或449-5888,新北市永和區中和路449號,25.001449700000002,121.50987350000001
84,樹林篤行加盟門市,02-26877398,新北市板橋區篤行路三段玉平巷76弄25號,24.985727,121.42723600000001
88,林口文化加盟門市,02-26089090,新北市林口區忠孝路502號,25.070226899999998,121.3705594
99,淡水英專直營門市,888或449-5888,新北市淡水區英專路76號,25.171177,121.445803
65,板橋埔墘直營門市,888或449-5888,新北市板橋區中山路二段265號,25.017957100000004,121.4779176
118,新莊幸福加盟門市,02-89916789,新北市新莊區幸福路38號,25.049507000000002,121.45807450000001
61,板橋維修站,888或449-5888,新北市板橋市中山路2段62號9F之三,25.015768100000003,121.4741077
11,三重忠孝加盟門市,02-29893636,新北市三重區忠孝路二段85號,25.070267,121.484293
29,土城學府加盟門市,02-22632323,新北市土城區學府路一段36號,24.9886833,121.45810530000001
83,板橋遠百直營門市,888或449-5888,新北市板橋區新站路28號B1,25.013651,121.466765
58,汐止忠孝加盟門市,02-86422222,新北市汐止區忠孝東路202號,25.066135199999998,121.66171259999999
89,金山中山二加盟門市,02-24081811,新北市金山區中山路116號1樓,25.2198233,121.63938759999999
59,汐止連興加盟門市,02-26421168,新北市汐止區連興路131號,25.0618419,121.654001
142,蘆洲長安加盟門市,02-82835292,新北市蘆洲區長安街87號,25.0802944,121.4622245
79,板橋國慶直營門市,888或449-5888,新北市板橋區國慶路145號,24.9961444,121.46131000000001
66,板橋中正直營門市,888或449-5888,新北市板橋區中正路156號,25.016808899999997,121.456702
92,泰山明志直營門市,888或449-5888,新北市泰山區明志路三段159號,25.0396005,121.424761
98,淡水竹圍加盟門市,02-28098595,新北市淡水區民權路171號,25.1357216,121.45987099999999
138,蘆洲長榮直營門市,888或449-5888,新北市蘆洲區中華街3號,25.081705499999998,121.4640896
67,板橋中正加盟門市,02-29655959,新北市板橋區中正路287號,25.0192206,121.45536670000001
6,三重中央北直營門市,888或449-5888,新北市三重區中央北路134號之1,25.068160199999998,121.4997001
145,鶯歌南昌加盟門市,02-26785308,新北市鶯歌區南昌街2號,24.953621899999998,121.3501178
73,板橋民生直營門市,888或449-5888,新北市板橋區民生路三段19號,25.023886899999997,121.466986
51,永和成功直營門市,888或449-5888,新北市永和區成功路二段141號,24.997914399999996,121.5267223
40,中和景安直營門市,888或449-5888,新北市中和區景安路33號,24.9986826,121.507704
23,土城明德加盟門市,02-22668566,新北市土城區明德路一段16號,24.9850744,121.4648251
70,板橋四川直營門市,888或449-5888,新北市板橋區四川路一段261號,25.002191,121.4596246
22,土城永寧直營門市,888或449-5888,新北市土城區中央路三段46號,24.9678163,121.4371693
55,汐止大同加盟門市,02-26480077,新北市汐止區大同路二段428號,25.067004,121.658974
39,中和景平加盟門市,02-29455995,新北市中和區景平路480號,24.9937383,121.50520549999999
107,新店安康加盟門市,02-22111177,新北市新店區安康路二段46號,24.9638362,121.51543729999999
132,樹林中華加盟門市,02-86868111,新北市樹林區太元街13號,24.980490600000003,121.4180538
14,三重集成直營門市,888或449-5888,新北市三重區集成路37號,25.05232,121.489347
41,中和景新直營門市,888或449-5888,新北市中和區景新街443號,24.988815600000002,121.513099
75,板橋民族加盟門市,02-29531388,新北市板橋區民族路77號,25.008658999999998,121.465617
36,中和連城二直營門市,888或449-5888,新北市中和區連城路339號,24.996072,121.48832
124,新莊民安加盟門市,02-22081313,新北市新莊區富國路178號,25.024442999999998,121.424347
143,蘆洲復興直營門市,888或449-5888,新北市蘆洲區復興路84號,25.0866932,121.4754128
35,中和莒光加盟門市,02-22252500,新北市中和區莒光路35號,25.0052089,121.4722084
116,新莊西盛直營門市,888或449-5888,新北市新莊區民安西路301號,25.0118478,121.42676540000001
102,新店北宜直營門市,888或449-5888,新北市新店區北宜路一段3號,24.954034,121.54059299999999
137,蘆洲中原加盟門市,02-22892669,新北市蘆洲區中原路30號,25.0828094,121.46002069999999
27,土城裕民加盟門市,02-22748466,新北市土城區裕民路223號,24.9836499,121.4541443
139,蘆洲民族加盟門市,02-82857878,新北市蘆洲區民族路111號,25.0868692,121.47962609999999
129,樹林大安加盟門市,02-26828999,新北市樹林區大安路593號,24.9832128,121.4118158
46,永和智光加盟門市,02-86682803,新北市永和區中正路11號,24.9957344,121.51403219999999
1,八里中山加盟門市,02-26105989,新北市八里區中山路二段510號,25.1468703,121.3980003
134,樹林博愛直營門市,888或449-5888,新北市樹林區博愛一街12號,24.9909975,121.4252932
18,三峽民生直營門市,888或449-5888,新北市三峽區民生街111之2號,24.9354671,121.37396840000001
113,新莊化成直營門市,888或449-5888,新北市新莊區化成路205號,25.05105,121.464692
8,三重正義北直營門市,888或449-5888,新北市三重區正義北路186號,25.066725299999998,121.49633519999999
144,蘆洲集賢加盟門市,02-22887521,新北市蘆洲區集賢路412號1樓,25.081419399999998,121.47977900000001
86,板橋雙十直營門市,888或449-5888,新北市板橋區雙十路二段71號,25.026825600000002,121.4760798
34,中和員山加盟門市,02-22267976,新北市中和區員山路325號,25.0009767,121.48099909999999
81,南雅愛買直營門市,888或449-5888,新北市板橋區貴興路101號2樓,25.002655999999998,121.456195
135,蘆洲三民三加盟門市,02-22890335,新北市蘆洲區三民路122號之一,25.087411499999998,121.47117879999999
97,淡水北新加盟門市,02-26257733,新北市淡水區北新路14號,25.1775962,121.4447297
126,新莊新泰直營門市,888或449-5888,新北市新莊區新泰路264號,25.040147199999996,121.44605290000001
122,新莊昌平直營門市,888或449-5888,新北市新莊區昌平街4號1樓,25.0524208,121.45491770000001
119,新莊幸福二直營門市,888或449-5888,新北市新莊區幸福路537號1樓,25.0491869,121.45504040000002
71,板橋四維直營門市,888或449-5888,新北市板橋區四維路282號,25.028826000000002,121.463066
94,淡水中山北直營門市,888或449-5888,新北市淡水區中山北路一段51號,25.175531,121.44165840000001
24,土城金城加盟門市,02-22731767,新北市土城區金城路三段175號,24.9888195,121.46934250000001
130,樹林中山加盟門市,02-26820055,新北市樹林區中山路一段174號,24.9890663,121.42183490000002
76,板橋府中直營門市,888或449-5888,新北市板橋區府中路59號,25.0090979,121.458177
7,三重五華加盟門市,02-89856655,新北市三重區五華街108號,25.0827342,121.49236859999999
127,瑞芳民生加盟門市,02-24062299,新北市瑞芳區民生街16號,25.1077039,121.80585559999999
56,汐止中興直營門市,888或449-5888,新北市汐止區中興路129號,25.065245899999997,121.63171080000001
117,新莊光華直營門市,888或449-5888,新北市新莊區民安西路58號,25.0204581,121.4272196
78,板橋南雅加盟門市,02-29657992,新北市板橋區南雅南路一段93號,25.0051875,121.45557079999999
47,永和中正直營門市,888或449-5888,新北市永和區中正路302號,24.9991217,121.51730409999999
131,樹林中山二加盟門市,02-26757890,新北市樹林區中山路一段36號,24.9924049,121.423704
3,三重三民二加盟門市,02-89852658,新北市三重區三民路163號1樓,25.087017499999998,121.4711783
45,永和中山直營門市,888或449-5888,新北市永和區中山路一段213號,25.0079684,121.5085055
121,新莊中和加盟門市,02-89918866,新北市新莊區幸福路769號,25.0489241,121.44714240000002
30,中和環球直營門市,888或449-5888,新北市中和區中山路三段125之4號,25.005959100000002,121.47428529999999
112,新莊中華加盟門市,02-29935858,新北市新莊區中華路一段62號,25.0386583,121.4521393
128,台北瑞芳加盟門市,02-24062271,新北市瑞芳區明燈路三段30之1號,25.1077645,121.8082485
104,新店北新二直營門市,888或449-5888,新北市新店區北新路二段200號,24.9767187,121.543127
105,新店大坪林直營門市,888或449-5888,新北市新店區民權路42之1號,24.9830474,121.54042700000001
80,板橋莒光直營門市,888或449-5888,新北市板橋區莒光路46號,25.0243378,121.470578
100,台北深坑加盟門市,02-26629388,新北市深坑區埔新街60號,25.002581399999997,121.62020600000001
87,林口竹林直營門市,888或449-5888,新北市林口區竹林路33號,25.077453,121.38678279999999
77,板橋忠孝加盟門市,02-29522928,新北市板橋區忠孝路146號,25.0022429,121.46391399999999
147,桃園鶯桃加盟門市,02-86773931,新北市鶯歌區鶯桃路二段52號,24.9730011,121.32521740000001
85,板橋館前東直營門市,888或449-5888,新北市板橋區館前東路18號,25.007081200000002,121.46005
28,土城裕民二加盟門市,02-82621688,新北市土城區裕民路33號,24.988493,121.44833799999999
68,板橋文化加盟門市,02-82588282,新北市板橋區文化路一段206號,25.0201179,121.4664182
123,新莊建福直營門市,888或449-5888,新北市新莊區建福路64號,25.027019,121.42661100000001
52,高雄一心加盟門市,07-3336985,高雄市前鎮區一心二路40號,22.611060000000002,120.311608
111,鳳山經武直營門市,888或449-5888,高雄市鳳山區經武路272號,22.638295499999998,120.36460090000001
43,岡山岡山加盟門市,07-6215188,高雄市岡山區岡山路298號,22.7933484,120.29602209999999
74,湖內保生加盟門市,07-6992527,高雄市湖內區保生路157號1F,22.9071249,120.2195862
32,仁武八卦寮加盟門市,07-3736812,高雄市仁武區仁雄路6之5號,22.681182999999997,120.354132
108,鳳山青年直營門市,888或449-5888,高雄市鳳山區青年路二段526號,22.6454601,120.34988840000001
12,高雄博愛加盟門市,07-3227777,高雄市三民區博愛一路99號,22.6438668,120.30270060000001
91,高雄旗山二加盟門市,07-6629088,高雄市旗山區延平一路584號,22.8872353,120.48296299999998
57,前鎮瑞隆二加盟門市,07-7216622,高雄市前鎮區瑞隆路182號,22.605880300000003,120.33484920000001
4,高雄天祥直營門市,888或449-5888,高雄市三民區天祥一路170號,22.668103,120.318702
60,高雄美濃特加盟門市,07-6820888,高雄市美濃區中正路一段49號,22.9003255,120.54192079999999
53,高雄三多直營門市,888或449-5888,高雄市前鎮區三多三路171號,22.6152,120.308702
25,小港桂林加盟門市,07-7932227,高雄市小港區孔鳳路515號,22.582686,120.35853600000002
103,鳳山五甲二直營門市,888或449-5888,高雄市鳳山區五甲二路700號,22.5946444,120.3299017
110,鳳山南華直營門市,888或449-5888,高雄市鳳山區南華路155號,22.6031583,120.33758229999998
49,高雄林園加盟門市,07-6462559,高雄市林園區林園北路312號,22.510672800000002,120.3948304
26,高雄小港二加盟門市,07-8036666,高雄市小港區康莊路207號,22.5681597,120.35131990000001
72,鳥松大仁南加盟門市,07-7333321,高雄市鳥松區大仁南路2號,22.662884100000003,120.36255009999999
62,高雄四維直營門市,888或449-5888,高雄市苓雅區四維三路68號,22.619892,120.310576
50,高雄阿蓮加盟門市,07-6315666,高雄市阿蓮區忠孝路199號,22.878926,120.3297969
31,仁武仁雄加盟門市,07-3735228,高雄市仁武區仁雄路129號,22.676432000000002,120.340331
101,鳳山五甲直營門市,888或449-5888,"高雄市鳳山區五甲二路316,318號",22.5989071,120.3370355
9,高雄建工二加盟門市,07-3972299,高雄市三民區建工路595號,22.648367,120.31983400000001
17,高雄覺民直營門市,888或449-5888,高雄市三民區覺民路239號,22.639483,120.33882290000001
21,大寮鳳林二加盟門市,07-7837888,高雄市大寮區鳳林三路699號,22.610355300000002,120.39301540000001
44,岡山中街加盟門市,07-6210955,高雄市岡山區岡山路384號,22.7947033,120.295883
82,高雄楠梓二加盟門市,07-3521223,高雄市楠梓區楠梓路10號,22.728231,120.3299706
69,高雄茄萣加盟門市,07-6902228,高雄市茄萣區仁愛路三段176號,22.902535399999998,120.1839706
2,三民大昌加盟門市,07-3905900,高雄市三民區大昌二路30號,22.6416269,120.33233999999999
114,高雄鹽埕直營門市,888或449-5888,高雄市鹽埕區五福四路206號,22.624337,120.28272
16,高雄鼎山加盟門市,07-3878999,高雄市三民區鼎山街295號,22.658212,120.32206599999999
10,高雄維修站,888或449-5888,高雄市三民區建國二路36號14樓,22.6375669,120.3119967
33,高雄左營大加盟門市,07-5870505,高雄市左營區左營大路245號,22.686100399999997,120.2903817
5,高雄高醫直營門市,888或449-5888,高雄市三民區自由一路117號,22.644126,120.30848700000001
42,岡山仁壽直營門市,888或449-5888,高雄市岡山區仁壽路25號,22.7928869,120.28980349999999
106,鳳山光遠直營門市,888或449-5888,高雄市鳳山區光遠路116號,22.624503,120.365393
38,高雄博愛直營門市,888或449-5888,高雄市左營區博愛三路257號,22.67471,120.30514790000001
96,鳳山中山西加盟門市,07-7400055,高雄市鳳山區中山西路10號,22.626338,120.355093
90,高雄臨海加盟門市,07-5510468,高雄市鼓山區臨海二路39號,22.622633999999998,120.27212800000001
64,高雄光華直營門市,888或449-5888,高雄市苓雅區光華一路148之24號,22.624624899999997,120.3155295
20,高雄大寮直營門市,888或449-5888,高雄市大寮區大寮路612號,22.5919384,120.4128634
54,高雄大魯閣加盟門市,07-7915082,高雄市前鎮區中山四路100號2A-08,22.5824875,120.32889109999998
93,高雄旗山直營門市,888或449-5888,高雄市旗山區延平一路722-5號,22.8829096,120.4832936
19,大社中山加盟門市,07-3539561,高雄市大社區中山路445之1號,22.7312878,120.35342240000001
13,高雄陽明直營門市,888或449-5888,高雄市三民區陽明路257號,22.642449,120.341862
15,三民裕誠加盟門市,07-3478959,高雄市三民區裕誠路96號1樓,22.663987,120.3132307
109,鳳山南京加盟門市,07-7631220,高雄市鳳山區南京路152號,22.609897399999998,120.3457388
95,鳳山大明加盟門市,07-7655859,高雄市鳳山區大明路100號,22.608676899999995,120.3417969
63,苓雅正義加盟門市,07-7407862,高雄市苓雅區正義路126號1樓,22.630723800000002,120.33926389999999
37,高雄右昌加盟門市,07-3647329,高雄市左營區後昌路679號,22.7086586,120.2976446
48,高雄林園二直營門市,888或449-5888,高雄市林園區東林西路66號,22.504193,120.3941047
84,高雄路竹直營門市,888或449-5888,高雄市路竹區大社路28號,22.8623841,120.26158259999998
88,高雄華榮直營門市,888或449-5888,高雄市鼓山區華榮路307號,22.6666076,120.2965865
99,鳳山中山直營門市,888或449-5888,高雄市鳳山區中山路139號,22.6223466,120.35852140000001
65,高雄成功直營門市,888或449-5888,高雄市苓雅區成功一路199號1樓,22.6173405,120.29628390000002
61,高雄三信直營門市,888或449-5888,高雄市苓雅區三多二路78號,22.6215091,120.32717199999999
11,三民建興加盟門市,07-3816989,高雄市三民區建興路243號,22.6444707,120.3247531
29,小港漢民二加盟門市,07-8068901,高雄市小港區漢民路700號1樓,22.56746,120.36183100000001
83,楠梓德賢加盟門市,07-3658799,高雄市楠梓區德賢路477號,22.726024600000002,120.30231770000002
58,前鎮瑞隆加盟門市,07-7510909,高雄市前鎮區瑞隆路342號,22.605672199999997,120.3317345
89,高雄瑞豐直營門市,888或449-5888,高雄市鼓山區裕誠路1083號,22.6657443,120.2998963
59,高雄瑞隆直營門市,888或449-5888,高雄市前鎮區瑞隆路511號,22.6051315,120.32811399999999
79,楠梓後昌直營門市,888或449-5888,高雄市楠梓區後昌路107號,22.7190715,120.310829
66,高雄和平直營門市,888或449-5888,高雄市苓雅區和平一路230號,22.631501999999998,120.31766100000002
92,高雄旗山加盟門市,07-6627889,高雄市旗山區延平一路636號,22.8859644,120.4829683
98,鳳山中山東加盟門市,07-7991183,高雄市鳳山區中山東路86之7號,22.624302800000002,120.3714496
67,高雄武廟直營門市,888或449-5888,高雄市苓雅區武廟路128號,22.631063100000002,120.32840800000001
6,高雄自立加盟門市,07-3232977,高雄市三民區自立一路242號1樓,22.642201999999997,120.29638419999999
73,鳥松學堂加盟門市,07-7332939,高雄市鳥松區學堂路153號1樓,22.6581388,120.38985729999999
51,前金中華加盟門市,07-2858258,高雄市前金區中華三路168號,22.6316472,120.2951824
40,高雄華夏加盟門市,07-3590119,高雄市左營區華夏路728號,22.678310999999997,120.30268000000001
23,大寮中庄加盟門市,07-7036159,高雄市大寮區鳳屏一路386號,22.6351282,120.39102040000002
70,梓官中正加盟門市,07-6109993,高雄市梓官區中正路327號,22.7323728,120.2533114
22,大寮鳳林直營門市,888或449-5888,高雄市大寮區鳳林四路170之9號,22.617168,120.385443
55,高雄草衙直營門市,888或449-5888,"高雄市前鎮區草衙二路307,309號",22.575947600000003,120.3246997
39,左營華夏直營門市,888或449-5888,高雄市左營區華夏路1161號,22.684688,120.30944699999999
107,鳳山武慶加盟門市,07-7248000,高雄市鳳山區武慶二路106號,22.6124913,120.33282859999998
14,高雄義華直營門市,888或449-5888,高雄市三民區義華路384號,22.6436602,120.333474
41,高雄榮總直營門市,888或449-5888,高雄市左營區榮總路5號,22.678066100000002,120.32170149999999
75,高雄五福暢貨中心,888或449-5888,高雄市新興區五福二路262號(大統五福百貨),22.6237699,120.3014669
36,左營自由加盟門市,07-3453358,高雄市左營區自由三路170號,22.671386,120.31118400000001
35,高雄自由二直營門市,888或449-5888,高雄市左營區自由二路210號,22.6634599,120.30845790000001
102,高雄五甲二加盟門市,07-8229552,高雄市鳳山區五甲二路596號,22.596137600000002,120.332073
27,小港漢民直營門市,888或449-5888,高雄市小港區漢民路281號,22.56705,120.353656
46,岡山壽天加盟門市,07-6227455,高雄市岡山區壽天路65號,22.795934,120.29227320000001
1,高雄十全直營門市,888或449-5888,高雄市三民區十全一路349號,22.644986,120.306191
18,高雄大社加盟門市,07-3518886,高雄市大社區中山路247號,22.731984100000002,120.3484433
113,燕巢中民加盟門市,07-6163187,高雄市燕巢區中民路665號,22.7929617,120.3588453
8,高雄建工直營門市,888或449-5888,高雄市三民區建工路502號,22.65121,120.32644099999999
86,鼓山內惟加盟門市,888或449-5888,高雄市鼓山區九如四路1165號,22.6603167,120.279895
34,高雄自由直營門市,888或449-5888,高雄市左營區自由二路165號,22.660390200000002,120.30869569999999
81,高雄楠梓新直營門市,888或449-5888,高雄市楠梓區楠梓新路237號,22.727957800000002,120.32562420000001
97,鳳山中山西直營門市,888或449-5888,高雄市鳳山區中山西路369號,22.6280434,120.3452652
71,高雄梓官加盟門市,07-6107080,高雄市梓官區中崙路301號,22.760817199999998,120.26780500000001
94,高雄旗津加盟門市,07-5716788,高雄市旗津區海岸路4號,22.613878,120.26953799999998
24,小港桂林加盟門市,07-7932227,高雄市小港區孔鳳路515號,22.582686,120.35853600000002
76,高雄林森直營門市,888或449-5888,高雄市新興區林森一路196號,22.6321331,120.3048634
7,高雄河堤直營門市,888或449-5888,高雄市三民區明仁路21號,22.660397,120.313933
56,高雄草衙二,888或449-5888,高雄市前鎮區草衙二路436號,22.5794123,120.32269609999999
78,高雄後昌新直營門市,888或449-5888,高雄市楠梓區後昌新路170號,22.7212264,120.2912801
47,林園東林西加盟門市,07-6460355,高雄市林園區東林西路178號,22.503276899999996,120.3909821
3,高雄大昌直營門市,888或449-5888,高雄市三民區大昌二路552號,22.652054,120.329877
45,岡山柳橋東直營門市,888或449-5888,高雄市岡山區柳橋東路26號,22.7911281,120.29541780000001
30,仁武中正加盟門市,07-3736313,高雄市仁武區中正路51號,22.7014127,120.3466629
112,高雄橋頭加盟門市,888或449-5888,高雄市橋頭區成功南路41號,22.7547374,120.31143840000001
104,高雄五甲加盟門市,07-8129777,高雄市鳳山區五甲三路148號,22.591307,120.32536100000002
105,鳳山青年加盟門市,07-7775999,高雄市鳳山區文鳳路2號,22.642113199999997,120.3511961
80,楠梓軍校直營門市,888或449-5888,高雄市楠梓區軍校路732.734號,22.7043538,120.2924961
100,鳳山鳳西加盟門市,07-7999377,高雄市鳳山區五甲一路65號,22.6210682,120.35728689999999
87,高雄明誠直營門市,888或449-5888,高雄市鼓山區中華一路279號,22.660918,120.293026
77,高雄林森維修站,888或449-5888,高雄市新興區林森一路196號2F?,22.6321331,120.3048634
85,高雄路竹加盟門市,07-6073536,高雄市路竹區中山路650號,22.85793,120.26040400000001
28,高雄小港加盟門市,07-8027852,高雄市小港區漢民路361號,22.566999999999997,120.356225
68,高雄廣州直營門市,888或449-5888,高雄市苓雅區廣州一街163號,22.6272741,120.31582659999998
