NAME,ADDRESS,CAR_NUM,MOTOR_NUM,lat,lng
西門地下停車場,桃園區四維路39號,548,0,24.9596688,121.2307764
桃園市公有府前地下停車場,桃園區縣府路1號,334,76,24.9929026,121.3010601
新民立體停車場,桃園市桃園區民權路32號,191,0,24.9928948,121.3107999
衛生福利部桃園醫院停車場,桃園市桃園區中山路1492號,151,332,24.9777031,121.2691911
衛生福利部桃園療養院停車場,桃園市桃園區龍壽街71號,219,0,24.9795463,121.2688905
桃園市大檜溪公園地下室停車場,桃園區興一街65巷50號,65,0,25.0142131,121.3161394
桃園市朝陽公園停車場,桃園市鎮撫街朝陽公園內號,45,0,25.0000548,121.3115241
桃園市陽明公園停車場,桃園區長沙街與介壽路交叉口陽明公園內號,64,157,24.9813843,121.3094936
桃園市宏昌六街停車場,桃園區宏昌六街與泰昌八街交叉口號,72,0,24.9870685,121.2921255
桃園新埔平面停車場,桃園區南平路與新埔六街口(同德段1號,109,0,25.015665,121.2985827
桃園市三民公園停車場,桃園市三元街與三民路2段交叉口號,81,0,25.0012971,121.3170744
桃園市建國公園停車場,桃園市建國路與建成街交叉口號,23,0,24.9873554,121.3165448
建國停車場,桃園區建國段842號,105,0,24.9934099,121.2969674
青溪停車場,桃園區青溪段1號,65,0,24.9996377,121.3179664
龍安一停車場,桃園區龍安段359號,17,0,24.9882174,121.2808064
龍安二停車場,桃園區龍安段218號,20,0,24.9882174,121.2808064
三聖停車場,桃園區三聖段630號,20,0,25.0009976,121.3319309
六合停車場,桃園市桃園區寶慶路403巷12弄5號,180,0,25.0180649,121.2901891
桃園車站停車場,桃園區延平段2號,91,800,24.9926913,121.2822809
沃瑪停車場,桃園市桃園區莊一街186號,250,0,25.0208461,121.2908293
Times桃園縣府前停車場,桃園市桃園區中路段1670-4號,32,0,24.9889297,121.2602597
遠東百貨股份有限公司桃園分公司停車場,桃園區中正路20號,172,0,24.9897388,121.3137948
新光三越百貨停車場(大有店),桃園市桃園區大有路189號,178,0,25.0081315,121.3200278
敏盛醫控股份有限公司停車場,桃園區經國路168號,320,0,25.0163919,121.3063525
新光三越百貨停車場(桃園站前店),桃園市桃園區中正路19號,204,0,24.9900164,121.3126097
桃園車站二停車場,桃園區大樹林段2098號,116,83,24.985073,121.313811
沃瑪停車場中埔站,桃園市桃園區中埔六街123號,92,0,25.0177756,121.2953884
同德二停車場,桃園區同德五街(近新埔六街)桃園區同德段53號,33,0,25.0148695,121.2958947
路停站前停車場,桃園區桃園區大同路77-3號,104,420,24.9890384,121.3110943
上吉停車場,桃園市桃園區桃園監理站旁號,30,0,24.9789098,121.3030184
宏谷春日停車場,桃園市桃園區汴洲里塩庫西街85號,131,0,25.0240852,121.3057273
Times桃園中正路停車場,桃園區埔子段埔子小段1748-1號,50,0,25.0204325,121.2759989
同安停車場,桃園市桃園區同安街336巷75號,11,0,25.0177409,121.304498
Times桃園大華八街停車場,桃園區埔子段埔子小段2028-42號,13,0,25.010468,121.287966
耐克力停車場,桃園市桃園區新埔段1021號,24,0,25.0153026,121.3038834
Times桃園大興路停車場,桃園市桃園區春日段1146號,27,0,25.0217611,121.3078146
Times桃園大業路停車場,桃園市桃園區大業路二段66號,15,0,25.0176474,121.3111212
坤慶公園地下停車場,中壢區溪洲路288號,32,0,24.9622768,121.2299584
中原國小地下停車場,中壢區中北路88號,423,0,24.9562634,121.2381042
中壢自強立體停車場,中壢區強國路66號,314,325,24.9678443,121.2580278
中壢內壢站,中壢區仁愛段1047號,49,0,24.9721514,121.2053963
光明停車場,中壢區民權路與光輝二街交叉(三座屋段舊社小段97-4號,49,0,24.9630318,121.2174814
中北健行停車場,中壢區中北路二段151號,144,299,24.9522565,121.2268763
中央地下停車場,中壢區中央東路83號,299,127,24.9564466,121.2262953
廣停一停車場,中壢區六和路與九和六街路口(新街段868號,77,20,24.9650314,121.2245044
銀河廣場地下停車場,中壢區九和一街35號,145,596,24.9618765,121.2238289
興國公有零售市場3、4樓立體停車場,中壢區中豐路96號,142,0,24.9621643,121.2194407
中壢復興站,中壢區復興段2074號,66,0,24.9764803,121.24976
中壢忠孝站,中壢區忠孝段1314號,92,0,24.9769406,121.2555595
高鐵桃園停車場,中壢區高鐵北路一段6號,996,627,25.0130119,121.2147751
太平洋崇光百貨(股)公司停車場,中壢區元化路357號,354,0,24.9626957,121.2238507
明德停車場,中壢區中正路389號,45,0,24.9554735,121.2153259
桃客大樓停車場,中壢區復興路51號,221,0,24.9570549,121.225382
百老匯室內停車場,中壢區新生路192號,194,0,24.9616506,121.2231323
海華世紀停車場,中壢區九和一街70號,219,0,24.9615519,121.2247624
麗緻立體停車塔,中壢區元化路268號,40,0,24.9619128,121.2252101
御奠園停車場(第一期),中壢區忠福段83號,319,0,24.9763656,121.2346268
御奠園停車場(第二、三期),中壢區忠福段83號,79,0,24.9763656,121.2346268
中壢世貿財星停車場,中壢區中央西路一段120號,138,0,24.9586168,121.2203265
東高青埔停車場,中壢區青峰路一段與青心路口(青昇段415號,158,14,25.0149874,121.218944
Times中原夜市停車場,中壢區中北路63號,76,0,24.956248,121.23723
中壢莊敬站,中壢區自立段39-1號,0,220,24.9713841,121.2183004
台灣聯通中壢中和路停車場,中壢區中和路30號,33,0,24.955023,121.227954
強國停車場,中壢區強國路139巷21號,17,0,24.9669912,121.256333
中大壢中尚義村自動收費停車場,中壢區中央西路二段266號,130,0,24.961014,121.211463
龍翔街停車場,中壢區龍翔街1巷2弄旁號,176,0,24.9432814,121.2310192
中北停車場,中壢區中北路與健行路路口號,51,140,24.9518082,121.2265002
Times中壢新明路停車場,中壢區中央西路二段124號,3,0,24.958773,121.214347
華興停車場,中壢區龍岡路二段321巷39弄75號,138,0,24.9424038,121.2331812
後興停車場,中壢區後興路二段與環中東路二段路口號,309,107,24.9453529,121.230732
廣北平面停車場,平鎮區民族路與廣成街口號,119,0,24.9568654,121.2089664
廣南平面停車場,平鎮區環南路與延平路轉角號,80,0,24.9431737,121.2072508
新榮平面停車場,平鎮區三崇段1號,36,0,24.9457435,121.214528
廣興停車場,桃園市平鎮區崇義三街6巷內號,67,0,24.9455317,121.2059335
廣泰停車場,桃園市平鎮區崇義三街6巷內號,31,0,24.9455317,121.2059335
廣明停車場,桃園市平鎮區廣東段879號,26,0,24.912203,121.2109723
壢新停車場,桃園市平鎮區廣泰路75號,250,0,24.9470753,121.2055572
八德區公有廣停一停車場,八德區廣福路42號,207,0,24.9588985,121.2981384
呂萬和停車場,八德市華興段864號,43,0,24.9626789,121.3040669
Times八德中路街停車場,桃園市八德區中路街21號,49,0,24.9615891,121.2940698
橋頭停車場,大溪區栗子園大溪橋旁堤外高灘地及堤內防汛道路號,584,0,24.8851019,121.2826078
兩蔣文化園區慈湖遊客中心暨慈湖廣場附屬停車場,大溪區復興路一段1097號,208,0,24.8403651,121.2942711
公所前停車場,大溪鎮普濟路與得勝路交叉口號,56,0,24.8807168,121.2872311
南崁公一地下停車場,蘆竹區仁愛路一段2號,586,0,25.0508645,121.2935354
大新平面停車場,蘆竹區大新路與大新一街交叉口(大新路43號,28,0,25.0247862,121.2568622
台茂購物中心停車場,蘆竹區南崁路一段112號,2585,1615,25.0536603,121.2885645
特力家居停車場,蘆竹鄉中正路1號,516,0,25.0401823,121.2947327
HVW經國方略商辦大樓停車場,桃園市蘆竹區經國路908號,30,0,25.0336318,121.3010061
W1停車場,蘆竹鄉忠孝東路52及56號,135,175,25.0454146,121.2948158
長庚醫院復健停車場,桃園市龜山區復興街5-6號,704,400,25.0616876,121.3675081
桃園長庚紀念醫院停車場,桃園市龜山區舊路里頂湖路123號,1166,330,25.030638,121.366919
長庚醫院病理停車場,桃園市龜山區復興街5號,588,0,25.0605178,121.3684133
瑞樺企業停車場,桃園縣龜山鄉舊路村8鄰振興路749巷1弄19號,33,0,25.017807,121.3611365
嘟嘟房中正旗艦站,桃園市大園區竹圍里三民路一段806號,4558,0,25.0918784,121.2511423
華航大飯店股份有限公司停車場(台北諾富特華航桃園機場飯店),桃園市大園區航站南路1-1號,76,0,25.068878,121.2213277
揚順停車場,桃園市大園區竹圍里航翔路5號,114,264,25.09368,121.25455
新屋區第一公有零售市場附設停車場,新屋區中山路370號,67,0,24.9728844,121.1041169
小烏來停車場,復興鄉義盛村1鄰下宇內4-10號,38,0,24.7906361,121.3751678
中壢復華站,中壢區復興段2128號,46,0,24.9764803,121.24976
Times中壢中北路停車場,中壢區中北段1136-19號,24,0,24.957537,121.2410215
中壢忠孝黃昏市場站,中壢區中工段372-1號,35,0,24.9453907,121.2264455
坤慶平面停車場,平鎮區中豐路進入坤慶路坤慶二街旁號,86,0,24.9017575,121.2137292
龍祥停車場,桃園區雙龍段562號,69,74,24.980334,121.271316
中路停車場,桃園市桃園區中山路501號,216,0,24.991246,121.29795
一品國硯社區停車場,桃園市桃園區大業路一段103-119號,6,0,25.0056268,121.3166501
中原收費停車場,中壢區新中北路與新中二街路口號,57,0,24.9589021,121.243183
青園停車場,中壢區青平段36號,48,0,24.9721514,121.2053963
Times中壢中北路2停車場,中壢區石頭段43-35號,11,0,24.936074,121.23065
正光二街停車場,中壢區正光二街116號,27,0,24.9592638,121.205319
財團法人台灣省桃園縣中壢慈惠堂停車場,中壢區慈惠一街與恩德街路口號,17,0,24.9611286,121.2248733
興仁公園停車場,中壢區興安一街2號,131,0,24.9665328,121.2636772
Times中壢後興路停車場,中壢區後興路一段118號,13,0,24.9419656,121.2472489
龜山鄉民昌停車場,桃園市龜山區忠義路一段105縣道上號,30,0,25.005931,121.3445572
桃園展演中心地下停車場,桃園區中正路1188號,87,0,25.0175106,121.2986658
中壢藝術館地下停車場,桃園市中壢區中美路16號,48,0,24.9582554,121.2274775
新富停車場,平鎮區新貴段196號,50,0,24.9296022,121.2053963
大溪地停車場,桃園市大溪區員林路一段1號,155,728,24.8983328,121.2841964
桃園市婦女館地下停車場,桃園市桃園區延平路147號,106,0,24.9814029,121.315387
連勝出國停車場,桃園市大園區埔心村中正東路444巷21號,49,0,25.0577587,121.2122359
Times桃園三民路停車場,桃園區西門段169號,8,0,25.0437272,121.5061779
捷登第二停車場,桃園市桃園區和平段224號,134,0,24.9973591,121.3123398
東門段平面停車場,桃園區成功路與朝陽街交叉口號,119,0,24.9934099,121.2969674
僑愛停車場,大溪區僑愛一街46巷旁號,29,0,24.921909,121.293393
愛山停車場,蘆竹區愛山街30號,57,0,25.053999,121.301186
吉拾停車場桃園中山場,桃園市桃園區中山路958號,512,0,24.9896366,121.2867765
廈門停車場,桃園市桃園區中路三段189號,80,0,25.001919,121.287392
國立中央大學停車場,平鎮區中央段9號,140,0,24.9296022,121.2053963
薇緹花園飯店停車場,桃園市桃園區中正路703號,42,0,25.0070279,121.3031833
Times內壢忠勤街停車場,桃園市中壢區仁愛段193號,19,0,24.9600963,121.2133357
Times內壢成章四街停車場,桃園市中壢區信義路106號,21,0,24.9741074,121.2571612
龍岡停車場,中壢區龍東路203號,168,116,24.9301065,121.2532108
台貿停車場,台貿一街與正義路口旁號,86,0,24.9376794,121.255941
貿東停車場,平鎮區忠貞段144-3號,31,0,24.922781,121.250101
東展企業有限公司南華二站停車場,桃園區桃園段武陵小段145-71號,57,0,24.987672,121.2857263
新屋區停一立體停車場,新屋區中山路257號,160,0,24.9725746,121.1058321
慈文停車場,桃園區慈文段772-1號,159,0,25.0094401,121.3016355
便利停車場朝陽站,桃園市桃園區朝陽街二段17號,8,0,24.9917851,121.3155007
樂生療養院停車場,桃園市龜山區迴龍村16鄰萬壽路一段50巷2號,121,0,25.018683,121.4089158
南園停車場,中壢區南園二路267號,60,20,24.971528,121.2285249
茂榮大樓停車場,桃園市桃園區復興路98號,44,0,24.991149,121.3156783
五福地下停車場,蘆竹區五福一路92巷與五福一路交叉口旁(蘆竹區藝文音樂廣場公園下)號,124,0,25.055565,121.2947763
夏合八德農會停車場,八德區大和段252及254號,49,0,24.9555529,121.2940426
忠勇一街停車場,桃園市八德區忠勇一街120號,43,0,24.9656889,121.3038652
Times內壢成章二街停車場,中壢區成章二街與文城南街口號,125,0,24.9792763,121.25252
機場捷運長庚醫院A8站共開大樓停車場,桃園市龜山區復興一路8號,391,408,25.0605103,121.3699843
Times桃園中正莊敬停車場,桃園區富國段99號,176,0,24.9934099,121.2969674
Times中壢中北路第3停車場,中壢區中北路38號,17,0,24.955872,121.236669
小人國主題樂園停車場,桃園市龍潭區高原里高原路891號,171,4,24.8297534,121.1929035
GLORIA OUTLETS華泰名品城停車場,桃園市中壢區春德路189號,641,533,25.0145382,121.2127909
Times大園中正西路停車場,桃園市大園區中正西路12號,41,0,25.0638556,121.1954603
南榮地下停車場,桃園市蘆竹區洛陽街107號,77,0,25.0451335,121.2910276
永春停車場,中壢區永春路與永順街口(青溪段277號,108,54,25.0133229,121.2056939
站前東停車場,中壢區青山路與青心路口(青昇段430號,73,175,25.0126189,121.2191537
站前西停車場,中壢區青園路與高鐵站前西路一段路口(青平段42號,90,140,25.0100617,121.2165876
青昇停車場,中壢區青峰路一段與青昇路口(青昇段406號,77,175,25.0142725,121.2243236
Times中茂新天地停車場,桃園市桃園區同德五街61~77號,295,0,25.0143247,121.3000271
Times桃園莊敬停車場,桃園區莊敬路一段375號,74,0,25.0235082,121.2959675
新明國小地下停車場,中壢區明德路211號,272,262,24.9611578,121.2168306
永豐-廈門停車場,桃園市桃園區廈門街68號,72,0,24.994762,121.297827
中壢廣明一停車場,中壢區廣明路與忠孝路49巷旁空號,89,0,24.9543905,121.2139062
桃園新站停車場,桃園市桃園區延平段1號,38,100,24.983649,121.3147124
新明市場停車場,桃園市中壢區明德路60號,81,59,24.9563375,121.2162108
大連平面停車場,平鎮區上海路與中庸路口號,88,0,24.9129382,121.2063489
上海平面停車場,平鎮區中庸路與上海路口號,55,0,24.9129382,121.2063489
Times桃園國豐五街停車場,桃園區龍安段國豐五街51號,42,0,24.9912456,121.2797191
延平立體停車場,中壢區延平路535號,201,161,24.9560083,121.223199
格式停車場,桃園區新埔八街31號,50,0,25.0194532,121.2989526
Times桃園大華九街停車場,桃園市桃園區大華九街47-1號,23,0,25.0040645,121.306742
華亞園區科技二路停車場,桃園市龜山區科技二路與文化二路口號,112,116,25.051504,121.372575
華亞園區廣停四停車場,桃園市龜山區華亞五路上號,593,1280,25.0359966,121.374867
華亞園區公園五停車場,桃園市龜山區華亞科技九路上號,143,0,25.051504,121.372575
華亞園區公園六停車場,桃園市龜山區科技九路上號,259,0,25.0351229,121.3759192
Times優衣庫中壢中華路停車場,桃園市中壢區中華路一段699號,47,0,24.9686438,121.2492806
福興停車場,桃園市桃園區福山街79巷2弄38號,11,0,25.0151525,121.3101311
新長越民族停車場,桃園市桃園區民族路55號,35,0,24.9901533,121.3097048
桃園市立蘆竹羽球館停車場,桃園市蘆竹區南華段25-1及25-7號,25,0,25.0784359,121.2969674
忠勇停車場,八德區忠勇一街與忠勇六街交叉口號,50,0,24.9655767,121.3055013
中壢廣明二停車場,中壢區廣明路與廣明路122巷旁空號,253,0,24.9551893,121.2141167
家樂福平鎮分公司停車場,桃園市平鎮區莊敬里48鄰坤慶路1號,267,0,24.9026362,121.2124509
中鑄停車場,中壢區中華路一段619巷旁號,26,0,24.9688362,121.2507885
大豐停車場,桃園市桃園區大豐路51號,113,0,24.980484,121.317992
五都停車場高鐵桃園三站,中壢區青昇段440-1及441號,228,0,25.0142725,121.2243236
桃園市桃園區公所國道二號橋下停車場,桃園區上海路與國強一街口及龍安街與中華路口之國道二號,157,0,24.9926913,121.2822809
長興一路停車場,桃園市八德區福興段903號,61,0,24.97866,121.2747422
和義二停車場,八德區和義二街39號,25,0,24.9603935,121.3074432
和義一停車場,八德區和平路與和義一街口號,26,0,24.957931,121.3078829
Times中壢中北路4停車場,中壢區中北段1161號,41,0,24.957537,121.2410215
GLORIA OUTLETS華泰名品城停車場(二期),桃園市中壢區春德路169號,595,0,25.0150845,121.2141377
桃花園飯店停車場,桃園市桃園區復興路147號,42,0,24.9899769,121.311652
台灣聯通廣豐新天地停車場,桃園市八德區介壽路一段728號,1108,863,24.96491,121.2992578
寶慶停車場,桃園區寶慶路503號,145,0,25.0198623,121.2896218
Times桃園同德五街停車場,桃園市桃園區同德五街25號,49,0,25.0149739,121.3015704
小沈臨時停車場,中壢區培英路232號,79,0,24.9770645,121.2256869
桃園市立圖書館龜山分館地下停車場,桃園市龜山區自強南路97號,72,0,24.991867,121.338613
陽明綜合大樓地下停車場,桃園市桃園區陽明三街33號,23,11,24.9793277,121.3073034
大林社區活動中心地下停車場,桃園市桃園區大原路31號,11,0,24.977755,121.320365
桃園市立圖書館平鎮分館停車場,桃園市平鎮區環南路三段88號,89,0,24.9394189,121.2177529
林口復興停車場,復興二路33巷16弄號,18,0,25.053983,121.3729776
富山停車場,中壢區東寮段1853號,132,0,24.9721514,121.2053963
Times中壢明德路停車場,中壢區明德路198號,41,0,24.9598028,121.217028
文康停車場,中壢區高鐵南路二段350號,125,0,25.0029931,121.2046581
青雲公有停車場,領航南路三段與青雲路交叉(中壢區領航南路三段238號,103,0,25.0103061,121.2203993
青松公有停車場,中壢區領航南路二段與青松街口(中壢區青商路1號,40,0,25.0049676,121.2167623
環北停車場,中壢區環北路89號,23,0,24.966421,121.218951
青商公有停車場,中壢區高鐵站前西路一段與領航南路三段口(中壢區領航南路三段102~112號,48,0,25.007986,121.21821
大竹圍平面停車場,蘆竹區博愛街與明德街交叉口(博愛街18號,17,0,25.0238127,121.2617457
桃園市土地公文化館停車場,桃園市桃園區三民路一段100號,40,0,24.998189,121.321246
萬和小客車租賃股份有限公司中壢營業所停車場,桃園市中壢區環北路與新生路交叉口號,346,0,24.967197,121.22113
金陵停車場,桃園市平鎮區振平段187號,35,0,24.9437763,121.2196292
吉安停車場,桃園區中路二段8號,57,0,25.001919,121.287392
裕源普利茲廣場停車場,桃園市桃園區大林路號,34,0,24.9877565,121.3145813
Times JC PARK桃園春日館停車場,桃園市桃園區春日路618號,149,0,25.009333,121.311635
Times龜山文康街停車場,桃園市龜山區樂善段181號,40,0,25.052038,121.382722
豐義龍宮街停車場,桃園市八德區龍宮街73巷13號,68,0,24.9266001,121.2572591
富山中壢區龍岡圖書館地下停車場,桃園市中壢區台貿一街100號,49,0,24.9376802,121.2558996
Times桃園龍泉五街停車場,桃園區龍祥段6號,76,0,24.9809586,121.2713236
Times中壢後興路2停車場,桃園市中壢區後興路一段169號,13,0,24.9413968,121.2459539
家樂福內壢分公司停車場,桃園市中壢區中華路一段450號,9,0,24.9731158,121.2535158
A21環北站停車場,桃園市中壢區中豐北路一段26號,132,275,24.9676191,121.2211107
A20興南站停車場,桃園市中壢區中豐北路一段，青埔高爾夫球場旁號,10,105,24.9878142,121.2094049
林口文化停車場,桃園市龜山區公西段697及764號,95,0,25.063211,121.3557151
名軒快樂家地下停車場,桃園市龜山區文學路221號,71,0,25.0397802,121.3899332
Times桃園中華路停車場,桃園區桃園段武陵小段115-4號,29,0,24.987672,121.2857263
Times 蘆竹興仁路,桃園市蘆竹區興仁路112號,16,0,25.0182776,121.2606831
廣豐一停車場,桃園市八德區桃德路100巷與公園路口號,118,0,24.9675745,121.2969085
大興平面停車場,平鎮區金城街與大興街交叉口號,27,0,24.9115485,121.2089585
中壢區五福停車場,桃園市中壢區五光一街82號,126,80,24.959597,121.20944
大有路桃殯停車場,桃園區峨眉段937號,18,0,25.021431,121.314477
龍安停車場,桃園市桃園區龍安街137號,13,0,24.9908079,121.2796453
驛鑫交通股份有限公司林口場,桃園市龜山區復興一路222號,18,0,25.057557,121.36514
博客停車場楊梅站,楊梅區大模街10號,99,0,24.9128508,121.1444587
Times八德廣興二路,桃園市八德區廣興二路與長興一路口號,19,0,24.9330997,121.2824995
Times桃園同安街停車場,桃園區新埔段880號,13,0,25.0153026,121.3038834
富山民有13街停車場,桃園區寶山段1008號,13,0,24.9934099,121.2969674
青航停車場,桃園市大園區青山段285號,55,0,25.0492632,121.193945
Times八德豐田三路,桃園市八德區豐田三路103號,28,0,24.9283322,121.2868254
中壢停一收費停車場,桃園市中壢區新興路198號,22,17,24.9532861,121.2277859
Times桃園春日路停車場,桃園區大興段908號,77,0,25.0097658,121.2957252
Times桃園永福西街停車場,桃園區中路段2656號,22,0,24.9864321,121.2916689
機場捷運A7體育大學站停車場,桃園市龜山區文化一路688號,40,62,25.0413252,121.385281
也翔中山路停車場,桃園區中山路1306號,80,0,24.9805983,121.2742756
A17領航站停車場,桃園市大園區領航北路四段251號,22,156,25.0253078,121.2207727
A15大園站停車場,桃園市大園區橫湳一路50號,20,94,25.0560632,121.2104866
Times 蘆竹五福一路,桃園蘆竹區五福一路120號,93,0,25.0556576,121.29424
五都停車場桃園法院站,桃園區永安路765巷與正光路路口旁號,112,0,25.005845,121.2896193
Times蘆竹南崁路停車場,桃園市蘆竹區南崁路69號,13,0,25.045101,121.295779
同安停車場,桃園區同安街415號,12,0,25.0185902,121.3015041
福德停車場,桃園市中壢區後寮一路上號,54,0,24.9379435,121.2464753
台灣聯通遠東停車場,桃園區中正路20號,240,0,24.9897388,121.3137948
桃園春日站停車場,春日路1463號,16,0,25.0219255,121.3075249
Times桃園國強六街停車場,桃園區國強六街8號,24,0,24.988111,121.2794945
正光停車場,桃園區廈門街174號,20,0,24.994587,121.295696
Times中壢中豐路停車場,中壢區中豐路325號,17,0,24.9572979,121.2190044
全方位停車場同安站,桃園區同安段965號,49,0,25.0215708,121.3024157
中壢區石頭段公有停車場,中壢區龍岡路一段與金陵路交叉口號,133,0,24.9508522,121.2230141
桃園國際機場第二航廈4號停車場,桃園市大園區埔心村航站南路9號,2797,0,25.0796514,121.234217
A16橫山站停車場,桃園市大園區大竹南路1180號,25,34,25.0420697,121.2391829
A11坑口站停車場,桃園市蘆竹區坑菓路460號,35,178,25.0879248,121.2656024
Times楊梅中山北路一段,中山北路一段356號,57,0,24.9089106,121.1572076
嘟嘟房第一航廈1號停車場,桃園市大園區中正段61號,919,0,25.0120587,121.2257476
嘟嘟房第一航廈貨運區1號停車場,桃園機場第一航廈貨運區號,205,0,25.0796514,121.234217
嘟嘟房第一航廈2號停車場,桃園市大園區中正段140號,811,0,25.0332723,121.2310061
嘟嘟房第一航廈貨運區3號停車場,台北市南港區三重路19-5號,300,0,25.056985,121.613732
嘟嘟房第一航廈貨運區2號停車場,桃園機場第一航廈貨運區號,282,0,25.0796514,121.234217
中興北路停車場,新屋區中興北路(新屋國小旁)號,23,0,24.9736687,121.1020927
Times中壢環北路停車場,中壢區環北路與七和路交叉口(六和段1號,407,0,24.9453453,121.1858942
台灣聯通延平停車場,桃園市平鎮區延平路一段2號,44,0,24.9527717,121.2210007
中路停一停車場,桃園區中路一段47號,65,0,25.001919,121.287392
中路停三停車場,桃園區中路三段45號,57,19,25.0234136,121.224586
中路停五停車場,桃園區中路二段285號,115,0,25.001919,121.287392
中路停六停車場,桃園區中路三段119號,115,0,25.001919,121.287392
武陵小段停車場,桃園區桃園段武陵小段186-1號,22,0,25.0204325,121.2759989
台灣聯通桃園高明停車場,桃園市八德區永興街129號,68,0,24.9773862,121.2736334
桃園大衛營地下停車場,桃園市桃園區新埔六街70號,78,0,25.0149451,121.3024478
Times桃園延壽街停車場,桃園區中正段1198-2號,17,0,24.9955311,121.2830099
Times蘆竹六福路停車場,桃園市蘆竹區六福路246號,49,0,25.0608991,121.2986658
全方位停車場寶興站,桃園區民有三街501號,60,87,25.0128804,121.3139253
Times八德金和路,桃園市八德區金和路與同和路交叉口號,285,0,24.9546626,121.2949701
桃園市南區青少年活動中心停車場,桃園市平鎮區延平路一段168號,71,0,24.9507729,121.2168909
大華段公有停車場,中壢區成章二街55號,29,0,24.9791624,121.2516487
桃園國民運動中心停車場,桃園區中山東路233號,55,52,24.99802,121.320783
桃園藝文園區地下停車場,桃園區藝文一街55號,517,409,25.0157007,121.3006014
Times蘆竹南崁路2停車場,桃園市蘆竹區錦明段124號,25,0,25.033698,121.3010541
宏泰停車場,桃園區泰昌二街(近宏昌十一街口)桃園區中平段283-4號,60,0,24.9869863,121.297358
盛園停車場,桃園市大園區華中街2號,20,0,25.0623117,121.1959554
Times龜山南上路,桃園市龜山區南上路50巷57號,43,0,25.047875,121.2959761
春祥文化停車場,桃園市龜山區文化段59號,178,0,25.0199092,121.3655989
鹿過停車場大興站,桃園區大興西路二段69巷26號,86,0,25.0106201,121.2987637
桃鶯橋停車場,桃園區大樹林段732號,14,0,24.830647,121.32838
Times桃園鎮東街停車場,桃園區東門段493號,12,0,24.9944936,121.3152904
A8停車場,桃園市龜山區文化段87號,55,0,25.058222,121.3636075
千葉火鍋附設停車場,桃園八德區大和路56號,64,0,24.9547462,121.2984183
台灣聯通桃園廣興停車場,桃園市八德區中正北路與廣興路109巷交叉口號,73,0,24.9318802,121.2834067
忠貞二公有停車場,桃園市平鎮區中正三路與龍平路口旁號,15,0,24.9284268,121.2546569
忠貞三公有停車場,桃園市平鎮區中正三路與忠貞路口旁號,57,0,24.9284268,121.2546569
文化一路停車場,文化一路10巷20號,14,0,25.0593886,121.3705665
八德區瑞祥停車場,桃園市八德區介壽路二段1233巷48弄號,178,0,24.9305286,121.2992194
馳特龍強停車場,桃園區龍安段336號,7,0,24.9882174,121.2808064
南平運動中心停車場,桃園區南平路22號,46,30,25.0184166,121.2994339
川源停車場,桃園區建國段602號,34,0,24.9934099,121.2969674
Times桃園高鐵站前西路一段停車場,桃園市中壢區高鐵站前西路一段與致祥一路交叉口(中壢區青平段31號,180,0,25.0090168,121.2174662
南平停車場,蘆竹區洛陽街68號,49,0,25.044968,121.2905941
洛陽停車場,蘆竹區洛陽街135號,17,0,25.0445775,121.2905529
憲兵隊停車場,桃園區復興路295號,48,0,24.988958,121.305911
Times大溪信義路停車場,大溪區田心子段下田心小段1949號,25,0,24.8658422,121.2969674
長揚企業社停車場,桃園區同安段1812號,35,0,25.017618,121.302401
宏昌二站停車場,桃園區中山段275號,17,0,24.8654923,121.2101288
宏昌一站停車場,桃園區中山段166號,42,0,24.8672003,121.2105996
大華五街站停車場,桃園區埔子段埔子小段2028-84號,23,0,25.010468,121.287966
新埔六街鴻崴停車場,桃園區同德段53-1號,30,0,25.0156907,121.2975448
全聯中壢福州停車場,中壢區福州一街126號,3,0,24.9654308,121.2325288
禾暉(同德)停車場,桃園區中埔段264號,91,0,24.9934099,121.2969674
Times龜山頂興路,桃園市龜山區頂興路41巷58號,10,0,24.9903953,121.329769
中壢中北平面停車場,中壢區中北路二段437巷115號,33,0,24.955861,121.2320879
中壢國民運動中心停車場,桃園市中壢區三光路350號,107,41,24.9643003,121.2152849
豐林停車場,中壢區華勛街208巷52弄32號,70,0,24.9484986,121.2592417
Times UNIQLO桃園春日店停車場,桃園區汴洲段413號,100,0,25.0269486,121.3069787
全聯大園華興停車場,桃園市大園區華興路36號,18,0,25.064529,121.192685
龍華公有停車場,龍潭區金龍路80巷20弄14號,30,0,24.8566294,121.2124033
嘟嘟房第一航廈貨運區4號停車場,嘟嘟房第一航廈貨運區號,140,0,25.086941,121.244289
Times蘆竹南竹路停車場,蘆竹區南竹路一段98巷16號,27,0,25.0472492,121.2901404
Times桃園民族長壽停車場,桃園區桃園段武陵小段101號,26,0,24.987672,121.2857263
Times桃園大業路2停車場,桃園區會稽段909號,19,0,25.0007754,121.316126
台灣聯通桃園頂好停車場,桃園區中正路48巷9號,34,0,24.9914474,121.3133774
廣豐二停車場,桃園市八德區廣豐二街與廣豐三街交叉口號,150,30,24.9657612,121.2955438
大和段停車場,桃園市八德區建國路與文昌街口號,45,0,24.9559113,121.2941741
文昌街停車場,桃園市八德區文昌街111巷與文昌街111巷28弄口號,25,0,24.9528853,121.2962033
楊梅天成停車場,桃園市楊梅區中山北路一段356號,153,85,24.9089106,121.1572076
台灣聯通仁海宮停車場,中壢區延平路211號,7,0,24.961651,121.22796
Times中壢長沙路停車場,中壢區長沙路16號,59,0,24.9486457,121.229302
中壢中平站,中壢區興南段中壢老小段222-27號,11,0,24.978938,121.221409
全方位停車場永安站,桃園市桃園區中路三段42號,63,0,25.001919,121.287392
富山中壢龍岡停車場,中壢區石頭段162號,10,0,24.949375,121.236972
桃園市立圖書館龍潭分館暨鄧雨賢台灣音樂紀念館停車場,中興路680號,71,71,24.8705537,121.2226096
助安168桃園蘆竹停車場,桃園市蘆竹區建國路15號,49,0,25.0372676,121.3001184
京都停車場,桃園市大園區春德路188號,159,0,25.0166638,121.2128251
兒十四地下停車場,桃園市大園區菓林里7鄰福德路68巷45號,38,0,25.0754482,121.2577765
公二地下停車場,桃園市八德區福國北街220號,51,0,24.9629953,121.2966174
大忠地下停車場,桃園市八德區大忠街141號,332,0,24.9580921,121.3007926
和雲八德介壽路停車場,桃園市八德區介壽路二段34號,23,0,24.9571075,121.2989276
佳升停車場,桃園區有恒段436號,39,0,25.031509,121.295511
長興停車場,長興街二段與介壽路720巷旁號,83,0,24.9057351,121.2837367
南門公園地下停車場,桃園市桃園區三民路3段260號,345,615,24.9911328,121.3062624
新富段停車場,桃園市平鎮區環南路二段290號,115,0,24.9401272,121.2148315
台灣聯通桃園五福停車場,桃園市蘆竹區五福六路56巷27弄26號,71,0,25.0552642,121.2954281
Times 平鎮惠州街,桃園市平鎮區惠州街14巷1號,38,0,24.9169538,121.2078808
禮頓企業有限公司長庚站停車場,桃園市龜山區文昌一街47巷15號,13,0,25.0586887,121.3692666
桃園市立游泳池停車場,桃園市桃園區中平路34號,38,0,24.9884004,121.2925038
Times八德東勇二路停車場,桃園市八德區東勇二路33號,24,0,24.9672761,121.3059141
桃園客家文化館停車場,中正路三林段500號,91,0,24.8454699,121.234544
Times龜山復興南路,桃園市龜山區復興南路106巷32號,23,0,25.0545758,121.374962
平鎮國民運動中心,桃園市平鎮區中庸路18號,69,0,24.9134993,121.2094153
Times桃園莊敬路二段停車場,桃園區和平段529號,60,0,24.9934099,121.2969674
GLORIA OUTLETS華泰名品城停車場(三期),桃園市中壢區春德路169號,1097,0,25.0150845,121.2141377
博客停車場開發股份有限公司家樂福經國場,桃園市桃園區經國路369號,1134,395,25.0159488,121.3050123
Times桃園龍安街停車場,桃園區江南段91-4號,17,0,24.991927,121.280035
Times桃園民富二街停車場,桃園區三元段794號,21,0,25.0047871,121.2957829
台灣聯通文化七停車場,桃園市龜山區文化七路186號,7,0,25.0517347,121.3677272
台灣聯通大華停車場,桃園市龜山區文化七路206巷16弄21號,12,0,25.0513263,121.3683833
全聯龜山中興停車場,桃園市龜山區新樂街36號,31,0,24.9928799,121.3357187
泉欣企業社壢新營業所,桃園市平鎮區廣泰路35號,26,0,24.9473508,121.2057215
奉化停車場,桃園市蘆竹區河底段734號,90,0,25.0784359,121.2969674
南順停車場,桃園市蘆竹區河底段283號,45,0,25.0630809,121.2805707
龍平停車場,中壢區龍江路62號,91,0,24.9316393,121.2571879
成昮停車場,文化七路54巷與文東五街57巷交叉路口處(興華段1141號,33,0,25.0511896,121.3621903
Times八德廣興二路第2停車場,桃園市八德區廣興二路與中正北路口號,18,0,24.9329699,121.2841568
全方位停車場藝文站,桃園區中正路1066號,84,0,25.0136796,121.299962
全方位停車場南平站,桃園區新埔七街102號,88,0,25.020542,121.301442
文化七停車場,桃園市龜山區文七三路33號,13,0,25.059771,121.363859
興國(二)停車場,中壢區老街溪段4號,101,0,24.9721514,121.2053963
昇捷建設停車場,同德段41號,100,0,25.0222542,121.2947988
Times龜山文化三路第2,桃園市龜山區文化三路373號,23,0,25.0553388,121.3662104
Times龜山文化三路,桃園市龜山區文化三路373號,67,0,25.0553388,121.3662104
草漯第一停車場,桃園市觀音區大觀路二段176之2號,40,6,25.0460191,121.1409999
石頭燒肉附設停車場,桃園市八德區金和路7號,56,0,24.9552596,121.2974206
桃園經國轉運站停車場,桃園區經國路801號,0,180,25.0290383,121.3004851
創新停車場,桃園市平鎮區中正一路6號,46,0,24.9262925,121.2555606
大林一站停車場,桃園市桃園區大林路93號,83,0,24.9869977,121.3128103
台灣聯通龜山興華停車場,桃園市龜山區文化三路106之1號,49,0,25.0566582,121.3643208
文化七停車場,桃園市龜山區文七三路33號,33,0,25.059771,121.363859
經國停車場,經國二路230號,43,0,24.810087,120.960919
金德路停車場,桃園市楊梅區金德路6號,0,74,24.9150222,121.1459187
Times桃園藝文二街停車場,桃園市桃園區藝文二街58號,32,0,25.0153545,121.3001813
台灣聯通中壢廣州停車場,中壢區廣州路77號,8,0,24.9511424,121.2300568
青埔站前停車場,中壢區青平段32號,143,238,25.0676077,121.1962336
Times桃園莊敬路一段,桃園市桃園區莊敬路一段211-1號,19,0,25.0248717,121.2992983
正好停民族站,桃園市平鎮區民族路二段193巷10號,13,0,24.9562462,121.2038051
義勇停車場,八德區義勇街3號,8,0,24.96419,121.3006699
中山停車場,桃園市桃園區西湖里中山路358號,10,0,24.9926374,121.304905
桃園榮總停車場,桃園市桃園區成功路3段100號,224,354,25.0043796,121.325243
正好停新富站,桃園市平鎮區新富一街與新富三街交叉口號,41,0,24.9427641,121.2146852
小檜溪停車場,桃園市桃園區青溪三路與朝陽街交叉口停車場號,125,0,25.0045945,121.3113277
馥裕東勇停車場,八德區國道二號,44,0,24.9752524,121.2964489
水汴頭平面停車場,桃園區經國一路112號,119,231,25.029909,121.2993761
Times中壢福安二街停車場,中壢區福安二街82號,23,0,24.9682198,121.2317597
Times八德長興一路停車場,八德區長興一路與廣興二路口號,232,0,24.9330997,121.2824995
Times中壢環西路二段停車場,中壢區環西路二段91號,15,0,24.9637119,121.208972
豐義楊梅區金華街停車場,桃園市楊梅區金華街39號,53,0,24.9099764,121.1431087
Times龜山文化七路停車場,桃園市龜山區文化七路206巷100弄與182巷交叉路口處(興華段886-1號,40,0,25.0503009,121.3697788
轉運站二,桃園市龜山區文化段8號,84,0,25.0199092,121.3655989
中信停車場,桃園市桃園區中山路904巷88號,68,0,24.992597,121.287608
Times八德中路街2停車場,桃園市八德區中路街21號,33,0,24.9615891,121.2940698
中北三七三停車場,中壢區中北路二段373巷5弄巷底號,44,0,24.95406,121.2306845
Times龜山文昌三街停車場,桃園市龜山區文昌三街12號,10,0,25.0581821,121.3686565
驛鑫交通股份有限公司林口文化二站,桃園市龜山區文化二路60號,11,0,25.0564187,121.3672715
Times龜山文化三路第3停車場,桃園市龜山區文化三路638號,17,0,25.0504674,121.3704109
正好停正光站,桃園市桃園區正光路與正光路86巷口旁號,31,0,24.9951741,121.2958852
創新停車場貿東站,桃園市平鎮區貿東路18巷旁號,49,0,24.9274611,121.2537462
渴望會館西側停車場,桃園市龍潭區渴望路與渴望二路交叉路口號,41,0,24.839635,121.183915
正好停文化站,桃園市平鎮區廣德街78巷37號,38,0,24.9548249,121.204084
永吉豐有限公司中壢青埔場,中壢區青雲路108號,125,0,25.0146319,121.21962
南崁聯停車場,蘆竹區仁愛路一段26號,72,0,25.0508452,121.2948186
中壢復興平面停車場,中壢區長樂街110號,48,0,24.97402,121.249806
桃園市觀音區新坡多功能場館停車場,桃園市觀音區新坡里5鄰新生路76巷8弄1號,29,0,25.014199,121.1368417
中路二號基地社會住宅地下停車場,桃園區中成里17鄰力行路288巷1號,170,395,24.9997319,121.297405
全方位停車場文中站,桃園市桃園區文中路65號,52,24,24.9958504,121.293242
Times優衣庫楊梅中山北路店,桃園市楊梅區中山北路二段345號,70,0,24.9120352,121.1754533
桃園市蘆竹國民運動中心停車場,桃園市蘆竹區仁愛路一段49號,70,171,25.0510962,121.2943591
應安168桃園一停車場,桃園市吉林路36號,90,24,24.9884514,121.3152472
Times楊梅金山街停車場,桃園市楊梅區金山街與新農街318巷口號,80,0,24.9093986,121.1558167
桃園市龜山區文昌停車場,桃園市龜山區文昌二街76號,119,0,25.0563574,121.3699415
桃園市龜山區復興北停車場,桃園市龜山區復興北路81號,23,0,25.0581013,121.3705811
桃園市大溪國小運動中心地下停車場,桃園市大溪區仁愛路2號,77,45,24.8840381,121.2854919
龍潭停一公有停車場,新北市板橋區雙十路二段47巷19號,95,0,25.0255828,121.4755563
廣金企業社,桃園市平鎮區廣仁里廣南路65巷5號,58,0,24.9419428,121.2081554
中豐停車場,桃園市平鎮區新富里中豐路170號,60,0,24.9446219,121.216826
百里亭有限公司龜山萬壽停車場,桃園市龜山區中和路126號,44,0,24.9968346,121.3435725
東門溪停車場,桃園市桃園區復興路51號,0,232,24.9908728,121.3161919
龍潭艾瑪特停車場,龍潭區中正路106號,45,0,24.8674835,121.2157728
大園公有零售市場停車場,桃園市大園區忠孝三街19號,53,0,25.0657786,121.1989074
溢冠停車場,大園區青峰段312號,100,11,25.0492632,121.193945
桃園三民停車場,桃園市桃園區青溪二路與春日路旁空號,121,0,25.0037605,121.3130876
鹿過停車場榮民站,桃園市中壢區榮民路323號,71,0,24.963084,121.262092
七和二停車場,中壢區七和一街103號,103,0,24.9637686,121.226272
七和一停車場,中壢區慈惠三街158巷4號,121,0,24.9649789,121.2267406
超營收費停車場,桃園市桃園區中山路1496巷旁號,99,0,24.9771242,121.267881
Times龜山復興北路停車場,桃園市龜山區復興北路94號,11,0,25.0578005,121.3704904
Times楊梅萬大路停車場,桃園市楊梅區萬大路116巷32號,72,0,24.9100345,121.1772897
市十三停車場,桃園市龜山區復興南路26巷23號,133,0,25.056301,121.371788
停十八停車場,桃園市龜山區文化二路與文二一街交叉口(公西段727號,122,125,25.0611403,121.3644895
公十二停車場,桃園市龜山區湖邊路與復興街交叉口(文化段12號,473,338,25.0635094,121.3664831
龍潭停二公有停車場,桃園市龍潭區北龍路242號,134,100,24.8672847,121.216555
文三興華停車場,桃園市龜山區大湖里文化三路78巷19弄1-2號,16,0,25.057452,121.362448
假日花市停車場,桃園市桃園區壽山路190號,80,70,24.9959057,121.3250395
全聯春德停車場,桃園市大園區領航北路三段199號,34,0,25.0174263,121.212352
文小二停車場,桃園市桃園區慈文路與文中二路交叉口號,483,222,25.0007092,121.2898193
正光停車場,中壢區正光街146號,20,0,24.959869,121.2038754
懷寧醫院附設停車場,中壢區志廣路119號,150,59,24.9614439,121.2054961
永發停車場,中壢區永發路與公園路口號,146,18,25.0054865,121.2040063
雙嶺停車場,中壢區民族路六段與松信路口號,116,79,24.9602252,121.1636769
顏新停車場,蘆竹區桃園街8號,10,0,25.0428653,121.2935231
桃園文中停車場,桃園市桃園區中路二段317號,28,0,25.001919,121.287392
社子陂埤停車場,平鎮區東安段50-3號,46,0,24.917755,121.250224
正好停福州站,中壢區福州路243號,11,0,24.948969,121.23486
文東五停車場,桃園市龜山區文東五街117巷30號,32,0,25.0509987,121.362488
桃園市大園區農會本會停車場,桃園市大園區中正東路103號,39,0,25.062865,121.201668
桃園市大園區農會三和停車場,桃園市大園區三石里福德路8鄰1號,50,0,25.074384,121.258996
勝利停車場,中壢區青雲路與青山路交叉口(青昇段417號,145,0,25.0138103,121.2203549
