NAME,ADDRESS,CAR_NUM,MOTOR_NUM,lat,lng
竹北市縣治停車場,竹北市縣華段142號,758.0,0.0,24.8346871,120.9933678
湖口鄉中興立體停車場,湖口鄉興湖段58-74等17筆號,147.0,0.0,24.8990046,121.03957820000001
竹東仁愛路公有停車場(廣停二),新竹縣竹東鎮仁愛路/學前路口(竹東鎮仁愛段1252號,163.0,0.0,24.7348375,121.0905953
華興街立體停車場,竹北市華興段129號,135.0,0.0,24.839478500000002,121.00199440000002
中正東路停車場,竹北市竹仁段1024號,45.0,0.0,24.837015100000002,121.0121895
停六文化停車場,竹北市翰林段1347號,103.0,0.0,24.8346871,120.9933678
東元停車場,竹北市縣福段224號,68.0,0.0,24.826879199999997,121.0129037
臺灣高速鐵路股份有限公司新竹站停車場,竹北市世興段3號,799.0,917.0,24.8117275,121.038693
CAR IN竹榮站停車場,竹東鎮資源段120號,66.0,190.0,24.7628426,121.0891473
廣四廣場停車場,竹北市新國段366號,68.0,0.0,24.8435013,120.9988834
停四勝利停車場,竹北市大學段524號,48.0,0.0,24.8346871,120.9933678
停五成功停車場,竹北市公園段748號,37.0,0.0,24.8346871,120.9933678
停六自強停車場,竹北市公園段470-1號,174.0,0.0,24.8397212,121.008766
停七光明停車場,竹北市翰林段606號,309.0,0.0,24.8346871,120.9933678
竹東鎮三重社區活動中心前公有停車場(中興路),竹東鎮四重段826號,36.0,0.0,24.774922,121.04497679999999
縣華段停車場,竹北市縣華段140號,109.0,0.0,24.8276188,121.00898459999999
承恩建設股份有限公司,竹北市大學段521號,843.0,0.0,24.8346871,120.9933678
好庭車文興停車場,竹北市隘興段538號,119.0,34.0,24.8346871,120.9933678
好庭車縣政二停車場,竹北市縣福段115號,145.0,0.0,24.8053098,121.0361385
公二暨停五公有停車場,竹北市翰林段1476號,475.0,0.0,24.8346871,120.9933678
竹北市停15路外停車場,新竹縣竹北市縣華段561號,326.0,0.0,24.8346871,120.9933678
竹北市停十三仁德停車場,竹北市竹仁段1045及1046號,47.0,0.0,24.837015100000002,121.0121895
竹北高鐵停6路外停車場,竹北市永興段510號,150.0,0.0,24.8287095,121.0169462
新竹芎林鄉停1路外停車場,芎林鄉廣福段204(部分)號,28.0,0.0,24.775422199999998,121.079627
重光75停車場,竹東鎮重光段0075-0000號,9.0,0.0,24.736230199999998,121.0913634
和平街停車場,新埔鎮福德段15號,43.0,0.0,24.849606100000003,121.09083290000001
新社停車場,竹北市社北段437號,53.0,0.0,24.8346871,120.9933678
Times竹北市光明六路停車場,竹北市公園段473號,99.0,0.0,24.8346871,120.9933678
官德男停車場,竹東鎮重光段0076-0002號,78.0,0.0,24.736230199999998,121.0913634
新竹縣湖口工業區鳳凰村仁樂路停車場,湖口鄉建興段鳳凰小段0529號,223.0,0.0,24.8814458,121.04497679999999
龍天宮停車場,橫山鄉九讚頭382號,11.0,0.0,24.717257,121.14168899999999
Times竹北市三民路停車場,竹北市豆子埔段1027號,19.0,0.0,24.836395,121.017655
新瓦屋客家文化保存區附設停車場,竹北市永興段722號,27.0,0.0,24.8287095,121.0169462
停八嘉德停車場,竹北市台科段3部分號,90.0,0.0,24.8256342,121.00471200000001
斗星停車場,竹北市府前段1212號,78.0,0.0,24.8287095,121.0169462
仁發香榭停車場,竹北市莊敬段744號,58.0,0.0,24.8346871,120.9933678
臻觀社區停車場,竹北市隘興段628-2號,54.0,0.0,24.8346871,120.9933678
竹北天后宮停車場,竹北市竹仁段898號,46.0,0.0,24.837015100000002,121.0121895
Times竹北市文壽街停車場,竹北市翰林段1440號,14.0,0.0,24.8100405,121.0230537
Times竹北市仁義路停車場,竹北市豆子埔595號,18.0,0.0,24.836395,121.017655
Times竹北市文采街停車場,竹北市翰林段1009號,38.0,0.0,24.8346871,120.9933678
Times竹北市文信路停車場,竹北市翰林段1032號,28.0,0.0,24.8346871,120.9933678
 停十六斗崙停車場,竹北市台科段203號,116.0,0.0,24.8256342,121.00471200000001
富宇君天下室內地下停車場,竹北市永興段453號,57.0,0.0,24.8287095,121.0169462
竹北三民停車場,竹北市竹義段429號,36.0,0.0,24.838006,121.00651699999999
中興停車場,湖口鄉中興段中興小段518號,72.0,0.0,24.8666921,121.02840659999998
五都停車場高鐵新竹一站,竹北市世興段33號,127.0,0.0,24.8117275,121.038693
竹北博愛街平面停車場,竹北市站前段154號,48.0,0.0,24.808192000000002,121.0402254
新竹縣游泳館停車場,公園段1164號,63.0,0.0,24.8209348,121.02057079999999
三千湖口停車塔,湖口鄉建興段建興小段205號,80.0,0.0,24.8814458,121.04497679999999
Times竹北市文信建國停車場,竹北市豆子埔982號,20.0,0.0,24.836395,121.017655
竹北暐順經貿大樓地下停車場,竹北世興段46號,556.0,500.0,24.8117275,121.038693
竹北停九停車場,竹北市自強段168號,67.0,0.0,24.8074604,121.03882309999999
伯公下停車場,非都市土地(橫山鄉內灣段610號,68.0,0.0,24.705759399999998,121.17819750000001
關西第一停車場,關西鎮明德段457號,128.0,0.0,24.8044851,121.1481284
停二泰和停車場,竹北市東華段1031號,64.0,0.0,24.850054,121.00464199999999
 廣停一機車停車場,竹北市站後段19號,0.0,373.0,24.8346871,120.9933678
小叮噹科學主題樂園停車場,新豐鄉上坑段225號,532.0,150.0,24.883260999999997,120.9790281
Times竹北市文愛街停車場,竹北市翰林836號,32.0,0.0,24.8346871,120.9933678
六福主題樂園停車場,關西鎮拱子溝段120號,2275.0,910.0,24.808257,121.18405
Times竹北市勝利三街停車場,竹北市大學段169號,21.0,0.0,24.8346871,120.9933678
富宇天空樹室內地下停車場,竹北市莊敬段546號,39.0,0.0,24.8185102,121.02083259999999
道禾一地下停車場,竹北市自強段302號,154.0,0.0,24.8171079,121.02294509999999
道禾二平面停車場,竹北市自強段167號,41.0,0.0,24.8346871,120.9933678
巨人社區停車場,竹北市莊敬段269號,62.0,0.0,24.8185102,121.02083259999999
打里摺．大榆二社區附設停車場,竹北市永興段481號,35.0,0.0,24.8346871,120.9933678
竹北新國停車場,竹北市新國段824號,19.0,0.0,24.840850600000003,120.9990483
國賓大悅社區停車場,竹北市莊敬段657號,73.0,0.0,24.8346871,120.9933678
南門機械停車場,新竹市中華路二段545之1號,150.0,0.0,24.499926,120.9685
民富機械停車場,新竹市少年街49巷10號,240.0,0.0,24.8066436,120.9558649
府後地下停車場,新竹市府後街42號,296.0,0.0,24.8074048,120.96984340000002
東大陸橋停車場-中央站,新竹市東大路橋下,216.0,0.0,24.803373800000006,120.9676926
東大陸橋停車場-中華站,新竹市東大路橋下,146.0,0.0,24.8060889,120.973653
演藝廳廣場停車場,演藝路與東大路口,107.0,0.0,24.812441,120.9679929
明志書院停車場,新竹市西大路317號,610.0,800.0,24.801574,120.9656909
赤土崎地下停車場,新竹市建中路2號,602.0,210.0,24.7992646,120.99397
停七停車場,新竹市西大路41號,106.0,0.0,24.7952213,120.9718141
振興陸橋停車場,新竹市振興路橋下,85.0,45.0,24.795846,120.964994
牛埔地下停車場,新竹市牛埔路387號,312.0,200.0,24.7974574,120.9430906
北區行政大樓停車場,新竹市國華街,100.0,112.0,24.816261,120.97038899999998
停九停車場,東門街與東門街34巷口,28.0,58.0,24.804239000000006,120.973765
綜合體育場地下停車場,體育街50號,439.0,203.0,24.8024105,120.9790821
科學工業園區跨越光復路聯外道路橋下雙層化停車場新建工程,光復路上園區門口,96.0,0.0,24.788233,121.008306
東大路橋下-機車停車場,東大路橋(中華路至鐵道段),0.0,50.0,24.803759,120.974994
東光路停車場,新竹市東光路橋下,49.0,0.0,24.8084083,120.9829248
新竹漁港停車場,東大路四段尾,1036.0,0.0,24.8465769,120.924746
育德(停十)停車場,新竹市育德街牛埔東路275巷口,105.0,0.0,24.7947084,120.9427879
關東市場,關東路23巷內,67.0,0.0,24.7832888,121.0197396
稅務大樓停車場,中央路112號,100.0,156.0,24.8061682,120.9686129
新竹火車站後站停車場-汽車,後火車站,800.0,0.0,24.801703,120.974155
新竹火車站後站停車場-機車,後火車站,0.0,1800.0,24.8009091,120.9721437
頂竹圍地下停車場,竹蓮街20號,182.0,0.0,24.7973462,120.9705155
武陵停車場,武陵路73巷,57.0,0.0,24.8188112,120.9651959
武陵路高架橋下,陸橋下空間,199.0,0.0,24.8241694,120.9704971
新科國中地下停車場,光復路1段89巷,467.0,0.0,24.7787796,121.02316090000002
青草湖停車場,明湖路1075巷,68.0,0.0,24.774109600000006,120.9683727
停一機車停車場,中華路二段與信義街交叉口,0.0,180.0,24.8020789,120.96958899999998
湳雅街平面臨時停車場,光華國中後門旁空地,51.0,0.0,24.819229,120.972512
台溪平面停車場,新竹市中華路三段客雅溪橋旁,35.0,0.0,24.7972203,120.9493718
景觀橋下平面停車場,新竹市中華路四段旁景觀橋下,38.0,0.0,24.7951596,120.9482437
新莊臨時平面停車場,新竹市新莊街129巷內,106.0,0.0,24.7877827,121.016066
敬軍、金城一(原燦坤賣場旁)及金城二(原竹人幼稚園)臨時平面停車場,光復路二段100號旁、金城路一段35巷11之12號旁及金城路二段12號對面,195.0,50.0,24.7926584,121.0019457
明湖公園路外小型車停車場,青草湖風景區煙波飯店對面,44.0,0.0,24.77473,120.967863
延平停車場,新竹市延平路159巷旁,104.0,0.0,24.8043464,120.952092
新竹經國路停車場,新竹市北區經國路二段150號,16.0,0.0,24.7943971,120.937067
新竹關新一街停車場,新竹市東區關新一街13號,17.0,0.0,24.7858134,121.013396
新竹民主經國停車場,新竹市東區經國路一段479巷3號,14.0,0.0,24.8136015,120.9677177
新竹中山路停車場,新竹市北區中山路180號,30.0,0.0,24.80441,120.955784
寶雅新竹光復路店停車場,新竹市東區光復路一段560號,7.0,0.0,24.7871603,121.001581
新竹關新東路停車場,新竹市東區關新一街15號,17.0,0.0,24.7839066,121.0103936
新竹關新路停車場,新竹市東區關新路63巷1號,10.0,0.0,24.7861427,121.0180505
大新竹場,新竹市公道五路二段469號,30.0,0.0,24.80454,120.994296
新竹公道五場,新竹市公道五路二段105號,35.0,0.0,24.7889364,121.0121536
