NAME,ADDRESS,CAR_NUM,MOTOR_NUM,lat,lng
赤崁樓停車場,臺南市中西區民族路2段212號,92,0,22.996785,120.202848
崇善停車場,臺南市東區崇善路913巷6弄口（德高段349地號）,4,0,22.965755,120.233832
和益停車場,臺南市永康區永康車站旁,0,76,23.038336,120.253523
台灣聯通民生場,臺南市中西區民生路2段279號,132,0,22.996694,120.192082
凱得停車場,臺南市永康區國光八街108號旁空地（大灣段6829、6832地號）,20,0,23.011418,120.259606
凱旋臨時停車場,臺南市東區中華東路與凱旋路口(東光段1011地號),271,0,22.992103,120.233264
南紡夢時代停車場,臺南市東區中華東路1段366號,1026,1975,22.989882,120.233606
邵慈企業社停車場,臺南市中西區觀亭街110號,19,0,22.997683,120.206074
西拉雅停車場,臺南市白河區溫泉段546地號土地(統茂會館旁),91,0,23.336388,120.504550
西拉雅(一)停車場,臺南市白河區溫泉段577地號土地(統茂會館斜對面),23,0,23.336390,120.504326
台灣聯通台南東和停車場,臺南市東區東和路102號西側空地（光明段6154-14、6240-6地號等2筆土地）,11,0,22.998513,120.227428
台灣聯通台南東一停車場,臺南市東區東和路88號東側空地（光明段6150地號土地）,6,0,22.998593,120.226838
馬雅各紀念大樓地下停車場,臺南市麻豆區麻豆區苓子林20號,48,0,23.180225,120.232857
台南市立醫院停車場,臺南市東區崇德路670號,127,54,22.968726,120.226791
文化商場地下收費停車場,臺南市東區中華東路3段336巷53號地下1樓,34,0,22.975339,120.220763
娛樂城停車場,臺南市中西區公園路60號,84,0,22.995506,120.206413
黃家停車場,臺南市永康區永康區勝華街與勝利街口東北側（兵北段288地號）,36,0,23.006501,120.233034
臺南俥亭成功停車場,臺南市北區成功路22巷3號,46,0,22.999063,120.208996
長春停車場,臺南市新營區長春街154-2號西側,5,0,23.301409,120.310874
嘟嘟房高鐵台南站停車場,臺南市歸仁區歸仁大道100號,645,433,22.925709,120.284688
加昇停車場,臺南市北區文成路與西門路四段西北側,105,0,23.012056,120.208761
台灣聯通台南小東停車場,臺南市東區小東路190號旁空地（光明段6071-2地號）,30,0,22.999756,120.227488
TimesUniqlo台南文賢路店平面停車場,臺南市北區文賢路996號,45,0,23.012586,120.194221
台灣聯通台南富農停車場,臺南市東區富農街一段209號旁空地（虎尾寮段468-20地號）,30,0,22.983470,120.234978
春長停車場,臺南市永康區國光二街32號旁(大彎段7829、7832地號),21,0,23.002015,120.258950
Times台南東區生產路停車場,臺南市東區生產路614號西側空地,72,0,22.965842,120.231489
國賓停車場,臺南市北區成功路2號地下3樓,84,0,22.997844,120.211450
國立成功大學光復校區計時收費停車場,臺南市東區大學路1號,27,0,23.000725,120.216947
台灣聯通台南永康停車場,臺南市永康區中山南路119巷12號旁(永康段1151地號),43,0,23.013630,120.229683
崇善11街停車場,臺南市東區崇善11街54巷8號對面空地(竹篙厝段2756、2757、2775地號),85,0,22.970402,120.232664
台灣聯通台南莊敬停車場,臺南市東區莊敬路270號對面(東光段51-16、51-17、51-18、51-19地號等4筆土地),146,0,22.997197,120.233599
Times台南樹林開山停車場,臺南市中西區樹林街二段122號旁空地,39,0,22.986574,120.208403
安平古堡停車場,臺南市安平區安平路185號,50,0,23.0000868,120.1602432
台南航空站停車場,臺南市南區機場路775號地下室1樓,106,0,22.947833,120.216238
幸福工廠停車場,臺南市仁德區機場路1008號旁空地(二仁段579地號，577、578地號部份作為聯外通道使用),76,0,22.947982,120.217462
台南自由停車場,臺南市東區自由路一段79號旁(德高段106、106-1、107、126-2地號),52,0,22.967380,120.234425
台南活水路樹谷園區停車場,臺南市新市區活水路1號,242,32,23.104445,120.261405
崇明大樓室內停車場,臺南市東區崇明路268號地下一樓,9,0,22.978115,120.219239
竑穗興業有限公司開元停車場,臺南市北區開元路181號,85,0,23.007221,120.219127
翰林停車場,臺南市東區東區自由路三段210號旁(虎尾寮段532-1、533-2、532-3、532-4、532-101、533-1、533-2、533-3、533-9地號),89,0,22.979240,120.237868
GoLine台南長榮停車場,臺南市北區北區長榮路四段221號旁(仁愛段560、620地號),17,0,23.007225,120.220856
新樓醫院停車場,臺南市東區東門路1段57號,175,0,22.989099,120.212687
TimesUniqlo台南新營復興路店平面停車場,臺南市新營區復興路490號,38,0,23.305284,120.299050
國立臺灣歷史博物館遊客停車場,臺南市安南區長和路1段250號,214,0,23.059165,120.231786
台南西門停車場,臺南市中西區友愛街177號對面,38,0,22.991848,120.197869
成功大學醫學中心附屬停車場,臺南市北區勝利路138號,56,81,23.001281,120.218925
文東停車場,臺南市東區文東路30巷24號(東區德高段481-3號),6,0,22.960811,120.233533
林森停車場,臺南市北區林森路三段138號,173,0,23.003904,120.225100
TimesUNIQLO臺南永康永大路店停車場,臺南市永康區永大路三段168號,43,0,23.031159,120.260281
大遠百停車場,臺南市東區前鋒路210號,530,0,22.996316,120.214833
榮驊停車場,臺南市永康區大橋一街139巷與181巷22弄路口西側空地(六甲頂段788地號),36,0,23.018705,120.229407
郭綜合醫院立體停車場,臺南市中西區民生路2段27號,106,0,22.994758,120.19839
日月亭健康路停車場,臺南市南區健康路二段386號旁(新興段233-21，233-22與233-23等3筆地號),20,0,22.982432,120.186874
Times崇善十街停車場,臺南市東區崇善十街61號(東區竹篙段3685地號),49,0,22.971720,120.232003
五都停車場高鐵台南二站,臺南市歸仁區高鐵大道與高鐵一路交叉口（武東段366-6~366-12地號）,185,0,22.922471,120.282606
華興段008-0000私人停車場,臺南市北區南園街127巷106弄82號旁空地(北區華興段8地號土地),6,0,23.008604,120.229746
綠園停車場,臺南市中西區中山路39號(中西區三民段74地號土地),13,0,22.993383,120.206207
七股鹽山停車場,臺南市七股區鹽埕里66號,80,22,23.154948,120.098966
臨安民生路停車場,臺南市中西區民生路二段374號旁(臨安段1061~1066與1081等7筆地號),29,0,22.997775,120.188810
柳營新天地停車場,臺南市柳營區太康村201-10號,341,303,23.289913,120.329166
助安168台南北門停車場,臺南市中西區北門路一段101號地下室(中西區青年段503、508、509、510、512及859地號等6筆土地),35,0,22.992244,120.211521
見橋停車場,臺南市永康區中華路870號旁空地(六甲頂段522地號),0,91,23.021339,120.221810
臺南南一停車場,臺南市東區民族路一段與民族一街路口(育樂段857、860地號),15,0,22.994189,120.215399
寶立成停車場,臺南市東區中華東路2段22巷14弄西側,4,0,22.987912,120.232912
噗噗車棧,臺南市安平區臺南市安平區安平路712號,8,0,22.999682,120.164522
竑穗北安停車場,臺南市北區臺南市北區北安路一段145號旁,14,0,23.017262,120.208961
盛川停車場,臺南市永康區臺南市永康區中華路829號旁(大橋車站前),0,68,23.019417,120.224546
Times中華西和緯停車場,臺南市中西區臺南市中西區和緯路四段305號,13,0,23.006439,120.186493
大億麗緻酒店收費停車場,臺南市中西區西門路1段660號B3-B4,198,0,22.988343,120.198262
承莉善化停車場,臺南市善化區臺南市善化區中山路377號,96,0,23.131771,120.291398
東門停車場,臺南市東區臺南市東區東門路一段187號旁,23,0,22.987678,120.215782
石門國民小學停車場,臺南市安平區安平路700號,14,0,22.999626,120.166319
烏山頭水庫風景區停車場,臺南市官田區嘉南里68-2號,302,5,23.207948,120.363147
台灣聯通台南小北停車場,臺南市北區臺南市北區西門路4段111號(北區小北段1889、1889-2地號),83,191,23.009112,120.206828
康利福停車場,臺南市永康區臺南市永康區奇美醫院第五醫療大樓旁(永康區頂南段793~797、801地號),104,0,23.019532,120.221671
走馬瀨農場停車場,臺南市大內區二溪里唭子瓦60號,137,10,23.136501,120.429929
麻豆新樓醫院附設停車場,臺南市麻豆區苓子林20號,114,361,23.180225,120.232857
捷美停車場,臺南市安平區臺南市安平區金華段35-12地號,29,0,22.99246,120.17142
于媽媽停車場,臺南市永康區臺南市永康區勝學路226號對面,27,0,23.00628,120.23109
品億商行停車場,臺南市永康區永和段48(部分)、51、55(部分)地號土地(忠孝路與中山南路316巷路口東北側),0,0,23.015162,120.242686
文創停車場,臺南市東區北門路二段22號旁,49,117,23.000201,120.213009
嘟嘟房台南康樂友愛站,臺南市中西區臺南市中西區康樂街94號旁空地,55,0,22.992852,120.194627
台灣聯通台南大東停車場,臺南市東區臺南市東區長榮路1段223號旁空地,157,0,22.985222,120.218129
關子嶺風景特定區白河水庫停車場,臺南市白河區仙草里1-18號,29,9,23.333585,120.458797
成大醫院汽機車停車場,臺南市北區小東路35號,423,485,23.001557,120.218078
俥亭康樂街停車場,臺南市中西區臺南市中西區康樂街195號旁,15,0,22.994673,120.194782
玉井區農會停車場,臺南市玉井區臺南市玉井區中正路139號,90,0,23.125309,120.462051
東門三多停車場,臺南市東區臺南市東區東門路3段226巷內,177,0,22.976081,120.235277
台灣聯通台南安中停車場,臺南市安南區臺南市安南區怡安路2段535巷6弄4號對面空地,46,0,23.043979,120.195405
順民族停車場,臺南市中西區民族路2段81號,27,0,22.994521,120.209264
新興停車場,臺南市南區臺南市南區聖南街83號旁,7,0,22.979458,120.190458
嘉年華購物中心停車場,臺南市仁德區仁愛里1211號,710,391,22.946418,120.221417
奇美博物館P1,臺南市仁德區臺南市仁德區文華路二段62號(奇美博物館正門南側),81,0,22.934484,120.221216
奇美博物館P2,臺南市仁德區臺南市仁德區文華路二段62號(奇美博物館正門北側),185,0,22.934484,120.221216
奇美博物館P3,臺南市仁德區臺南市仁德區文華路二段62號(文華路虎山橋旁),63,309,22.937478,120.224646
俥亭中華東路停車場,臺南市東區臺南市東區中華東路2段311號旁,17,0,22.981901,120.230742
詮營股份有限公司台南（一）收費處,臺南市歸仁區武東段241地號(高鐵橋下-歸仁八路與歸仁十路間),186,0,22.928577,120.284453
永固便利停車新凱旋停車場,臺南市東區臺南市東區東光路一段與凱旋路交叉口空地,296,0,22.993337,120.229790
竑穗水交社停車場,臺南市南區臺南市南區興昌路南側空地,187,0,22.976226,120.199062
曾文水庫風景區停車場,臺南市楠西區密枝里70號,145,8,23.210457,120.496897
虎頭埤風景區附設停車場,臺南市新化區新化區中興路42巷36號(新化段王公廟小段1090-11地號),53,8,23.027103,120.335162
新光三越百貨股份有限公司台南西門分公司停車場,臺南市中西區西門路1段658號,1515,0,22.986936,120.199802
福吉停車場,臺南市南區臺南市南區健康路2段198巷,19,0,22.982099,120.192090
臺南萬年二街停車場,臺南市南區臺南市南區萬年二街與萬年五街交叉路口,94,0,22.932832,120.188612
臺南萬年六街停車場,臺南市南區臺南市南區萬年六街與萬年一街交叉路口,149,0,22.932032,120.184744
臺南萬年五街停車場,臺南市南區臺南市南區萬年五街與萬年七街102巷交叉路口,136,0,22.931939,120.189090
南科停車場,臺南市善化區臺南市善化區善新段299地號,48,18,23.110159,120.302812
新光三越百貨股份有限公司台南西門分公司二館停車場,臺南市中西區永福路1段189號地下4樓,212,0,22.987969,120.200007
永康區農會停車場,臺南市永康區中正南路635號,12,7,23.025496,120.255012
頑皮世界股份有限公司停車場,臺南市學甲區臺南市學甲區三慶里頂洲75-25號,220,64,23.283586,120.208742
思源停車場,臺南市安南區臺南市安南區安和路四段101巷,15,0,23.053088,120.217740
竑穗安平停車場,臺南市安平區臺南市安平區安平路40巷,5,0,22.998437,120.185882
台糖長榮酒店（台南）第二停車場,臺南市東區臺南市東區中華東路三段401號(竹篙厝段4064地號),137,0,22.973090,120.220453
助安168台南高鐵停車場,臺南市歸仁區臺南市歸仁區歸仁十路旁高鐵高架橋下（武東段69地號）,114,0,22.926631,120.285428
日月亭五妃廟停車場,臺南市中西區臺南市中西區南門路237巷4號對面,61,0,22.983251,120.204714
Times台南府連路停車場,臺南市中西區臺南市東區府連路(龍泉段565地號),21,0,22.986130,120.217316
Times台南海安路一段停車場,臺南市中西區臺南市中西區海安路一段(保安段313地號),14,0,22.989340,120.195295
Times台南永康中正路停車場,臺南市永康區臺南市永康區中正路148巷,43,0,23.031200,120.253589
五都停車場高鐵台南站,臺南市歸仁區台南高鐵特定區歸仁八路與武當路交叉口,414,16,22.927922,120.283697
宏益停車場,臺南市永康區臺南市永康區中山路411號旁,0,193,23.037419,120.254003
五福停車場,臺南市永康區臺南市永康區五福街（南新段450-1、476-2地號）,43,0,23.013346,120.233846
竑穗富北停車場,臺南市北區臺南市北區富北街(北門派出所後方),9,0,22.998071,120.211587
芝凡企業社停車場,臺南市新市區臺南市新市區富林路（新北段105、105-1地號）,28,0,23.080612,120.290995
德安百貨本館停車場,臺南市東區中華東路3段360號,372,0,22.973847,120.220684
Times台南民生路第2停車場,臺南市中西區臺南市中西區民生路2段59號旁,20,0,22.994870,120.197546
竑穗建業停車場,臺南市中西區建業街58號,44,0,22.987918,120.205482
竑穗華平停車場,臺南市安平區臺南市安平區建平七街(金華段139地號),22,0,22.989477,120.174311
詮營股份有限公司台南(二)收費處停車場,臺南市永康區臺南市永康區中華路893巷(頂南段463、708地號),18,21,23.019082,120.223875
台灣聯通台南忠義停車場,臺南市中西區忠義路2段177號旁(觀音段718、726、727、728地號),13,0,22.996748,120.204157
台灣聯通台南樹林停車場,臺南市中西區樹林街二段290號西側空地（建興段6000-6地號）,24,0,22.986522,120.201384
助安168台南善化停車場,臺南市善化區臺南市善化區文賢街25號旁空地(善文段559、561地號),26,0,23.130592,120.293599
博客停車場開發股份有限公司燦坤鹽行場,臺南市永康區臺南市永康區中正北路45號旁(鹽新段1122、1123地號),4,0,23.041635,120.239120
臺南市永華國民運動中心停車場,臺南市中西區臺南市中西區中華西路二段30號(環河段2550地號),81,115,22.989636,120.188200
竑穗中醫安南停車場,臺南市安南區臺南市安南區長和路二段66號(長和段865、865-1、866地號),190,0,23.064159,120.223784
台灣聯通台南安平停車場,臺南市安平區臺南市安平區健康路三段(漁光段48-13、95-2地號),164,0,22.984427,120.163343
廷勝停車場,臺南市北區臺南市北區開元路485巷內(開元段588-35、588-78地號),7,0,23.010761,120.224502
泰豐停車場,臺南市仁德區中洲里307-2號,0,152,22.904892,120.252826
及泰衛民二停車場,臺南市中西區臺南市中西區衛民街78號旁空地(青年段225、240地號),7,0,22.993046,120.209807
歐特儀股份有限公司CARIN和緯站停車場,臺南市北區臺南市北區和緯路2段30號旁空地(正興段761、761-2、761-3、762、763、766、766-1、766-2、738地號),47,0,23.011260,120.209752
安怡停車場,臺南市安南區臺南市安南區安中路1段560巷25號旁(怡中段1010、1011、1011-1地號),11,0,23.041486,120.200338
新東安臨時停車場,臺南市東區臺南市東區東安路32號(光明段575、576、577地號),96,0,22.991875,120.226227
Times台南永康永二街（月租）停車場,臺南市永康區臺南市永康區永二街258號旁(二王段1226、1228地號),23,0,23.018016,120.250224
五都停車場車寶貝站,臺南市歸仁區臺南市歸仁區歸仁八路與高鐵二路交叉路口(武東段261-1地號),135,0,22.927101,120.281072
Times台南忠義府前停車場,臺南市中西區忠義路一段96號旁空地,17,0,22.988064,120.202056
Times台南U.I.JHotelHostel停車場,臺南市中西區臺南市中西區友愛街115巷5號,29,0,22.990889,120.199656
新營醫院停車場,臺南市新營區臺南市新營區信義街73號(民治段359地號),67,0,23.308246,120.313372
永康奇美醫院第三停車場,臺南市永康區臺南市永康區中正南路52巷82弄內(頂南段905、939、940、947、961地號),146,0,23.019841,120.218857
人上人停車場,臺南市東區長榮路2段60號(東安段247及655地號),25,0,22.988114,120.219378
文慧停車場,臺南市關廟區花園一街80號旁(北花段994地號),3,0,22.961623,120.336446
新光三越百貨股份有限公司台南中山分公司停車場,臺南市中西區中山路162號,268,0,22.994518,120.209903
華成停車場,臺南市安平區臺南市安平區育平9街22巷(金華段54-20、54-21地號),3,0,22.995908,120.175054
高雄榮總臺南分院停車場,臺南市永康區臺南市永康區復興路427號旁(永中段479、480、487、488、497地號),88,90,22.997604,120.240179
台南都會公園文賢停車場,臺南市仁德區臺南市仁德區文華路二段62號(公園段230~234地號等5筆土地),687,215,22.936676,120.228188
臺南文南路停車場,臺南市南區臺南市南區文南路128號旁(正義段674、674-1、674-2、674-3、674-4、674-5地號),8,0,22.985316,120.190104
臺南市美術館停車場,臺南市中西區臺南市中西區忠義路二段1號(臺南市美術館2館B1、B2),562,209,22.989990,120.200950
竑穗華平二站停車場,臺南市安平區臺南市安平區華平路515號旁(金華段51-7地號),17,0,22.994064,120.175394
嘟嘟房台南安平運河站,臺南市安平區臺南市安平區運河路11號對面(安億橋旁),94,0,22.998742,120.162539
高雄榮總臺南分院機車停車場,臺南市東區臺南市東區精忠段153-2地號(高雄榮總台南分院對面),0,78,22.998010,120.239819
土虱堀停車場,臺南市永康區臺南市永康區永大一路307號對面（文化段135地號）,21,0,23.015416,120.253798
德根停車場,臺南市永康區臺南市永康區文化街235巷3弄(大灣段6594、6594-1、6594-2、6594-3、6594-4、6594-5地號),16,0,23.014770,120.255979
新日進停車場,臺南市永康區臺南市永康區永和街與永和街100巷路口（永二段187、188、189、191地號）,38,0,23.017993,120.255046
Times台南文化二街停車場,臺南市東區臺南市東區文化二街(仁和段1290、1293、1293-1地號),58,0,22.977948,120.232590
安富農停車場,臺南市東區臺南市東區自由路三段155巷30號旁(虎尾寮段500-4、500-5、500-6、500-15、500-16、500-17地號共6筆土地),46,0,22.981307,120.236274
麻豆市五停車場,臺南市麻豆區臺南市麻豆區中正路80號,89,0,23.186097,120.249837
奇美醫療財團法人佳里奇美醫院停車場,臺南市佳里區臺南市佳里區興化里606號（興化段349、349-1、349-2、350、350-1、351、351-1、376、381、382地號),145,0,23.182910,120.183744
成功路停車場,臺南市中西區忠義路2段237號旁(觀音段577、580、581、582地號),25,0,22.998212,120.204623
台南西門二停車場,臺南市中西區西門路一段430號旁,17,0,22.982328,120.197710
臺南站前永發停車場,臺南市東區臺南市東區北門路二段（育樂段6022-1地號）,0,138,22.998037,120.212468
科技部南部科學園區管理局台南科學園區第二期標準廠房附屬地下停車場,臺南市新市區臺南市新市區南科三路17號等地下1樓（新科段135地號）,212,0,23.097548,120.281881
鹽水觀光美食城停車場,臺南市鹽水區臺南市鹽水區康樂路56號（後厝段551、553地號）,17,0,23.319485,120.268819
南風村停車場,臺南市東區中華東路1段92號地下二樓,115,0,22.995468,120.234068
鈦興停車場,臺南市中西區健康路1段390巷地下室,44,0,22.981965,120.198724
Times台南忠義路二段停車場,臺南市中西區臺南市中西區忠義路二段（觀音段416地號）,14,0,22.997749,120.204697
竑穗東寧停車場,臺南市東區東寧路85號(東寧段231-4、231-5、232-3與232-5等4筆地號),66,0,22.991764,120.222546
阿福停車場,臺南市永康區臺南市永康區永勝街近文化路口（大灣段6562-1、6563-3地號）,12,0,23.015346,120.255115
中華路停車場,臺南市新營區臺南市新營區中華路5號空地（民權段69地號）,8,0,23.305048,120.315582
台灣聯通台南崇明停車場,臺南市東區臺南市東區崇明五街31號旁（竹篙厝段2089、2089-6地號）,7,0,22.979940,120.216825
助安168台南衛民停車場,臺南市中西區臺南市中西區衛民街67號,26,0,22.992878,120.210159
奇美醫療財團法人柳營奇美醫院,臺南市柳營區太康村201號,296,0,23.290288,120.325346
張瑞祥停車場,臺南市永康區臺南市永康區永大一路（大灣段6448、6448-1、6448-2地號）,13,0,23.017060,120.256840
阿卡停車場,臺南市中西區臺南市中西區中山路164巷(廣慈段140、140-1地號),0,197,22.995177,120.210320
TIMES台南金華路三段停車場,臺南市中西區金華路三段233號北側空地(康樂段331地號土地),22,0,22.995221,120.193372
阿凡達停車場,臺南市中西區臺南市中西區海安路二段306號旁（普濟段311地號）,17,0,22.999153,120.198312
鴻茂停車場,臺南市歸仁區臺南市歸仁區高鐵12路近中正南路2段93巷口（武東段62-2、62-3地號）,7,0,22.925583,120.277310
龍昇停車場,臺南市歸仁區臺南市歸仁區歸仁大道與歸仁五路交叉路口（武東段130-2、131地號）,154,0,22.929313,120.284886
中正停車場,臺南市中西區中正路313號旁(府前段1269等地號),92,0,22.993467,120.195252
盛川永康停車場,臺南市永康區臺南市永康區臺鐵永康站旁（四維段48、49、50、51、52地號）,0,61,23.038187,120.253387
盛川大橋停車場,臺南市永康區臺南市永康區臺鐵大橋站附近（六甲頂段519地號）,0,35,23.019721,120.224587
玖鑫物業管理顧問有限公司玖鑫停車場,臺南市東區臺南市東區中華東路一段66、68、70號地下2樓,95,0,22.99667,120.23412
竑穗國泰置地停車場,臺南市中西區臺南市中西區和意路1號B1~B3、B5~B7(南門段1054、1055、1057地號),785,1111,22.988295,120.199559
臺南新營後站停車場,臺南市新營區臺南市新營區後火車站旁(新營段15、30-3地號),14,91,23.305807,120.323518
煙波大飯店停車場,臺南市中西區臺南市中西區永福路1段269號B1~B2（南門段704地號）,121,103,22.989209,120.199897
第五醫療大樓獎勵增設停車空間停車場,臺南市永康區臺南市永康區中華路901號第五醫療大樓1F、B1、B2（北區康祥段1、1-3、2地號）,50,0,23.018818,120.221598
噗噗車棧-富農店,臺南市東區臺南市東區富農街一段131巷25弄(富農段911地號),38,0,22.981733,120.233745
全聯台南開元停車場,臺南市北區臺南市北區開元路153號,12,0,23.006991,120.219087
FOCUS停車場,臺南市中西區中山路166號,241,0,22.995827,120.21034
竑穗西華停車場,臺南市北區西華街36號(公園段267地號),15,0,22.999530,120.210705
尖山埤江南渡假村停車場,臺南市柳營區旭山里60號,313,0,23.266749,120.392637
百創中洲停車場,臺南市仁德區臺南市仁德區臺鐵中洲站旁（中洲東段1086地號）,0,103,22.904451,120.252904
五都停車場高鐵台南五站,臺南市歸仁區臺南市歸仁區歸仁十路與武當路口西北側(武東段264地號）,267,79,22.926118,120.283402
育平健康停車場,臺南市安平區臺南市安平區健康路三段與育平路交叉路口（金華段109地號）,298,0,22.985336,120.166445
五福二停車場,臺南市永康區臺南市永康區五福街（南新段466、466-1、467(部分)、467-1、476-1地號）,25,0,23.013050,120.233097
五都停車場高鐵台南三站,臺南市歸仁區武當路與高鐵大道交叉口（武東段268地號）,59,39,22.925039,120.283806
Times台南崇明三街停車場,臺南市東區臺南市東區崇明三街近崇德路口（竹篙厝段1994、1994-33地號）,6,0,22.981051,120.217600
Times台南東和路停車場,臺南市東區臺南市東區東和路93號對面（光明段6091地號）,10,0,22.998558,120.227979
永華國平停車場,臺南市安平區臺南市安平區永華路二段與國平路交叉口（金華段93、93-1地號）,261,0,22.990799,120.170810
嘟嘟房成大勝利站停車場,臺南市東區臺南市東區大學路2號成大校友會館B1至B3,254,761,22.995921,120.218704
永固便利停車台南一站停車場,臺南市東區臺南市東區中華東路二段75號旁（虎尾寮段371-27、371-22地號）,29,0,22.986293,120.233525
Times台南文平路停車場,臺南市安平區臺南市安平區文平路545號旁（金華段5-1、5-2、5-40地號）,28,0,22.996401,120.178989
衛生福利部臺南醫院收費停車場,臺南市中西區臺南市中西區中山路125號,253,460,22.995136,120.20891
HotelA聖禾大飯店停車場,臺南市中西區臺南市中西區西門路二段23號B1~B2,34,50,22.990961,120.197537
地王停車場,臺南市中西區臺南市中西區民權路4段232號旁（成光段1504、1505、1509地號）,27,0,22.999237,120.179904
億載金城停車場,臺南市安平區臺南市安平區光州路3號（金城段41地號）,38,0,22.988582,120.160021
楠西區都市計畫停二立體停車場,臺南市楠西區臺南市楠西區民生路12號,38,96,23.176599,120.485910
台灣聯通台南裕農停車場,臺南市東區裕農路375號旁(新東段77，78，79地號),139,0,22.987197,120.229929
新營區三民路站前停車場,臺南市新營區臺南市新營區三民路與三民路8巷交叉口（民族段706地號）,79,428,23.307545,120.321039
TIMES寶雅台南永康停車場,臺南市永康區中華路106號,13,0,23.002719,120.235188
Times台南民族路二段停車場,臺南市中西區臺南市中西區民族路2段149號旁（中山段500地號部份）,5,0,22.995079,120.207371
噗噗車棧-中華店,臺南市永康區臺南市永康區中華路103號旁(兵南段254、263地號),101,0,23.001708,120.234861
新光三越(股)機車停車場,臺南市中西區北門路1段123巷56號,0,128,22.994817,120.210246
麗新大酒店停車場,臺南市永康區臺南市永康區中正北路222號,83,0,23.041484,120.245021
嘟嘟房臺南建平站停車場,臺南市安平區臺南市安平區建平七街418號旁（金華段141-5、141-6、141-17地號）,13,0,22.989297,120.176000
竑穗東興停車場,臺南市東區臺南市東區東興路(光明段428-2、428-3地號),36,0,22.991125,120.228695
奇美醫療財團法人奇美醫院停車場,臺南市永康區中正南路52巷(頂南段598~602、604、607-1、607-2、608、610~615、616-1、617-1、618~620、798、799、802~805地號等26筆土地),231,861,23.020665,120.221036
嘟嘟房台南安平古堡2站停車場,臺南市安平區臺南市安平區王城路（古堡段2000地號）,96,0,23.003085,120.157412
永固東寧停車場,臺南市東區臺南市東區東光路與東寧路口（東光段1002、1003地號）,316,1057,22.990386,120.231433
興來停車場,臺南市永康區臺南市永康區永二段1225、1225-27地號,48,0,23.017729,120.251141
六藝復興停車場,臺南市東區臺南市東區自由路三段376號旁（虎尾寮段480-57地號）,25,0,22.981940,120.237316
新長越民權路停車場,臺南市中西區臺南市中西區民權路2段254號空地（新美段578地號）,14,0,22.996007,120.200376
竑穗永福停車場,臺南市南區臺南市南區健康路1段近永福路口（鹽埕段1-656、1-657、169-2、168-53、168-3、169-43地號）,31,0,22.981218,120.200060
Times燦坤台南永華二店停車場,臺南市安平區臺南是安平區永華路二段35號,9,0,22.989024,120.185767
博客停車場開發股份有限公司台南轉運站停車場,臺南市北區臺南市北區公園路291號（北華段21、131地號）,229,449,23.001679,120.209027
博客停車場開發股份有限公司燦坤海佃場,臺南市安南區臺南市安南區海佃路1段329號,146,0,23.026049,120.191006
成功大學大學路地下停車場,臺南市東區大學路1號,124,0,22.996864,120.221853
大林路111巷公有停車場(停11),臺南市南區大林路111巷、大同路2段482巷72弄中間,28,0,22.974261,120.21202
安平港鯤鯓站臨時免費公有停車場,臺南市南區安平港聯外道路(四鯤鯓碼頭管制站前),85,13,22.966607,120.16586
黃金海岸停車場,臺南市南區西濱公路182.5公里處(黃金海岸旁),336,0,22.935294,120.1761
舉喜堂路外停車場(廣停S7),臺南市南區明興路1087巷,13,0,22.929536,120.18607
公園路兵配場臨時路外公有停車場,臺南市北區公園路(兵工配件場),374,226,23.001884,120.20911
停2立體停車場,臺南市新市區環東路1段與南科二路,417,70,23.096305,120.284649
管理局地下停車場,臺南市新市區環東路1段與南科三路,402,467,23.101229,120.282238
管理局戶外平面停車場,臺南市新市區環東路1段,227,46,23.102632,120.283831
社區中心停車場,臺南市新市區大順七路與大順三路,121,144,23.102632,120.283831
西拉雅廣場(公8)停車場,臺南市新市區南科五路,98,153,23.104160,120.282885
廣停4停車場,臺南市新市區南科五路與環東路2段,463,135,23.104160,120.282885
停6停車場,臺南市新市區環西路1段,83,51,23.277554,120.320535
停4停車場,臺南市新市區南科三路與南科南路,71,36,23.098677,120.280100
停8停車場,臺南市新市區南科三路與環西路1段,313,207,23.098490,120.274981
霞客湖停車場,臺南市新市區環西路2段,78,87,23.104551,120.274499
成功里福安公園臨時免費公有停車場,臺南市北區北成路、北成路186巷、372巷間,19,36,23.021012,120.20759
停一,臺南市新市區曼陀林路(新晶43-1、新晶45-1),86,0,23.094786,120.254409
停六,臺南市新市區紫楝路(新晶69-1),148,46,23.101349,120.268310
停八,臺南市新市區曼陀林路(新晶23-2、新晶26-0),338,21,23.102496,120.254588
停九,臺南市新市區堤塘港路(新晶77-1),114,24,23.095249,120.264296
廣停2停車場,臺南市善化區南科七路與三抱竹路,189,252,23.107428,120.269678
南科七路路側停車場,臺南市善化區南科七路,20,85,23.108519,120.271250
公2停車場,臺南市善化區環西路2段,10,292,23.111104,120.270228
停14停車場,臺南市善化區北園一路,85,164,23.123184,120.267339
廣停3停車場,臺南市善化區南科七路與環東路2段,534,512,23.112047,120.280970
公5停車場,臺南市善化區南科八路與環東路2段,57,36,23.116299,120.280436
停20停車場,臺南市善化區環東路2段,188,70,23.117845,120.279399
停1,臺南市柳營區工一路南側(義士段114地號),134,52,23.283375,120.357482
停2,臺南市柳營區環園東路東側(光洋旁)(義士段182地號),151,32,23.277730,120.361661
停3,臺南市柳營區環園西路與工七路口(德元段258-264地號),170,66,23.272435,120.353089
停4,臺南市柳營區環園東路東側(榮聖旁)(德元段11地號),113,50,23.269439,120.360795
停5,臺南市柳營區環園東路東側(公園旁)(義士段170地號),112,9,23.280634,120.362307
停1停車場,臺南市永康區王行段9地號,67,23,23.043913,120.274790
停2停車場,臺南市永康區王行里16鄰永科東路300號(王行段37地號),24,53,23.043913,120.274790
停3停車場,臺南市永康區王行里16鄰永科一路19號(王行段110地號),68,60,23.043913,120.274790
停4停車場,臺南市永康區王行里16鄰永科環路309號(王行段93地號),66,39,23.040545,120.274313
北成路，停N15,臺南市北區北成路與北安路一段262巷口,18,0,23.020049,120.2076
停5停車場,臺南市永康區王行里16鄰永科三路77號(王行段116地號),58,57,23.041335,120.278321
停6停車場,臺南市永康區王行里16鄰永科環路199號(王行段209地號),51,19,23.036180,120.275610
停7停車場,臺南市永康區王行里16鄰永科東路3號(王行段148地號),56,49,23.037014,120.281659
停8停車場,臺南市永康區王行里16鄰永科南路160號(王行段211地號),36,40,23.033077,120.276847
光賢街臨時停車場,臺南市中西區文中51，文小55,104,65,23.004325,120.189348
108期總安一自辦重劃，廣停9,臺南市安南區洲南六街(加油站後面),34,0,23.058128,120.217987
滯C北側停車場,臺南市善化區環西路2段與北園二路,10,0,23.118107,120.268919
水5停車場,臺南市善化區三抱竹路,38,28,23.115621,120.265121
漁光島停車場,臺南市安平區漁光路海巡隊哨站東側,99,0,22.987749,120.152389
顯草街機車停車場,臺南市安南區顯草街與媽祖宮一街口東南側,0,63,23.036534,120.125126
文賢路365巷口臨時免費公有停車場,臺南市北區文賢路365巷、文賢路365巷18弄口,18,0,23.008016,120.19318
新營客轉市地重劃，廣停1,臺南市新營區新營區新運四街、新運二路(轉運站西側),59,103,23.310985,120.282299
新營客轉市地重劃，廣停2,臺南市新營區新營區新運三路與新運二路口西南側,7,0,23.30984,120.283439
臺鐵南科車站東側停車場,臺南市新市區南科車站前,8,0,23.107013,120.302052
育平七街60巷公有停車場(停8),臺南市安平區育平七街60巷(慶平路安億停車場後方),49,0,22.997178,120.16539
建平八街臨時免費公有停車場,臺南市安平區建平8街、建平9街與永華3街口(郵局西側),60,0,22.990783,120.18139
民權路四段尾臨時免費公有停車場,臺南市安平區民權路4段尾(抽水站旁),98,0,23.002501,120.16587
郡平路口臨時路外公有停車場,臺南市安平區郡平路(郡平路388號對面),70,39,22.989351,120.16141
國平自辦市地重劃區公有停車場,臺南市安平區健康路3段、國平路口,81,0,22.983464,120.17158
安通自辦重劃區公有停車場,臺南市安南區安和路1段263巷66號旁,8,0,23.031631,120.21026
108期總安一自辦重劃，廣停8,臺南市安南區安南區州南七街與州南十街口東北側,21,0,23.059613,120.215057
高鐵台南車站停二停車場,臺南市歸仁區高發一路與高發二路中間段南邊(歸仁十三路旁),85,86,22.924998,120.28949
高鐵台南車站停三停車場,臺南市歸仁區站后一路(歸仁三路與歸仁五路中間),69,0,22.930107,120.28585
高鐵台南車站停四停車場,臺南市歸仁區站后一路(歸仁五路與歸仁七路中間)北邊,32,0,22.928872,120.28643
高鐵台南車站停五停車場,臺南市歸仁區站后一路(歸仁五路與歸仁七路中間)南邊,34,0,22.928111,120.28682
高鐵台南車站停六停車場,臺南市歸仁區武當路(歸仁六路與歸仁八路中間),40,0,22.928378,120.28253
高鐵台南車站停七停車場,臺南市歸仁區武當路(歸仁八路與歸仁十路中間)北邊,34,0,22.92739,120.28297
高鐵台南車站停八停車場,臺南市歸仁區武當路(歸仁八路與歸仁十路中間)南邊,34,0,22.9265,120.28337
高鐵台南車站停九停車場,臺南市歸仁區高鐵八路與高鐵六路口,79,84,22.924336,120.28008
楠西區都市計畫停二立體停車場,臺南市楠西區民生路12號,12,30,23.176651,120.48599
南化區玉山停車場,臺南市南化區南化水庫下方「源之旅公園」,226,0,23.092397,120.53399
麻豆區機三地下停車場,臺南市麻豆區興南路16號,22,0,23.183037,120.24854
麻豆區新建辦公大樓公共停車場,臺南市麻豆區忠孝路250號,104,71,23.185152,120.25824
將軍區公一停車場,臺南市將軍區忠興里180-50號，文康中心、圖書館旁(飛砂崙公園),51,25,23.200985,120.16042
後壁區停車場,臺南市後壁區區公所後方,12,0,23.367016,120.36238
白河區停三停車場,臺南市白河區新興路與光華路口,60,0,23.352416,120.41986
東山區停二停車場,臺南市東山區龍鳳街與新東路口,90,15,23.322425,120.40168
鹽水區停三停車場,臺南市鹽水區治水路268巷(鹽水區農會與衛生所交接處),28,0,23.320063,120.2653
大內區大內公園廣場停車場,臺南市大內區西拉雅親子公園內(台84頭社交流道旁),116,10,23.142772,120.37054
新和社內區段徵收開發案(停1),臺南市新市區民生路旁，富中街,125,0,23.079873,120.2876
新和社內區段徵收開發案(停2),臺南市新市區民生路62巷附近，富安三街,170,0,23.081033,120.28904
臺灣歷史博物館西北側停車場(廣停AN11-1),臺南市安南區館安路與館安二路交叉口,165,70,23.064113,120.22807
鹽神白沙灘停車場,臺南市安平區安平區安北路370巷口東側,50,0,23.000893,120.153909
崇義停車場,臺南市安平區安平區安北路、同平路口北側,350,0,22.999595,120.152164
漁市場/碧海碼頭停車場,臺南市安平區安平區大平路、世平路口南側,200,0,22.993128,120.151379
安南區自辦重劃，廣停1,臺南市安南區慈安路與安通二街口,30,0,23.032589,120.205990
安南區自辦重劃，廣停2,臺南市安南區安西一街與安通一街口,45,0,23.031147,120.207770
安南區自辦重劃，廣停4,臺南市安南區安西路與安西一街口,11,0,23.031705,120.209290
安南區自辦重劃，廣停7,臺南市安南區安中二街(頂好公園旁),16,0,23.037295,120.203882
安南區自辦重劃，廣停8,臺南市安南區北安二街與安中ㄧ街(慈雲公園旁),19,0,23.035798,120.206225
安南區自辦重劃，廣停3,臺南市安南區安通三街與安西一街,84,0,23.030842,120.205515
安南區自辦重劃，廣停10,臺南市安南區安通路4段47巷內(樂成公園旁),72,0,23.030752,120.210650
安平小砲台停車場(西側),臺南市安平區湖內一街西側,0,0,22.998420,120.157997
安平小砲台停車場(東側),臺南市安平區湖內一街東側,61,0,22.998701,120.158425
高鐵台南車站停一停車場,臺南市歸仁區高發一路與高發二路中間段北邊(歸仁七路旁),76,129,22.927162,120.2884
永新社區停車場,臺南市新化區勞工住宅後方(永華一街與金華街一段口),48,0,23.058981,120.296095
文南街與文善路,臺南市仁德區文南街與文善路,228,0,22.971227,120.241296
文南街與文忠路,臺南市仁德區文南街與文忠路,133,0,22.972725,120.238332
保學路停車場,臺南市仁德區保學路與保學一街55巷口,19,15,22.919652,120.235090
城光自辦市地重劃停車場,臺南市仁德區文宏路與文宏一街口,20,0,22.976108,120.243115
林仔鐘厝自辦重劃停車場,臺南市仁德區義林一街與義林五街、六街口,27,0,22.969127,120.261550
87期安中二自辦重劃，廣停6,臺南市安南區北安路二段433巷(梅花里活動中心旁),55,0,23.039387,120.199503
安富街，廣停6,臺南市安南區安富街(海佃國中前),28,0,23.027292,120.199082
建國路康樂街臨時停車場,臺南市柳營區建國路與康樂街路口,12,0,23.277554,120.320535
青年路東市場公有停車場,臺南市中西區青年路近萬昌街路口南側,2,95,22.991511,120.210301
崇義C1、C2,臺南市安平區安北路、同平路口北側,350,0,22.999816,120.151948
運河博物館,臺南市安平區運河路5號對面,32,37,22.998679,120.163281
大潤發前,臺南市安平區華平路、郡平路口,572,270,22.988849,120.174057
新都路(南側)臨時免費公有停車場,臺南市南區新都路、永吉街口(鹽埕段1819、1831地號),121,0,22.96650,120.19408
民治市政中心停車場,臺南市新營區台南市新營區民治路36號,346,250,23.311575,120.315051
迎曦湖南側停車場,臺南市新市區環東路1段,63,44,23.084882,120.284302
樹林街2段254號旁臨時機車停車場,臺南市中西區台南市中西區樹林街2段254號,0,48,22.986135,120.202624
迎曦湖北側停車場,臺南市新市區環東路1段,55,40,23.089256,120.286029
安億路路外停車場,臺南市安平區安億路與慶平路路口東南側,393,274,22.997425,120.16404
樹屋停車場,臺南市安平區安平區王城路、古堡街146巷口,250,0,23.003599,120.157329
遊憩碼頭停車場,臺南市安平區安平區運河路(觀景台、金城里活動中心旁),117,0,22.995521,120.156620
怡平停九免費臨時停車場,臺南市安平區怡平路、永華6街口,36,0,22.993263,120.177110
運河路，停3(休憩碼頭),臺南市安平區運河路(觀景台、金城里活動中心旁),108,147,22.996402,120.1597
文平路與建平五街免費臨時停車場,臺南市安平區文平路、建平五街口,65,0,22.98782,120.17786
本原街3段，停1,臺南市安南區本原街3段、智安三街口(本淵寮公有零售市場東側),48,0,23.053144,120.17765
安順里臨時免費公有停車場,臺南市安南區總安街1段、育安街口,55,21,23.051342,120.21535
東興路公有停車場,臺南市新營區東興路、東興八街(衛生局旁),57,9,23.315834,120.32295
民族路停車場,臺南市新營區民族路308巷口(防疫所後方),63,0,23.318612,120.319367
西拉雅大道西側臨時停車場,臺南市新市區台鐵南科站前站橋下空間,22,310,23.10775,120.30144
西拉雅大道東側臨時停車場,臺南市新市區台鐵南科站後站橋下空間,78,88,23.10813,120.30247
南科特定區LM陽光電城,臺南市新市區龍目井路(陽光大道與陽光南一路中間)北邊,96,74,23.109635,120.30659
湖美街60巷臨時免費公有停車場,臺南市中西區湖美街60巷(西湖社區活動中心旁),35,30,23.001348,120.18046
成德停四免費公有停車場,臺南市北區海安路3段338巷、立賢路1段499巷口,88,0,23.008732,120.20285
北成路38巷口臨時免費公有停車場,臺南市北區北成路、北成路38巷口(北成基督教會旁),38,0,23.018889,120.2105
大興四自辦重劃區公有停車場,臺南市北區大興街76巷,27,0,23.0131083,120.1919519
延平郡王祠大埔街口路外停車場,臺南市中西區開山路與大埔街路口西側,6,0,22.987274,120.208698
臺南市立棒球場北側路外停車場,臺南市南區健康路1段市立棒球場北側,21,0,22.981203,120.205877
市立圖書館廣場停車場,臺南市北區公園路市立圖書館前,56,0,23.004306,120.211019
勝安香草公園路外停車場,臺南市北區開元路63巷勝安香草公園北側,16,0,23.006637,120.215783
新營機車停車場,臺南市新營區新營火車站西南側,0,186,23.306363,120.322730
青年路停E8路外停車場,臺南市東區青年路近育樂街路口南側,74,0,22.991371,120.213666
大道停6路外停車場,臺南市北區和緯路與北門路口,61,0,23.009284,120.215714
西門健康停車場,臺南市南區西門路與健康路交叉口,29,0,22.981662,120.197369
巴克禮紀念公園停車場,臺南市東區中華東路3段之巴克禮紀念公園內,19,19,22.972024,120.223323
五妃街南側停車場,臺南市中西區五妃街69號旁(近府連路交叉口),56,0,22.982396,120.209069
五妃街北側停車場,臺南市中西區五妃街60-64號旁(近府連路交叉口),42,0,22.982544,120.209087
府前路停18停車場,臺南市中西區府前路國立生活美學館側,56,18,22.992228,120.188947
南門路237巷停車場,臺南市中西區南門路237巷3號右側1061110收費,4,0,22.983286,120.204112
府前金城臨時停車場,臺南市中西區府前路二段258巷與府前路巷交叉口,7,0,22.992424,120.190714
321巷藝術聚落路外停車場,臺南市北區公園路321巷尾端,10,26,23.004287,120.208852
永華國華臨時路外停車場(汽車停車格),臺南市南區永華路及國華街交叉口,5,0,22.987132,120.196353
大成路一段臨時停車場,臺南市南區大成路一段與水交社路交叉口,99,50,22.974945,120.200280
中華路橋下西側路外停車場,臺南市東區中華陸橋西側正下方至里民活動中心前方,60,63,22.972502,120.215632
立德臨時停車場-B區(竑穗興業股份有限公司),臺南市東區立德一路至立德路交叉路口(立德一路東側),15,0,22.976699,120.214742
立德臨時停車場-C區(竑穗興業股份有限公司),臺南市東區立德一路及立德七路交叉口(立德一路東側),41,0,22.976420,120.214781
立德臨時停車場-D區(竑穗興業股份有限公司),臺南市東區立德一路與立德六路交叉口(立德一路東側),17,0,22.976094,120.214846
立德臨時停車場-E區(竑穗興業股份有限公司),臺南市東區立德一路與立德一路3巷交叉口,14,0,22.975831,120.214721
立德臨時停車場-F區(竑穗興業股份有限公司),臺南市東區立德一路與立德一路4巷交叉口,14,0,22.976132,120.214663
立德臨時停車場-G區(竑穗興業股份有限公司),臺南市東區立德一路及立德一路5巷交叉口,12,0,22.976392,120.214602
南門路231巷臨時停車場,臺南市中西區南門路231巷近慶中街,9,0,22.983546,120.205043
崇善里文康活動中心停車場,臺南市東區仁和路70巷內,18,0,22.975473,120.229694
小橋公園停車場,臺南市永康區東橋三路與東橋八街交叉口,39,0,23.021144,120.233703
東橋五路二號公園停車場,臺南市永康區東橋五路23號對面,26,0,23.019268,120.236878
健康路一段133巷停車場,臺南市南區健康路一段133巷內,60,0,22.978398,120.208784
北安路一段212巷停車場,臺南市北區北安路一段212巷與22弄交叉口,20,0,23.018934,120.208330
文賢路365巷停車場,臺南市北區文賢路365巷與365巷18弄轉交叉口,18,0,23.007996,120.193173
國民路臨時停車場,臺南市南區國民路443-5號旁(殯儀館明德門對面),100,0,22.970373,120.208357
大興四路外停車場,臺南市北區大興街67巷內,26,0,23.013189,120.192037
永華國華臨時路外停車場(機車停車格),臺南市南區國華街與永華路交叉口(藍曬圖文創園區後門),0,21,22.987132,120.196353
崇善路龍山停車場(金銀座國際股份有限公司營運),臺南市東區崇善路51號旁(竹篙厝段1678-66(部分)、1679-3、1680(部分)地號,144,23,22.982593,120.221534
東光路地下停車場(台灣國際開發事業有限公司營運),臺南市東區東光路1段76號,231,0,22.992491,120.231296
廣二機車停車場(台灣國際開發事業有限公司營運),臺南市東區中華東路3段380巷西側,0,381,22.974407,120.219962
新營南瀛綠都心停車場(竑穗興業股份有限公司經營),臺南市新營區民權里中正路23-1號B1,279,0,23.3097726,120.3162504
公園南路停車場(俥亭停車事業股份有限公司經營),臺南市北區海安路與公園南路口,170,0,23.002911,120.200498
臺南市榮譽街停車場(竑穗興業股份有限公司營運),臺南市東區榮譽街與崇明路口,323,157,22.976453,120.220222
臺南萬昌街停車場(竑穗興業股份有限公司經營),臺南市中西區青年路226巷6弄路口(中西區萬昌段240-1、241地號),25,0,22.991089,120.210416
臺南環河街停車場(竑穗興業股份有限公司營運),臺南市中西區環河街62號(中西區康樂段541-1、543等11筆地號),30,0,22.993177,120.192101
臺南客家文化會館停車場(竑穗興業股份有限公司經營),臺南市南區夏林路4號旁基地(南區正義段190地號),31,0,22.985834,120.194661
民生路停車場(日月亭股份有限公司營運),臺南市中西區民生路二段400巷西側(原警察局拖吊場),106,56,22.997720,120.188265
東橋八街停車場(日月亭股份有限公司經營),臺南市永康區東橋八街與東橋三街口,85,0,23.020744,120.233519
體育之心路外停車場,臺南市南區南門路市立體育場西側,108,266,22.978370,120.204934
新化廣停二地下停車場,臺南市新化區臺南市新化區中正路498號,52,0,23.038374,120.307532
北園公兒23路外停車場,臺南市北區北園街114巷,83,0,23.013079,120.224648
大興公園停車場,臺南市北區大興街(好市多正後方),150,0,23.0117569,120.1928463
大豐公園停車場,臺南市北區和緯路與武聖路交叉口,18,0,23.0074151,120.1874729
停2路外停車場(南側),臺南市安平區建平16街近中華西路南側,66,0,22.996565,120.185636
林默娘停車場,臺南市安平區安億路林默娘公園旁,171,227,22.9928133,120.15703
港濱停車場(第一區),臺南市安平區安億路與平豐路路口西北側,37,0,22.994969,120.163416
億載停車場,臺南市安平區永華路2段與光州路路口西南側,86,102,22.991168,120.159479
水景停車場,臺南市安平區安北路水景公園旁,125,0,22.999175,120.157886
育平九街停車場,臺南市安平區育平九街與國平路交叉口,72,156,22.995272,120.171261
龍山里臨時停車場(第一區),臺南市東區東門路二段158巷,23,0,22.984126,120.220115
龍山里臨時停車場(第二區),臺南市東區府東街21巷,45,67,22.984633,120.219869
德光里活動中心停車場,臺南市東區東區崇德路德光里活動中心旁附設停車場,27,52,22.979957,120.219151
竹溪街停車場,臺南市南區竹溪街及健康路一段33巷交叉口,20,1,22.979499,120.210108
賢北街停車場,臺南市北區賢北街與大興街交叉口,70,10,23.008936,120.182962
港濱停車場(第二區),臺南市安平區台南市安平區安億路與平豐路交叉口,20,0,22.995055,120.163672
西門路育賢停車場(俥亭停車事業股份有限公司經營),臺南市北區西門路4段341巷內,26,0,23.015601,120.208744
大學路(社E2)停車場(台灣國際開發事業有限公司營運),臺南市東區大學路西段53號西側(東區育樂段302、302-1、302-2地號等3筆土地),150,100,22.996306,120.216256
關聖里停車場(竑穗興業股份有限公司營運),臺南市東區臺南市東區裕平路39號旁,62,0,22.985180,120.240656
民族路停車場(中興電工嘟嘟房營運),臺南市東區民族路一段與前鋒路口,25,52,22.994362,120.213503
大學路(社E1)停車場(中興電工嘟嘟房營運),臺南市東區育樂街66巷及大學路交叉口,52,0,22.996367,120.215784
永福路停車場(中興電工嘟嘟房營運),臺南市中西區府前路及永福路交叉口,24,0,22.989716,120.200256
停2路外停車場(北側),臺南市安平區臺南市安平區建平16街近中華西路(北側),92,0,22.996775,120.185680
崇明路E6停車場,臺南市東區臺南市東區崇明路崇明國中南側,106,0,22.968862,120.225587
和平公園停車場,臺南市東區臺南市東區文化路100號和平公園旁,79,0,22.976971,120.232186
德光公園停車場,臺南市東區臺南市東區崇德一街德光公園旁,17,0,22.980255,120.219674
崇明五街公兒E37停車場,臺南市東區臺南市東區崇明路與崇明五街口西南側,25,0,22.979849,120.217016
泉南里停車場(委由日月亭股份有限公司營運),臺南市東區臺南市東區長榮路一段15巷內,14,0,22.983101,120.216025
臺南市東區裕文圖書館停車場(竑穗興業股份有限公司營運),臺南市東區臺南市東區裕文圖書館東側,16,0,22.982001,120.245805
臺南市東區立德臨時停車場(竑穗興業股份有限公司營運),臺南市東區臺南市東區立德八路南側,113,0,22.976673,120.214880
海安路地下停車場(璨驛股份有限公司經營),臺南市中西區海安路一段188號B1,841,0,22.991037,120.195617
大宏社區公園停車場(竑穗興業股份有限公司經營),臺南市新營區三民段一地號,24,0,23.307886,120.317136
文化中心廣場停車場(台灣國際開發事業有限公司營運),臺南市東區崇明路與崇明10街路口南側,48,0,22.975635,120.221203
永康中華立體停車場,臺南市永康區華興街77號,274,0,23.000707,120.237698
永康區復國里停(七)停車場,臺南市永康區復國一路150巷26號旁,43,0,23.005257,120.247223
仁德立體停車場(傳忠有限公司),臺南市仁德區臺南市仁德區正義一街41號,201,0,22.972604,120.253466
新市國小地下停車場,臺南市新市區中興路1號B1,154,0,23.078299,120.2953306
長榮崇明停車場(日月亭股份有限公司營運),臺南市東區長榮路一段與長榮路一段15巷交叉口,13,13,22.982578,120.216159
