NAME,ADDRESS,CAR_NUM,MOTOR_NUM,lat,lng
財稅大樓,中正三路25號,126.0,0.0,22.630674,120.309858
忠孝,忠孝一路331號,568.0,0.0,22.633395,120.306056
民權輕鋼架,民權一路221號,256.0,203.0,22.623527,120.311551
錦田機車,中正三路、錦田路口,0.0,124.0,22.631477,120.310186
忠孝一路,中正三路與忠孝一路口旁,40.0,7.0,22.63091176,120.3061048
自強,文武一街65號,305.0,0.0,22.631162,120.29344
新田,新田路268號旁,26.0,43.0,22.620321,120.297696
成功機車,成功一路、前金二街,0.0,60.0,22.6271,120.292778
六合夜市,六合二路與瑞源路口旁,35.0,0.0,22.63133644,120.29721095
林投機車,生興一巷、中正四路,0.0,139.0,22.628138,120.293646
自強三路,自強三路、光明街口,49.0,86.0,22.620724,120.297242
文化中心,五福一路67號,830.0,0.0,22.627123,120.318888
凱旋,凱旋二路130號,554.0,0.0,22.6251221,120.3240374
四維,苓雅一路226號,836.0,921.0,22.621429,120.311083
武廟,輔仁路123號,121.0,180.0,22.62884786,120.33257745
允文,允文街、永明街,13.0,16.0,22.618606,120.294856
金馬,三多一路、輔仁路口,178.0,28.0,22.62371843,120.33371068
福裕,福德三路、三多一路口,114.0,0.0,22.622703,120.327201
苓中,苓雅一路、文橫二路口,69.0,47.0,22.61904478,120.30508984
英明,英明路、英明路163巷口,96.0,32.0,22.61735373,120.32438045
輔仁,輔仁路、明德路,27.0,46.0,22.625397,120.332024
福德,建國一路與福德二路口,35.0,55.0,22.63287687,120.3280764
林德官A區,廣州一街、廣東一街3巷,30.0,24.0,22.618869,120.319217
林德官B區,廣州一街、廣東一街4巷,47.0,0.0,22.61935855,120.3196955
林德官C區,廣州一街、三多二路,40.0,0.0,22.619615,120.320318
林德官G區,廣州一街、三多二路,34.0,0.0,22.61966,120.320489
林德官H區,廣州一街、三多二路,9.0,0.0,22.620157,120.320339
林德官D區,廣東一街3巷、廣東一街(西南角),12.0,0.0,22.61944381,120.32038276
林德官E區,和平一路11巷、廣東一街(東南角),7.0,0.0,22.619519,120.32064011
林德官F區,和平一路39巷、廣東一街,21.0,0.0,22.62002519,120.32043038
建軍,三多一路、建軍路口,46.0,36.0,22.62615669,120.34222575
同慶,凱旋路、同慶路,111.0,94.0,22.62792413,120.32292807
鹽埕,大仁路10號,836.0,0.0,22.6249708,120.2863785
公園,公園路、大義街口,346.0,251.0,22.61966,120.285361
美術館,美術館路82號,333.0,0.0,22.655661399999996,120.285431
美術館東二路,美術東二路、美術館路,156.0,80.0,22.655157,120.287338
聯合醫院,美術館路、美術東四路,178.0,184.0,22.65491324,120.2904443
河川,河川街、綠川街口,22.0,11.0,22.635222,120.283772
濱海,濱海二路、臨海二路,26.0,36.0,22.62397514,120.2698125
廣三,鼓山一路,9.0,0.0,22.62061284,120.27442129
厚泰,九如四路、厚安街口,61.0,0.0,22.645825,120.279546
美術館,馬卡道路、美術館路,99.0,0.0,22.655096,120.283488
臨海二路,臨海二路、捷興街口,12.0,30.0,22.62133561,120.2744667
哨船,哨船街85號、哨船街80-3號,21.0,9.0,22.62357496,120.26921551
前峰,內惟路與銘傳路口旁,65.0,0.0,22.66670309,120.28233763
龍德,龍德新路與新德路口,39.0,0.0,22.654401999999997,120.304694
南鼓山,臨海二 路、捷興二街,28.0,0.0,22.62162407,120.27463084
裕興,中華一路29巷20弄、近中華一路,6.0,0.0,22.667319,120.290198
華泰,華泰路與華泰路211巷路口,32.0,0.0,22.66956155,120.29302385
中洲,中洲二路、中洲二路204號旁,23.0,0.0,22.582749,120.291044
中興市場,廣澤街、商港街,18.0,0.0,22.573949,120.296518
旗津海岸,旗津海水浴場旁,92.0,0.0,22.608677,120.26927
旗津老街,發祥街與旗津三路口,105.0,0.0,22.610511,120.268098
盛興,林森三路145號,382.0,0.0,22.613564999999998,120.308551
民權,泰山街1號,479.0,0.0,22.6082988,120.3158595
民權二路,民權二路、衡山街,47.0,0.0,22.609261,120.313094
正勤(中山),中山三路與正勤路口旁,63.0,123.0,22.60387013,120.30831948
正勤(中華),正勤路、中華五路,58.0,0.0,22.60342845,120.30700708
獅甲,復興三路近中華五路,46.0,17.0,22.606232000000002,120.303883
德昌,德昌路、同安路,43.0,16.0,22.583756,120.317067
后安,后安路、天倫街,73.0,0.0,22.573622,120.321956
向榮,向榮街、崇安街,17.0,0.0,22.571564000000002,120.331
瑞泰,瑞泰街近瑞福路,26.0,0.0,22.607057,120.335052
瑞北,瑞北路、瑞恩街,27.0,0.0,22.608906,120.329566
君毅,正勤路旁(靠近君毅正勤社區之正勤路出入口),47.0,0.0,22.60214704,120.30381689
管仲,管仲路、光華三路,229.0,51.0,22.604613,120.313771
光華,光華路、ㄧ心一路,212.0,0.0,22.606806,120.316827
瑞福,瑞福路、瑞安街口,31.0,37.0,22.607753,120.33541
瑞安,瑞福路、瑞安街口,24.0,0.0,22.60781884,120.33512935
瑞隆,瑞泰街近瑞福路口,21.0,18.0,22.606998,120.33532
鎮興,凱旋四路、鎮興路口,64.0,0.0,22.592822,120.311334
時代大道,中華五路與時代大道口,48.0,0.0,22.596405999999998,120.308948
捷運前鎮高中站(R5)機車,鎮中路、翠亨北路口,0.0,167.0,22.587416,120.322356
鎮賢,鎮賢街52巷旁,23.0,20.0,22.589858,120.309262
興化,興化街、新生路口,39.0,0.0,22.583048,120.310491
瑞豐,瑞福路瑞豐國小對面,14.0,16.0,22.606554,120.33581
鎮榮街,鎮榮街、鎮華街,32.0,0.0,22.588912,120.30977
鎮榮街第二,鎮榮街、鎮華街,28.0,0.0,22.58873356,120.30970238
前鎮貨櫃車,翠亨南路與金福路口旁台糖高雄大型車輛停車場內,0.0,0.0,22.57643227,120.32556599
英德街,和平二路與英德街口旁,85.0,25.0,22.61386217,120.32234733
沱江,管仲路與沱江街口,78.0,0.0,22.60667281,120.3119926
凱旋三路,凱旋三路與賢明路,24.0,0.0,22.608439999999998,120.325154
凱旋三路機車,賢明路與育樂路8巷,0.0,22.0,22.608924,120.324799
新光,成功路高雄展覽館旁,443.0,578.0,22.607547,120.299849
瑞昌,瑞隆路190巷4弄、瑞福路口,11.0,0.0,22.606381,120.335735
明義,草衙二路與中平路口,32.0,0.0,22.576667,120.324232
臥龍,九如一路與臥龍路口旁,28.0,0.0,22.63833683,120.32991897
鼎泰,裕誠路、鼎瑞街,62.0,0.0,22.66385845,120.31513917
明仁,明仁路與明吉路口旁,110.0,0.0,22.662663000000002,120.313188
陽明,陽明路與義華路口旁,48.0,0.0,22.64293258,120.34219726
正興,正興路與正興路163巷口旁,139.0,46.0,22.64656119,120.31968906
金獅湖,鼎金一巷,37.0,45.0,22.665892000000003,120.328285
金山,金山路、金山路360巷,8.0,25.0,22.661921,120.31869
中博高架橋下(後站),博愛一路、近九如二路口,77.0,188.0,22.641662,120.302985
中博高架橋下(前站),中山一路、近河北二路口,22.0,69.0,22.6376086,120.3026262
三鳳中街,建國三路、中華二路口(三民國小旁),67.0,0.0,22.636848999999998,120.292176
澄東,文安南街與褒揚東街口旁,127.0,0.0,22.64029084,120.34638186
三鳳中街機車,三民派出所旁,0.0,154.0,22.636960000000002,120.292357
寶華,陽明路16巷內,91.0,46.0,22.63744661,120.34202277
三民二號公園,同協路、安東街口,51.0,31.0,22.64842192,120.29563411
本和,鼎勇街與大園街口旁,75.0,0.0,22.65744835,120.32524239
本和第二,鼎勇街與鼎文街口旁,78.0,0.0,22.65758696,120.32439481
皓東,正忠路、皓東路17巷口,89.0,0.0,22.648507000000002,120.331212
金鼎,金山路、金山路18巷,36.0,0.0,222.66333999999998,120.326025
民族一路,民族一路、九如二路(民族陸橋),110.0,12.0,22.639833,120.31379
歡樂17,軍校路與後昌路837巷口旁,36.0,22.0,22.71027069,120.2929517
立民,立民路、立仁路,32.0,0.0,22.742243,120.336768
常德,常順路、常德街32巷,30.0,0.0,22.731953,120.336679
常順,常順路32巷、當興街115巷,78.0,0.0,22.732167,120.337002
青埔,青埔街50巷,39.0,16.0,22.729682999999998,120.323657
清豐,土庫二路與清豐三路口,44.0,92.0,22.7375875,120.3272898
楠梓運動場,東寧路、楠裕街口,143.0,0.0,22.732346,120.331818
樂群,樂群路、加宏路,34.0,0.0,22.71847,120.296781
德中,德中路73巷─大學33街,24.0,0.0,22.721873000000002,120.277465
三山,三山街、福興街,99.0,0.0,22.715993,120.282675
惠民,惠民路、壽豐路間,63.0,68.0,22.723360999999997,120.294092
廣昌,右昌忠義9巷、廣昌街113巷,57.0,68.0,22.70588038,120.28543427
大昌,右昌街79巷、右昌街79巷132弄交叉口,13.0,0.0,22.707539,120.288766
加昌,加昌路、軍校路880巷31弄,96.0,0.0,22.712932000000002,120.292831
智昌,智昌街、勇昌街,83.0,0.0,22.720845999999998,120.2877
後昌,後昌路862-1號旁,13.0,10.0,22.7124235,120.2945235
後昌路北側,左楠路至後昌路546巷,0.0,58.0,22.70791578,120.30122189
青埔溝,楠梓新路至建楠路,190.0,209.0,22.728818,120.32667
小港,小港路175號,219.0,0.0,22.564404,120.338011
松崗,松崗路、松崗路18巷,18.0,0.0,22.574795,120.374217
中光,中光街、中光街22巷,25.0,0.0,22.571586,120.355798
店北,店北路、店鳳街,21.0,0.0,22.562744,120.351518
二苓,二苓路176巷,12.0,24.0,22.566126,120.349662
高坪23路,高坪23路、高坪32街,27.0,0.0,22.561164,120.388886
高坪7路,高坪7路、高坪22路,62.0,0.0,22.556462,120.381135
鳳興,鳳盛街38號對面,17.0,0.0,22.524321,120.348137
龍鳳,龍鳳街、朝福街,30.0,0.0,22.513435,120.357175
鳳陽,鳳陽街18巷、及6巷中間,20.0,0.0,22.562484,120.370225
平和,平和路、平和南路,46.0,0.0,22.562514,120.335809
華山,華山路、華仁街口,31.0,0.0,22.568078,120.366209
海功,海功路57號,501.0,0.0,22.6935281,120.297248
福山,重信路35號,459.0,0.0,22.6835269,120.3165362
富民,富民路與太原街口旁,40.0,0.0,22.667631,120.305613
龍華,大順一路與龍德新路口旁,75.0,0.0,22.65595677,120.31095386
華夏,華夏路、曾子路,36.0,0.0,22.680966,120.305962
文水,文水路、華夏路,93.0,0.0,22.681092,120.306211
辛亥,裕誠路、辛亥路,43.0,0.0,22.664795,120.310052
孟子,博愛三路、孟子路,38.0,0.0,22.67582873,120.30684931
曾子,自由三路與曾子路口旁,37.0,0.0,22.67659894,120.31276924
環潭,環潭路332之1號旁,32.0,0.0,22.686159,120.299988
海光,勝利路、新莊仔路口,73.0,71.0,22.67869,120.292626
新莊一路,新莊一路底,60.0,0.0,22.674207,120.295569
舊左營國中,新庄子路、勝利路,142.0,0.0,22.677951,120.293234
東門,翠華路601巷與城峰路口旁,42.0,0.0,22.67427895,120.29011221
高雄新左營站前,站前路與站前南路口,248.0,500.0,22.68693839,120.30520547
榮光,榮光街、榮總路,26.0,28.0,22.684962,120.321603
左營北站,左營大路、進學路,54.0,0.0,22.69046511,120.29538061
微笑,自由三路161號對面,145.0,0.0,22.671386,120.311184
左營哈囉市場,左營大路、左營大路672巷、菜公路與左營下路,166.0,0.0,22.69175385,120.29862973
鳳山行政中心西側,光復路二段與建軍路口旁,317.0,186.0,22.62951022,120.34221035
鳳山捷運站機車,捷運鳳山站旁,0.0,190.0,22.625852,120.356273
中崙,中崙二路、三路口,150.0,0.0,22.603645999999998,120.352514
鳳陽,瑞智街與瑞大街口,37.0,20.0,22.6316747,120.3700146
福誠,福誠三街、福誠五街,46.0,52.0,22.593667,120.323369
頂新,頂庄路、頂新五街旁,26.0,0.0,22.588327,120.364971
竹子腳,瑞竹路瑞順街口,17.0,0.0,22.628503,120.368627
頂明,頂庄路與頂明路,56.0,0.0,22.588619,120.355031
鳳山國中機車,鳳山國中旁,0.0,302.0,22.62444263,120.37093293
鳳甲,鳳甲二街與過埤路口,97.0,0.0,22.59635,120.343114
五甲七老爺,五甲二路105巷內,77.0,0.0,22.60030879,120.3412139
田中央,鳳頂路與田中央路口旁,28.0,10.0,22.59458983,120.359333
國泰青年,光華路、協利街,514.0,0.0,22.623721,120.348597
南成,南和一路、和成路,73.0,0.0,22.590557,120.338333
鳳頂路,鳳頂路、過埤路口,64.0,34.0,22.59062548,120.35871521
北昌路,北昌二街、北昌路口,106.0,67.0,22.645779,120.37243
五甲社區,國富路、國富路21巷口北側,176.0,0.0,22.615336,120.350329
五甲停二機車,國光路、國昌路口,0.0,42.0,22.618451,120.353128
鳳山轉運站公有機車,鳳山轉運站北側、大東公園西側,0.0,102.0,22.625697,120.364151
黃埔新村,中山東路、維武路,49.0,0.0,22.62039062,120.3646484
忠誠,鳳北路108巷對面,20.0,10.0,22.641438,120.367006
岡山,岡山區大仁北路3號,154.0,0.0,22.800222,120.301913
岡山戶政旁,區公所後方,54.0,0.0,22.797345999999997,120.294407
中華路圓環,中華路與民族路交岔口西北側,20.0,0.0,22.793843,120.288066
和平公園附設,大德一路、竹圍東路,22.0,0.0,22.797501,120.30383
岡山平面,岡山路、民有路口,177.0,59.0,22.79179255,120.29625053
勞工公園（勞一）,長庚路北側,198.0,151.0,22.650639,120.358506
育英,琅環二街、育成三街,52.0,0.0,22.665936,120.358702
觀湖,公園路、近山明路(消防隊旁),80.0,0.0,22.655457000000002,120.360088
永興,本華路與永善路口旁,45.0,0.0,22.6509873,120.34075141
神農,江埤路、美德二街,130.0,115.0,22.652168,120.390184
澄清湖西側,澄清湖風景區大門左側,15.0,16.0,22.653542,120.349278
仁美,神農路、大同路(7-11對面斜坡),25.0,10.0,22.657341,120.38101
旗山轉運站,旗山轉運站旁,15.0,177.0,22.88419394,120.48476012
旗山老街觀光,美濃溪高灘地,300.0,0.0,22.888282,120.485622
旗山體育場,旗山體育場旁,20.0,0.0,22.887265,120.480725
九曲堂,久堂路、新社街,47.0,0.0,22.658123,120.418761
統嶺社區,佛光山寺對面,482.0,0.0,22.75631413,120.44823156
大樹舊鐵橋,大樹舊鐵橋濕地生態公園園區內西北側,154.0,0.0,22.665423999999998,120.427514
蚵仔寮,漁港一路與港七街口旁(漁市場對面),94.0,72.0,22.72743331,120.25533577
嘉好路,嘉好路26巷旁,7.0,0.0,22.731726000000002,120.259252
九鬮段如意,大崗山入口意象園區(台19甲末端附近),247.0,0.0,22.852038,120.33422
大岡山第二,大崗山入口意象園區(台19甲末端附近),0.0,187.0,22.852303,120.334377
南連段963,忠孝路警察局旁邊空地,24.0,0.0,22.879128,120.329948
德宜段,文學一街與成功街德宜自辦重劃區,36.0,0.0,22.884719,120.332282
彌陀公園,中正西路與中正北路交叉口,33.0,0.0,22.78443,120.246585
大社停一,區公所對面自強街,28.0,0.0,22.730014999999998,120.346801
觀音山停七,觀音山旁,64.0,25.0,22.728089999999998,120.370916
觀音山停八,停七對面,44.0,0.0,22.728026999999997,120.370505
大寮停二,中山高級工商職業學校對面,192.0,0.0,22.601793,120.3943086
仁德116,大寮地政對面,145.0,103.0,22.601793,120.39430859
雙峰公園,高雄客運對面,44.0,13.0,22.901584,120.542078
泰安,高雄客運對面泰安路旁,61.0,0.0,22.902712,120.542015
停二,延平路及中和街交叉口,42.0,0.0,22.858268,120.256633
停四,民強街交叉口,35.0,0.0,22.854027,120.26285
竹東,中正路106號對面,34.0,0.0,22.856146,120.262748
停二,成功洗衣店旁,17.0,0.0,23.082262,120.587394
大愛停車場,五里埔第一基地內,13.0,0.0,23.150325,120.635224
興達港立體停車場,民族路51號,140.0,0.0,22.87171165,120.19432837
崎漏停車場,漁港路旁 ,41.0,0.0,22.873595,120.191209
金興,金鑾路、仁愛路,149.0,0.0,22.89604567,120.18492498
興達,濱海路一段(興達漁市旁),140.0,0.0,22.8685254,120.19295896
竹後段,水管路北側、竹後社區活動中心旁,38.0,0.0,22.70640962,120.33723592
仁雄停十一,澄仁路口,39.0,0.0,22.679218,120.345208
金鼎段停九,大豐路及大春路口,82.0,0.0,22.676219,120336655.0
八卦里,永仁街、永新二街,60.0,32.0,22.682962,120.332101
澄德段停一,八德東路與京吉6路,108.0,0.0,22.685133999999998,120.34144
慈惠,赤仁路、仁孝路口,57.0,0.0,22.675948,120.347985
仁和公園,仁和公園內,55.0,0.0,22.68099500000001,120.352465
澄合停九,八德東路旁,58.0,0.0,22.687720000000002,120.347113
澄觀,八德西路與京富路口旁(澄觀派出所旁),10.0,0.0,22.67713159,120.3309742
八德小型車,八德南路與京吉一路口,122.0,0.0,22.680970000000002,120.340232
八德大型車,八德南路與澄觀路口旁,0.0,0.0,22.68033621,120.34052606
仁慈公園,仁慈公園旁,35.0,0.0,22.671833,120.359018
育才公21,赤勇三街近慈惠五街,119.0,0.0,22.674312,120.351436
林園,林園區林園南路77號,244.0,0.0,22.502752899999997,120.3958744
田中央,東林西路249巷,45.0,0.0,22.501031,120.388879
仕興,大豐路旁,32.0,0.0,22.749817,120.30965
建樹,活動中心後面,31.0,0.0,22.817869,120.224527
山城,中庄60巷21號對面,25.0,0.0,23.000808,120.642196
烏樹林,永安區公所對面,12.0,0.0,22.817869,120.224527
狗氤氳段,大群土雞城旁,22.0,0.0,22.886666,120.391603
五里埔第一基地,日光三街旁(12席),12.0,0.0,22.980929,120.554136
五里埔第二基地,街底土地公廟旁（5席）,5.0,0.0,22.980929,120.554136
大愛A區,杉林國中斜對面,14.0,0.0,22.96936,120.54251
大愛B區,和氣街110巷叉口,40.0,0.0,22.966442999999998,120.542328
大愛C區,合心路旁,66.0,0.0,22.962941,120.539572
凹子底停車場,龍中段45地號土地（神農路、南屏路口）,192.0,137.0,22.657410000000002,120.2995
英明停車場,林聖段一小段2017-4地號（英明路近英祥街口）,11.0,42.0,22.61689,120.32488000000001
阮綜合醫院停車場,苓洲段1567地號（四維四路107號）(立體停車塔),208.0,0.0,22.61495297791388,120.29796020295635
紫龍城停車場,獅頭段一小段1689地號3層（陽明路169號）,50.0,0.0,22.640710000000002,120.34138
財團法人天主教聖功醫院附設地下室停車場,正明段350、350-1地號1-3層（建國一路352號）,103.0,0.0,22.633779999999998,120.32406
國賓大飯店停車場,後金段533、535地號（民生二路上近河東路）,159.0,0.0,22.62410171,120.29092229
潤成和平停車場,林德官段一小段1834地號（三多、和平一路1號）,49.0,0.0,22.61986,120.32177
永昇國際企業股份有限公司民權停車場,光華段一小段2025地號（景德路1號）,50.0,0.0,22.6119170094385,120.314556414103
武聖停車場,武聖段1121（使用面積1947.56㎡）、1122（使用面積359.34㎡）地號（武智街與武智街30巷口西北側）,72.0,0.0,22.62294545,120.33502012
高雄巨蛋計時停車場,新博段36、37地號（博愛二路767、777號地下二、三層）(南屏路、新榮街),1467.0,0.0,22.66798,120.3007
高雄市立中山網球場停車場,大港段3394及3393-7地號（平等路12號）,51.0,0.0,22.64264345,120.32139912
新漢來集團停車場,高雄市前金區成功一路266號地下四層〜地下七層（成功一路、新田路口）,744.0,0.0,22.619334,120.296033
大豐停車場,灣子內段寶珠溝小段767、767-1、767-2、767-3地號（大豐二路、春陽街口）,47.0,0.0,22.64602987,120.32962546
正忠停車場,灣子內段寶珠溝小段763及766地號共2筆土地（正忠路、春陽街口）,69.0,0.0,22.6466136113061,120.33003616248199
高雄市立國際游泳池停車場,中正段7、8、11、13至17地號（中正一路94巷1號）,96.0,0.0,22.62735,120.33526
高雄市立勞工壘球場停車場,愛群段1024、1025、1028、1029、1030及1036地號（民權二路上近中山三路口）,26.0,0.0,22.607789999999998,120.30912
佐鄞灣愛街停車場,灣和段32、33及34地號共3筆土地(灣愛街1號前),83.0,0.0,22.65928,120.32106999999999
貳拾肆小時停車場,新興段四小段687-2、763地號（民主橫路61號）,107.0,0.0,22.635132401925606,120.301180783768
高雄市立中正運動場停車場,福河段2044、2079、2087、2092、2093地號(高雄市5中正一路99號),95.0,0.0,22.623924152463303,120.335030459387
新興停車場,5過田子段480、480-1、480-2、480-3、480-4地號（林森二路219、221號）,120.0,0.0,22.62181505342309,120.305886930636
財團法人台灣基督長老教會高雄宣教中心停車場,大港段二小段1229-2地號（山東街142號）,61.0,0.0,22.644289705346107,120.311888449286
鳳新停車場,廈莊段697-2地號（孔鳳路339號對面新昌街）,25.0,0.0,22.58148276318069,120.36163752856501
商店街第二停車場,姑婆寮段26-346、26-79地號(31三和里學城路一段131號),139.0,0.0,22.73002474,120.40301612
高雄市立陽明溜冰場停車場,寶國段320及321地號土地部分使用(義華路168號),52.0,0.0,22.643244818101397,120.339358206558
高雄市立陽明網球場停車場,寶國段321地號土地部分使用(澄和路269號),130.0,0.0,22.645468934770797,120.339648141208
高雄市旗山區(停三)停車場,旗山段209-11、209-12、209-63地號共3筆土地(華中街近消防局),68.0,0.0,22.888068519363397,120.483941053775
商店街第一停車場,"姑婆寮段226-21地號,學城路一段63號（百貨公司口）",186.0,0.0,22.728946,120.404344
鼎貴（三）停車場,覆鼎金一小段674、674-1地號（鼎中路698號）,27.0,0.0,22.674023179776203,120.321870585268
文山停車場,文山段526-3、527-2、528-2、529-3地號(12青年路二段與文中街口),29.0,0.0,22.64159,120.35161
 南台灣停車場,19善德段0447、0448、0449地號(仁武區高鐵路近高楠公路),0.0,0.0,22.6947928794531,120.321352407686
源久停車場,林德官段一小段3122地號（興中一路、學源街口東北側）,21.0,0.0,22.619433912905397,120.31552736775801
順安停車場,中厝段17地號（德仁路-桂江街口）,45.0,0.0,22.58421746757349,120.349644555702
大統百貨停車場,林德官段1107、1107-1、1108、1108-5地號(和平一路218號地下2至5樓（泰順街上近和平一路）,210.0,318.0,22.63131325,120.31804476
欣榮機車停車場,新博段9地號土地(巨蛋後方新榮街近新莊一路),0.0,80.0,22.67002,120.30146
八德錦田停車場,新興段一小段105地號部分土地(八德一路與錦田路口),165.0,0.0,22.635536879043695,120.309639296139
慶豐停車場,新興段四小段2376及2383-11地號(中山路、民生路圓環),19.0,0.0,22.62829,120.30081000000001
建軍停車場,建軍段175-4號(鳳頂路上近台糖加油站),0.0,0.0,22.6034563334332,120.361843874496
永旭停車場,赤山段492-2、492-6地號(文衡路208號旁),10.0,1.0,22.637710000000002,120.35689
大東文化藝術中心地下停車場,竹子腳段48-7、52、54-3、54-23等地號(光遠路161號地下1層),251.0,171.0,22.624987899999997,120.36258067
嘟嘟房高鐵左營站停車場,菜公段三小段770-22、750-1、770-12、770-26等菜公段五小段1070地號(高鐵路105號),780.0,681.0,22.68572994362589,120.3067986688502
高雄市立新興高級中學停車場,大統段1小段964地號（五褔二路、林森一路口）(五福二路218號),80.0,0.0,22.6243725463508,120.304023244806
台灣中油股份有限公司煉製事業部前金停車場,前金段113-10、106-6地號（文武二街上近大同二路）,17.0,0.0,22.627564218520888,120.29561821731001
大樂停車場,灣內段700地號(民族一路463號室外地面層),136.0,0.0,22.65956504,120.31418035
中正自立停車場,新興段四小段2122、2123地號(自立二路與南台路43巷路口),34.0,0.0,22.630070081539397,120.299434581521
達德停車場,五塊厝段2075地號（建民路、家齊路口）,12.0,0.0,22.630207127621695,120.327018912659
御盟建國停車場,三塊厝段一小段1090-4、1090-10地號(建國三路113號地下一～四層),83.0,0.0,22.63757,120.29951000000001
歐派克南岡山停車場,和平段1303地號土地部分使用 (捷運站南岡山站對面),0.0,245.0,22.78088,120.30221
中正骨科醫院停車場,前金段82-1、82-29、82-30、82-31地號(中正四路100號旁),19.0,43.0,22.630570000000002,120.29842
蔡良榮停車場,新庄段八小段135地號(修明街與太華街口),19.0,0.0,22.65764289,120.30402354
俊傑C停車場,五塊厝段1812地號(建民路34號旁),6.0,0.0,22.629162891236,120.33136034060101
杉民富國忠言停車場,新庄段八小段88地號（富國路、忠言路口）,68.0,0.0,22.65868,120.30634
高雄市立歷史博物館廣場停車場,鹽新段7、8、9、10-1、11-1、13、14、15-1、17-1、18、19、20、23、24、25、26、27、32、511、512地號（中正四路272號）,22.0,0.0,22.62640913,120.28708324
和隆停車場,草衙段二小段304地號(和隆街43號旁),18.0,0.0,22.5797,120.32128999999999
格林停車場,文衡路592、596、598地號(文衡路592號),18.0,0.0,22.641848070255197,120.34672564489401
英德街停車場,盛興段一小段1579地號（英德街132號前）,47.0,0.0,22.6139736409067,120.32163445529699
瑞豐國中活動中心地下室停車場,瑞隆段一小段456地號（康寧街、瑞興街7巷口）,48.0,0.0,22.61010531691579,120.33167894273858
柴山停車場,壽山段95地號部分土地(柴山31號大碗公咖啡下方),16.0,0.0,22.645455818846912,120.25332938435336
俊傑B停車場,五塊厝段1654、1655部分地號（建民路近福德路）,14.0,0.0,22.629075905193602,120.331308092421
宜慶停車場,朝陽段695地號部分土地（漁港路2之2號）,0.0,0.0,22.577479999999998,120.31766
蘭卡威停車場,籬子內段崗山子小段1469地號（崗山南街與崗山南街38巷口）,10.0,0.0,22.60418,120.33478
陽明停車場,獅頭段一小段2047-1地號(高雄市4陽明路26號3~5樓),42.0,0.0,22.63781,120.3415
好來屋停車場,大港段二小段1484、1485、1489地號(十全一路161號1樓、地下1~2樓（十全一路、龍江街口）,69.0,40.0,22.64471047,120.30951714
Times高雄旺曜商場停車場,澄清路442、446、448、450、452、456、458、460、462、466、466-1、466-1號2樓之1、466-2、466-3、466-5、466-6號2樓、466-7號共17筆（澄清、文衡後面）,42.0,0.0,22.64087657747509,120.34629573484743
高雄和雲維新東街停車場,岡山段519-13地號部分使用（岡燕路31巷)民享路左轉近平和路）,42.0,0.0,22.793942099037398,120.297092507619
高興昌第二停車場,意誠段664之2及664之3地號（自強三路、永興街口西南側）,50.0,0.0,22.612716318431698,120.30007341887399
中華電信高雄營運處建興收費停車場,建安段24、67-1、70-1等地號（建興路、建工路口）,182.0,0.0,22.648018435424298,120.32091975093799
旺亨停車場,埤頂段1425-1、1425-2、1425-3、1425-5地號（埤頂街303號左前方）,20.0,0.0,22.628330622662002,120.37782612284599
蓮潭停車場,新吉段25地號（重安路、文智路口）,44.0,0.0,22.6765911459392,120.29785442414
青雨停車場,龍華段八小段2393-1地號（文忠路39號旁）,28.0,0.0,22.665118779946088,120.301805700784
寶盛岡山停車場,後紅段321-102、328-1地號部分使用（岡山火車站）,46.0,96.0,22.792546032364392,120.299159226075
成銓停車場,灣勢段25、26、27、及28等四筆地號（灣內路一段152巷過加油站右轉）,3.0,0.0,22.68829,120.35723999999999
仁武元寶停車場,灣勢段28-7及400-3地號土地（灣內路一段152巷過加油站右轉）,0.0,0.0,22.68644,120.35752
嘟嘟房正大安溪站停車場,正言段893、894、895、895-1、896及896-1地號共6筆土地（正大路、安溪路口西南側）,69.0,0.0,22.6334324592746,120.332113142416
濕地公園停車場,新都段209及215地號（德勝街近九如路）,7.0,0.0,22.6458,120.28473999999999
三民停車場,鳳山段縣口小段259、259-1、259-2、259-3地號(三民路上郵局斜對面),61.0,0.0,22.6256117253334,120.358108850252
高雄市捷運小港停車場,鳳宮段11、11-1、28、28-1、48、48-1〜48-7地號12筆（沿海一路、立群路口）,30.0,458.0,22.56468,120.3536
高雄市捷運小港永發停車場,店子後段1110地號（沿海一路、漢民路口）,53.0,0.0,22.566107490433364,120.35232279578213
農十六裕誠停車場,龍中段139地號（裕誠路上美術東五路62號旁）,54.0,0.0,22.6591798014157,120.294245219574
寶盛至聖路停車場,新庄段十二小段1167地號（至聖路、光興街）,35.0,0.0,22.659654276243806,120.31002143582899
Times高雄新盛一街停車場,東金段745-2地號（新盛一街近育才街）,27.0,0.0,22.63199342,120.29594646
大同停車場,前金段91-13、91-19地號（大同國小正對面）,37.0,0.0,22.6280127328206,120.297994036807
衛生福利部旗山醫院停車場,旗南段196地號(高雄市21中學路60號),21.0,0.0,22.88003806,120.48350016
新進隆停車場,新庄段九小段1400-2、1403-3、1403-1地號（辛亥路203巷32號）,20.0,0.0,22.6653853355171,120.30963048635901
龍德路118巷停車場,龍華段三小段944地號土地（龍德路118巷）,12.0,0.0,22.6546108313064,120.299356278616
新亞停車場,新都段370、373地號（九如三路陸橋前）,0.0,0.0,22.6442832277996,120.28561349091801
柏仁停車場,新庄段十三小段1536地號（博愛二路340號）,48.0,0.0,22.664189439927892,120.30340555035102
高雄展覽館股份有限公司停車場,獅甲段518-6地號(成功二路39號(地面層及地下1樓),402.0,857.0,22.607376069673094,120.299726253236
景宏停車場,廈莊段697-3地號土地（孔鳳路339號對面新昌街）,26.0,0.0,22.58149579,120.36130982
連發停車場,翁公園段3806、3806-1、3806-2、3806-3、3806-4地號（民安街中庄國小後面）,98.0,0.0,22.636257225748896,120.397727736749
孔鳳停車場,廈莊段697地號（孔鳳路339號斜對面新昌街）,26.0,0.0,22.5814718289262,120.361660454141
高雄國際會議中心附設停車場,鹽新段7地號等20筆地號(高雄市鹽程區中正四路274號地下一層〜地下三層),209.0,0.0,22.6266595057274,120.285548025304
阿斌停車場,新興段三小段396、397地號（大同路上臨忠孝路口）,2.0,0.0,22.6288305627874,120.306369738556
鳳老大停車場,藍昌段三小段256地號(軍校路930之2號),44.0,0.0,22.71359602,120.29109875
Times高雄錦田路停車場,新興段一小段1240地號（錦田路與復橫一路口東北側）,45.0,0.0,22.6292738054909,120.310437458047
大統二聖停車場,光華段一小段1644地號（二聖一路、廣東三街口）,131.0,0.0,22.612387578410697,120.321208967906
澄清湖風景區停車場,圓山段3地號及鳥松段141、150、157、125、127、173、183-2地號土地(部分使用)。（大埤路32號）,306.0,250.0,22.653596046108603,120.34977217868601
寰宇自立橫路停車場	,前金段86-20、86-21、86-22、86-23及86-24地號共5筆土地(自立橫路72號旁),7.0,0.0,22.6292400976502,120.29868836240699
寶盛鹽埕街(2)停車場,鹽國段704地號(鹽埕街10號旁),4.0,0.0,22.624425189249397,120.28326028807699
義大皇家酒店停車場,姑婆寮段885地號，31學城路一段153號地下二層至地下五層。（義大世界）,765.0,0.0,22.72999,120.40085800000001
高雄花市停車場,朝陽段44-1地號(高雄市翠亨南路231號),274.0,0.0,22.57453609,120.33203393
橋頭糖廠停車場,橋子頭段1034-1、1034-2、1034-3、1034-5、1034-7、10348等地號(高雄市35橋南里球場路5號),195.0,0.0,22.754720000000002,120.31723000000001
亮勳企業有限公司亮勳大順收費停車場,大順段1059、1060、1062、1063地號土地部分使用（大順二路55巷旁),81.0,0.0,22.6406463229933,120.327322856354
佳園停車場,新甲段1310-2地號（新富路87號前）,22.0,0.0,22.612671384601,120.335634697353
民族鼎山停車場,灣復段1023地號土地(鼎山路、民族路口),42.0,0.0,22.6490865530655,120.315470703512
李秀蘭停車場,愛群段2782、2791、2809-5地號部分使用(林森三路107號),9.0,0.0,22.61290595,120.30830429
寶安停車場,義民段933、934、935、938地號共4筆部分土使用(寶安接近正忠路口),67.0,0.0,22.6411090897953,120.33081092151899
信府停車場,福山段438、438-1、438-2地號共3筆(文府路36號旁),0.0,65.0,22.68613,120.30917
大發停車場,赤崁段潮州寮三小段6875地號土地部分使用（光華路22號）,55.0,0.0,22.582891435569305,120.42320691132299
俥亭左營高鐵後站停車場,左東段320地號；菜公段三小段832-1、872地號；菜公段五小段1073、1073-1、1074-1地號共6筆(站前南路9巷旁),59.0,0.0,22.6865863547054,120.30563769577
義大世界購物廣場,姑婆寮段26-7、26-90、26-91等8筆、31學城路一段12號地下三層至地下七層。（義大世界）,2376.0,0.0,22.730007999999998,120.403424
新富國停車場,2新庄段十二小段1075地號(富國路、安吉街口),36.0,0.0,22.661862802004,120.306588866843
Times高雄市中一路停車場,中都段四小段296-1、386地號共2筆土地部分使用(市中一路456-1號對面),36.0,0.0,22.6371770103406,120.286499830501
阿爾發停車場,新博段18、19、19-1、19-2地號（新榮街上）,40.0,0.0,22.668783499654797,120.300805854706
平價停車場,新博段29、31、32地號(新榮街上),33.0,0.0,22.66842,120.30032
民族停車場,"灣復段265、267、268、269地號部分使用(自重街與和順街口,近大順二路 )",35.0,0.0,22.654027175899696,120.31619580994601
219巷停車場,新庄段二小段55地號(光興街219巷),43.0,0.0,22.6636558503166,120.310465958402
八棓停車場,二甲段35-1地號（88轉西向甲智路右側）,54.0,0.0,22.596726327051,120.34177798946101
Times高雄堅如路停車場,陽明段四小段45地號（澄明路、堅如路口西南側）,28.0,0.0,22.648385477701698,120.341235765597
高雄市立輔仁路停車場,福河段1275、1275-1地號土地(高雄市5輔仁路89號（中正一路、輔仁路口））,156.0,0.0,22.6265192600689,120.331418440996
顏彰逸公共停車場,福山段417地號（文府路近重信路）,37.0,7.0,22.686410000000002,120.3087
香港商世界健身事業有限公司高雄中華停車場,前金段139-10、139-15、139-30地號共3筆土地（六和二路與文武一街口）,22.0,0.0,22.6304108313064,120.29443396965799
重愛停車場,福山段372、373地號部分使用（文學路與文府路178巷口）,42.0,0.0,22.6875588,120.3122931
文雄停車場,三塊厝段四小段2541地號（察哈爾二街、興安街口）,19.0,0.0,22.648022523902398,120.29889854898701
Times高雄至真路停車場,新庄段五小段723地號部分土地（至真、近博愛路口),16.0,0.0,22.6712766706537,120.303546171121
Times高雄中山復興停車場,獅甲段54、55、56、60、61地號共5筆土地（中山二路13號旁),25.0,0.0,22.607879999999998,120.30646000000002
國雲仁義停車場,過田子段618地號土地（仁義街、青年路口),9.0,0.0,22.61996,120.30141
國立高雄科技大學建工停車場,建工段601地號土地(高雄市三民區建工路415號室外地面層),154.0,0.0,22.65079,120.32777
Times高雄仁德街停車場,苓洲段49地號(仁德街144-5號北側),13.0,0.0,22.6187381628288,120.301031573587
澄清湖青年活動中心停車場,鳥松段117地號（青年活動中心內）,226.0,87.0,22.66897,120.34857
Times高雄七賢開封停車場,新興段一小段140-5、140-6地號（七賢一路176號東側）,88.0,0.0,22.63443,120.31258999999999
健仁醫院停車場,楠都段三小段513、603地號 (朝明路130巷7弄12號地上一～七層),49.0,0.0,22.72387302,120.32883037
美術東八街停車場,青海段630地號(美術館路與美術東八街路口),15.0,0.0,22.654401650931696,120.29129516908002
慈德停車場,龍華段八小段2279地號部分土地（昌盛路32號旁）,35.0,0.0,22.663897289222888,120.301517288331
日月亭自立停車場,中華段二小段693、694、695、702、705、713及714地號共7筆土地部分使用（昌盛路32號旁）,140.0,0.0,22.638824925833912,120.295047248474
鼎祥停車場,鼎泰段1437地號（鼎祥街166號東南側近民族一路575巷）,30.0,0.0,22.66712174987349,120.31611871435
豐榮停車場,"中厝段33地號(德文街48號旁,近中安路）",62.0,0.0,22.583145018319893,120.348014034932
日月亭岡山文化中心停車場,大寮段1010、1010-5、1011-5地號(岡山南路42號室外地面層),85.0,0.0,22.7829290234622,120.298097849774
安吉一停車場,新庄段十二小段1034地號土地（安吉街277號斜對面）。,21.0,0.0,22.66178695,120.30805719
安吉二停車場,新庄段十二小段1083地號土地（安吉街277號旁）。,24.0,0.0,22.66178695,120.3078748
219巷東停車場,新庄段二小段56-1、56-2、56-3、57-1地號共4筆部分土地(光興街219巷),21.0,0.0,22.663629999999998,120.31081
寶盛塩埕街停車場,塩國段575、576、577、578、579、580、581、582、583、590、591、592地號(塩埕街上近五褔四路）,18.0,0.0,22.62434,120.28331999999999
嘟嘟房高雄仁義站停車場,過田子段615、615-1、615-2、615-3、615-5、615-6、615-7地號（仁義街208號北側）,54.0,0.0,22.620583364370088,120.30106746653401
捷安(二)停車場,新博段12地號（新榮街上後）,23.0,46.0,22.668902400672398,120.30083273121299
捷安(一)停車場,新博段16、17、17-1地號共3筆土地（新榮街上前）,28.0,0.0,22.6693967294417,120.30122405903299
彩虹城堡公共停車場,竹子腳段22-32地號(12瑞興路199巷1號(地下1樓),15.0,0.0,22.627582858249912,120.36593351805
Times高雄七賢成功停車場,北金段282、285、285-3地號(七賢、成功路),17.0,0.0,22.6318352688729,120.29090538871901
六合錦田停車場,新興段一小段582、583、584地號（六合一路78號旁）,130.0,0.0,22.6326279105202,120.30974597812799
富民停車場,新庄段四小段639地號（富民路上近新下街）,52.0,0.0,22.6679847449056,120.30587064920401
桂江停車場,中厝段16、16-1、16-2、16-3、16-4號共5筆部分土地（桂江街161之5號對面）。,81.0,0.0,22.584220000000002,120.35028
高雄五福中山停車場,前金段477-1、477-2、 477-3、 477-4、477-5、494-4、511-1、511-9地號（五褔三路、中山二路口）,102.0,0.0,22.62279,120.30071000000001
嘟嘟房立文富國站停車場,"新庄段十三小段1496,1497地號之部份使用（立文路42號對面）",117.0,0.0,22.6644022553752,120.30626211293999
國立高雄大學停車場,"高雄大學路700號(綜合大樓地下一樓,管理學院1",205.0,0.0,22.7344154,120.285178099999
寶盛長明街停車,"長明段282地號部分土地(長明街與長明街38巷口,近建國二路)",67.0,0.0,22.6379614128762,120.31237140035401
博愛停車場,福山段488、488-1、488-2、490、490-1地號（文川路、重平路口）,14.0,0.0,22.683880614291606,120.311742703387
齊津建國同盟停車場	,中都段四小段954、954-1、955地號共3筆土地(建國三路、同盟三路路口),48.0,0.0,22.6347200060698,120.286020354039
岩程國民市中停車場,後金段188地號（國民街38號對面）,11.0,0.0,22.625178179668602,120.29223789539499
高富停車場,大順段1071地號之部份面積〈大順二路55巷與九如旁〉。,42.0,0.0,22.640807570408892,120.326365722801
全淙新堀江仁義街停車場,過田子段614-2、614-4、614-5、614-6地號（仁義街242號北側）,19.0,0.0,22.620888633428397,120.300940090788
義大醫療財團法人附屬停車場,南角宿段193地號(30義大路1號),618.0,0.0,22.76522689,120.3634688
美術南三停車場,青海段568地號（美術南三路202號旁）,28.0,0.0,22.6533678441093,120.28679993082899
高雄市鳳山區公所附屬停車場,"12經武路30號地下一層至二層(竹仔腳段1-6,1-7,12地號)",369.0,0.0,22.6272759860821,120.363167727759
金府停車場,店鎮段一小段1358地號土地（金府、康莊路口）,26.0,0.0,22.568154765486888,120.354750235353
寶盛鹽埕街(3)停車場,鹽國段717、718地號（五福四路與鹽埕街口）,10.0,0.0,22.6239789352562,120.28295732241301
強笙明誠四路第二停車場,青海段179地號土地(美術東七街30號對面),54.0,0.0,22.661832466204896,120.29123381297501
右昌三甲福德祠停車場,右昌段五小段484地號之部份使用（廣昌街156號旁）,36.0,0.0,22.70876,120.28613
IKEA高雄店地下停車場,獅甲段419地號(9中華五路1201號(地下B1及B2)。,424.0,0.0,22.605652083051602,120.304752899788
海通停車場,磚子磘段2537、2544、2548地號（鳳屏二路180巷85號）,11.0,0.0,22.64027467,120.41383813
強笙正心街停車場,新庄段十三小段1540-1地號土地(正心街8號對面),14.0,0.0,22.663473455451797,120.303965501197
Times高雄民主橫路停車場,新興段四小段750、751、752、761、762地號（民主橫路76號南側）,14.0,0.0,22.63553,120.30155
國軍左營總醫院停車場,建華段38、41-1、42-1地號部分使用(軍校路553號),229.0,0.0,22.701459023490905,120.292322118801
詮營股份有限公司重和二站停車場,福山段447地號（文府路76號東側重和路口）,23.0,0.0,22.6870304178298,120.30983552439
采味九如青島停車場,大港段二小段1467地號（青島街9號旁）,42.0,0.0,22.64149491655389,120.310059912539
高雄大型車輛停車場,高雄市9朝陽段8、11、11-2、12、13、14、14-2、15、15-1、15-3、15-4、15-5、15-14、16、18、29、31、31-2、31-3、31-4、33、34、35、36、36-2、37、37-4、39、40、40-1、40-2、41、42、45、46、50、50-1、53、54、55、55-2、55-3、55-4、55-5、55-6地號等45筆土地。金福路100號（金褔路、翠亨南路口）,0.0,0.0,22.578670000000002,120.32757
岩程登山街停車場,鼓南段二小段908-2、928-3地號（麗雄與登山街口）,32.0,0.0,22.623260000000002,120.27426000000001
Times高雄河南二路2停車場,新興段四小段107地號（河南二路39號旁),27.0,0.0,22.636488974011503,120.298754391094
東八街停車場,青海段652地號（美術東八街11號旁）,26.0,0.0,22.65185,120.29088
聯通停車場,新庄段十三小段1517及1522地號共2筆土地（明華一路258號旁）,41.0,0.0,22.663054881406197,120.304760992694
義大醫療財團法人附屬機車停車場,南角宿段56地號(義大路21號B1、B2),0.0,952.0,22.7647301,120.3637493
鋼堡之星成功停車場,獅甲段419-9地號土地（成功二路、忠勤路口),166.0,0.0,22.604210000000002,120.30207
大順停車場,灣華段712地號部份土地（建工路640巷旁),80.0,0.0,22.65005,120.32176000000001
壽山街停車場,鼓南段二小段492、493地號部份土地（壽山街13-4號),29.0,0.0,22.6243478625224,120.270978443588
建武路停車場,建豐段551、551-1、558、558-2、554、554-1地號部份土地（建武路109號北側),53.0,0.0,22.6433133132053,120.329536540268
柏文健身工廠博愛廠停車場,博愛三路98、100、102、108號室外地面層,28.0,0.0,22.673214,120.30494299999901
美術停車場,青海段131地號（美術北三街、美術東二街口）,64.0,0.0,22.6629693745052,120.287633303736
龍成月租型停車場,五甲段455地號（龍成路與鎮南街口）,87.0,0.0,22.5962113529506,120.32895994596201
光洲企業大樓停車場,新庄段4小段1314地號(裕誠路394號地下B1~B4),208.0,0.0,22.665670600000002,120.306341999999
棨賢中山青年停車場		,過田子段616地號土地（青年二路上近中山二路口）,16.0,0.0,22.61995135058332,120.3015602331352
遠東百貨股份有限公司高雄分公司停車場,三多四路21號地下2至5樓,495.0,0.0,22.612841,120.303949
忠誠停車場,忠誠段30~35地號（忠誠街157號對面）,30.0,0.0,22.8012,120.29791000000002
老爺停車場,七老爺段1157、1158地號（五甲一路544號對面）,91.0,0.0,22.6113,120.34999
侑停民生五福停車場,大統段一小段242、243、250、251、254、256、257、258、259、278、279、314及315地號共13筆土地（五福一街36號旁）,39.0,0.0,22.627050297531,120.30868617996401
五福仁義停車場,文東段2地號（五福三路、仁義街口西南側）,18.0,0.0,22.62238,120.30009
前金立體停車場,高雄市前金區前金二街30號地下一層暨地上一〜二層、四〜八層及屋頂層（後金段39、39-2、39-3、39-4、41-6、41-7、41-8及41-9） ,648.0,204.0,22.627495675119,120.29325862799715
智能崑明街停車場,愛群段2763-3地號（林森三路83巷與一心二路167巷口西側）,17.0,0.0,22.61226,120.30686000000001
鼎中停車場,鼎盛段920-1地號（鼎中路文藻學院前方）,55.0,0.0,22.670364707185396,120.320710424746
停網修文街停車場,愛群段1291地號（中山二路52號旁）,4.0,0.0,22.608694552115804,120.306755568877
停網球庭路停車場,新興段三小段239地號(球庭路24號旁),4.0,0.0,22.6302806236632,120.306324303687
大旺停車場第一停車場,博孝段781、801地號（民生二路上近市中一路）,11.0,0.0,22.623785227652398,120.292627248289
全能網陽明天民停車場,陽明段四小段122地號土地（陽明路301巷旁）,165.0,0.0,22.644027522779798,120.342195714299
博愛明誠第二停車場,"""龍中段3,9-1地號共2筆土地（博愛路近明誠路）。""",54.0,0.0,22.660850391076302,120.302871811634
中正民族停車場,林德官段1336-9地號（中正民族路口）。,35.0,0.0,22.630991626709104,120.313628544845
齊津建國樂仁路停車場,五塊厝段2382地號土地(大順三路109巷26號西側)(建國一路195-1號空地),29.0,0.0,22.63269,120.32416
鳳山甲一停車場,高雄市鳳山區五甲一路261號室外地面層(道爺廍段下菜園小段84-10地號土地部分使),57.0,0.0,22.61667472,120.35396593
中欣停車場,獅甲段419-7地號部分使用（中華五路1111號後方空地）,194.0,107.0,22.60461,120.30315
停易適福德建民停車場,五塊厝段2062、2063、2064地號(建民路122號對面),7.0,0.0,22.630181280240894,120.327516153101
俥亭青海停車場,青海段64地號土地（美術東四路、美術北五街口）,120.0,0.0,22.6642409301231,120.290358461094
博愛明誠停車場,"""龍中段4,5,6,9-1地號共4筆土地（博愛路與明誠路口旁）。""",102.0,0.0,22.660820366844288,120.302952902335
日月亭宏平停車場,宏明段282地號（宏光街12號東側）近宏平路,38.0,0.0,22.57178,120.36557
日月亭學府停車場,高松段二小段2007地號（學府路55號西側）,96.0,0.0,22.56471,120.36148
俥亭英明停車場,林聖段1391地號（二聖一路42巷8弄口）,45.0,0.0,22.612473627685393,120.3252803677144
五福四路停車場,鹽國段728、729-2地號（五福四路202號旁）,12.0,0.0,22.624195385893003,120.28264542189501
棨賢重信華夏停車場,"福山段552地號土地（重信路483號旁）""",33.0,0.0,22.683965817652997,120.310313200077
強笙華夏南屏停車場,新夏段35、36、51、51-1、51-2地號共5筆土地（華夏路與華夏路305巷口）。,51.0,0.0,22.67116,120.29688999999999
竑穗興業股份有限公司中央停車場,愛群段2955地號土地(高雄市前鎮區中山二路260號地下三層〜四層),56.0,0.0,22.613338,120.30522789999901
綠力成功路停車場,成功段837、837-1、838、839及840地號共5筆土地（成功一路209巷口）,4.0,0.0,22.617480948043298,120.29629369005801
美明停車場,青海段32地號（美明路近馬卡路口）,34.0,0.0,22.665859706567,120.28826863327299
優停文自大中停車場,"""新福段三小段1、2、2-1、9及10地號共5筆土地（文自路與大中路口）。""",66.0,0.0,22.680039999999998,120.31128999999999
綠力中正錦田停車場,新興段一小段999地號土地（錦田路55號對面）,14.0,0.0,22.6314473266714,120.30927297577298
和信停車場,福山段401地號(文府路與重和路路口),0.0,64.0,22.687160000000002,120.31024
大眾建國路停車場,大港段七小段662-3、662-17〜662-22、662-31、662-76、664及664-3地號（建國二路296號旁）,5.0,26.0,22.6377154661318,120.30400342571
科學工藝博物館停車場,大港段3394、3647地號，九如一路720號（平等路、懷安街口）（大型車停車場位於九如一路、禮明路93巷口）,496.0,325.0,22.64080793,120.32110120000002
景新明華路停車場,龍北段15地號（明華路317號對面）,25.0,0.0,22.663028015138398,120.301111553851
長興材料工業股份有限公司停車場,順安段20地號（長興路22號南科宿舍號對面）,176.0,0.0,22.84478,120.24528
建國國小停車場,東金段358、359、360地號（自立二路11號）,60.0,0.0,22.63190055,120.29822343
Times高雄文濱停車場,澄東段75、75-1、76地號（文濱路59號斜對面）,90.0,0.0,22.6403626621734,120.348702226471
黔今延慶堯山停車場,大港段3540-1及3541-1地號共2筆土地（延慶街202號對面）。,102.0,0.0,22.6424,120.31607
Times高雄松江同盟停車場,大港段四小段2824地號土地（松江街426號對面）。,56.0,0.0,22.65137244698809,120.30453296474501
潔勝收費停車場,新庄段12小段1056-3地號（明華一路227號隔壁）,10.0,0.0,22.66272,120.30559
中都停車場,中都段三小段243、244地號土地部分使用(中都街52號旁),38.0,0.0,22.6399984166726,120.28674030395099
高雄市五甲國民住宅社區大公園地下室停車場,道爺廍段1091-32、1092-25、1093-66地號(國隆路6號地下一、二層),204.0,0.0,22.616454343613402,120.347374989605
壹誠停車場,龍華段八小段2375地號部分土地（裕誠路與篤敬路）,51.0,0.0,22.665496827873998,120.30235625238322
Times高雄十全一路停車場,大港段二小段1232地號(十全一路33號左側),21.0,0.0,22.644579999999998,120.31228
台糖中安停車場,"中厝段938-1地號（申請使用面積43,035.9㎡），942地號（申請使用面積3,607.8㎡）（中安路227-13號鈄對面）",0.0,0.0,22.58284781,120.33951553
Times高雄復橫南華停車場,新興段三小段1193地號土地（復橫一路283號西側）,118.0,0.0,22.6296479033392,120.303753329215
高雄市立社會教育館戶外汽車停車場,學府路115號地上一層部分空間,34.0,0.0,22.565322000000002,120.359475999999
信府高鐵停車場,福山段413地號(高鐵路388號旁),0.0,72.0,22.68696,120.30927
水利會停車場,新庄段十二小段1033地號；明誠二路332號(B2、B3),106.0,0.0,22.661298000000002,120.30823699999901
高雄市鼓山區鼓山國民小學前庭停車場,鼓南段二小段518地號(臨海二路50號),6.0,0.0,22.623515237535,120.27125408001301
高雄市棧貳庫東停車場,鼓南段一小段63、63-1、92(部分使用)地號共3筆土地(蓬萊路與臨海新路口),91.0,0.0,22.619493991645303,120.278262223241
三民家商停車場,新庄段7小段98、145、176、24地號(高雄市2裕誠路1102號),59.0,0.0,22.6658902,120.30125173
侑停五福英雄停車場,成功段60-1、62、63、64地號(五福三路115號旁),34.0,0.0,22.6205957,120.2940883
景新東四北三停車場,青海段167、168地號（美術東四路與美術北三路口）,84.0,0.0,22.66228,120.29016000000001
俥亭市中停車場,中都段四小段952、953、953-2、953-6、953-7、953-8及953-9地號共7筆土地(市中一路383號左側近建國三路),81.0,0.0,22.6350353200473,120.28711557237
高醫停車場,建生段184地號（十全一路100號）B1~B4,426.0,200.0,22.6455868674582,120.30888916292801
活力自由立信停車場,新庄段十三小段1274、1276及1277地號共3筆土地（自由二路、立信路口）,20.0,0.0,22.6661,120.30828000000001
嘟嘟房高雄長明站停車場,大港段六小段494-6、494-13、494-14、494-15、494-16地號（復興一路與長明街口西北側）,66.0,0.0,22.6384,120.30798999999999
智能大豐大昌停車場,獅頭段2331地號土地(大豐二路、正豐街口),77.0,0.0,22.6457071045136,120.33125808951999
春森停車場,文福段26地號(文教路123號),72.0,0.0,22.63429,120.34603999999999
侑停裕國東五停車場,龍中段234、235地號及龍華段七小段1060、1061地號共4筆土地(美術東五路/裕國路口西北側空地),71.0,0.0,22.659021489301505,120.293218542327
重上孟子停車場,新光段238地號部分面積(孟子路/立道路口東南側),24.0,0.0,22.677010908284302,120.30510168443001
高雄市 立鼓山高級中學停車場,內惟段八小段383地號(明德路2號),31.0,0.0,22.6515039033588,120.274756426124
民權民生停車場,新興段一小段2128地號(民權一路與民生一路東南側空地),21.0,0.0,22.627088819666,120.31102020904301
新光三越百貨股份有限公司高雄三多分公司停車場,愛群段2937地號(三多三路213號。【地下三層48輛（障1）、四層50輛（障1）、五層52輛（障1）】,150.0,0.0,22.614523281258496,120.306631903041
新光三越百貨股份有限公司高雄左營分公司停車場,高雄市左營區高鐵路123號(地下1樓、地下3樓至地下5樓)菜公段3小段770-33…等8筆。,435.0,531.0,22.68833942,120.31002275
新光三越百貨股份有限公司高雄左營分公司二館停車場,"菜公段3小段750-1,,,等35筆地號,高鐵路115號。(5樓、頂樓及地下1樓）",229.0,341.0,22.68829934815917,120.30991308243709
竑穗鹽埕停車場,興橋段265、265-1地號(新樂街與安石街口西南側空地),30.0,0.0,22.6267524289492,120.27938303363999
竑穗前鎮停車場,光華段一小段1661地號(和平二路與溫江街口西南側空地),44.0,0.0,22.611683410084485,120.322221619354
國軍高雄總醫院岡山分院附設停車場,介壽段98、99、101、116、116-1、116-2、117、118地號(25大義二路1號),100.0,150.0,22.789579999999997,120.28758
侑停至聖龍勝停車場,龍中段71、79、80、81地號(至聖路與龍勝路口東北側空地) ,108.0,0.0,22.6603536314465,120.2961066214
高雄榮民總醫院汽、機車停車場,高雄市左營區大中一路386號室外地面層暨地下三層〜地上五層及頂樓層（榮總醫院內）(菜公段一小段619-1、619-2、619-3、619-4..等),1021.0,700.0,22.67772719,120.32272307
角宿休閒停車場,南角宿段56地號(高雄市義大路65號),55.0,0.0,22.767229999999998,120.36204
金獅湖北區停車場,鼎金段950、951、951-1、953地號等17筆、4鼎金一巷25號(鼎金後路36巷與鼎金一巷),129.0,0.0,22.6676633,120.32652039999901
停網明仁路停車場,明仁段11、12等2筆土地(民族一路503巷南側空地),25.0,0.0,22.66141,120.3149
寶盛鑫華榮路停車場,龍華段一小段782、783等2筆地號(華榮路/華丰街124巷口西側空地 ),21.0,0.0,22.669539999999998,120.2937
文化中心東側停車場,林德官二小段3347、3347-1、3347-2(高雄市5五福一路67號),141.0,0.0,22.6267388783674,120.318918617784
高雄市鼓山區內惟國民小學停車場,內惟段三小段415地號等12筆(高雄市3內惟路73號地上一層),19.0,0.0,22.656803617473397,120.276424752475
寶盛建國輔仁路停車場,"正言段223,226,226-1,227,227-1地號土地(建國一路78-1號西側)",23.0,0.0,22.6316878983712,120.33325360016701
東南文化大樓地下室停車場,後金段17、19、21至25地號（成功一路436號地下第3層）,17.0,0.0,22.62912,120.292084
寶成自由路停車場,高雄市新庄段十三小段1483-2、1483-3等2筆地號(自由二路321號),26.0,0.0,22.6634497076658,120.308205395265
草衙道地下停車場,高雄市前鎮區中安路1-1號地下一層及室外地面層,967.0,1197.0,22.581158610806998,120.328862891987
竑穗仁義停車場,過田子段1188地號(三多四路/仁義街口東北側空地),13.0,0.0,22.613799532001096,120.30373615995501
竑穗仁徳停車場,"意誠段39-3地號(三多四路與仁德街口,東北側空地 )",19.0,0.0,22.6135542816249,120.303062238749
停網龍勝富農停車場,龍中段128-4、128-5、128-10地號(裕誠路近富農路300號右側),50.0,0.0,22.65681772302729,120.29513999999901
詮營股份有限公司高雄青海停車場,青海段489地號(3青海路277號東側空地),45.0,0.0,22.6511,120.28567
齊津凱旋民族停車場	,高雄市4凱歌段105、105-1地號(凱旋一路221號西側空地),18.0,0.0,22.638464287034502,120.31537399731
棨賢中山機車停車場,愛群段2963地號土地(一心二路、中山二路258巷口),0.0,10.0,22.61326,120.30578999999999
棨賢滇池機車停車場,愛群段2962地號土地(中山二路258巷近與滇池街),0.0,16.0,22.61318,120.30567
Times高雄鳳山立志體育停車場,鳳山段大老衙小段237、238、212-1、212-23、212-39、212-40、237-3、236地號共8筆土地(立志街近體育路口),71.0,0.0,22.623,120.35625
好厝邊停車場,新庄子段72、72-2、72-3、72-5、72-6地號等5筆土地部份使用(鳳山市新生街52號西側),41.0,0.0,22.630321816618896,120.355399576757
Times高雄華新成功停車場,苓西段75、76、76-1、77、77-1、87、88、89、91、92、93、94、95、96、97、98、99、100、101、102、103、104、106地號共23筆土地(成功路近華新街52號,76.0,0.0,22.614131559016105,120.29720312418101
霖雅尚信中正停車場,林德官段1156-1、1156-2地號(中正二路、尚信街46號旁),12.0,0.0,22.63107,120.31713
鳳清鳳山青年停車場,大貝湖段124-1、127、127-2、127-3、127-4、127-5、128、 128-1、128-2、128-6地號共10筆土地(青年路二段281號旁),49.0,0.0,22.639115670473892,120.350776269452
寶盛華夏停車場,新光段56地號土地(大中二路、華夏路1062號北側空地),26.0,0.0,22.682790372668496,120.307638933351
艾適達一心路停車場,愛群段2965地號（一心二路上近中山二路）,21.0,0.0,22.613160774682196,120.306049902161
統固力東三裕國停車場,龍中段191地號(美術東三路5號右側近裕國路),122.0,0.0,22.65685,120.29345
棨賢中正瑞源停車場,前金段74-1地號（中正瑞源路口）,37.0,0.0,22.62961,120.29772
車好庭停車場,鳳青段266、239、240地號等3筆土地(近12文龍東路757巷),26.0,0.0,22.64301,120.35328999999999
寰宇九如永年停車場,大港段3511-5及3514地號共2筆土地(九如一路近永年街口),48.0,0.0,22.6402934280194,120.317127813491
蔦松博愛立信停車場	,新庄段十三小段1407及1422地號共2筆土地(博愛二路426及456號間),43.0,0.0,22.6672294808164,120.303507615967
高雄民生停車場,後金段188-2地號(7361巷43號旁),18.0,0.0,22.62473,120.29234
金生停車場,正憲段72-1、73地號共2筆土地(大順三路305巷7弄近樂仁路口),30.0,0.0,22.636778809169396,120.325304572108
漢神百貨青年停車場,成功段745-1、760、760-1地號土地（永平路、青年路口）,74.0,0.0,22.617240838807202,120.29421709347099
太平洋崇光百貨股份有限公司高雄分公司停車場,愛群段2934、2937-1地號(三多三路217號地下三層〜地下五層),226.0,0.0,22.613813067876002,120.30672899405899
MLD台鋁停車場,獅甲段419-1、419-6、420-2、420-4地號(高雄市9忠勤路8號),242.0,275.0,22.60345,120.30379
潛錩旗山老街停車場,旗山段299-6地號(中正路、和平街),28.0,0.0,22.8892008184677,120.480673630315
大程國際停車場,港墘段9-21、9-23地號翠亨南路、豐田街口),235.0,0.0,22.57047,120.33487
寶盛民生路停車場,博孝段91及96地號共2筆土地（民生二路、成功一路口）,8.0,0.0,22.62452,120.29422
翔磬停車場,店鎮段一小段1212、1213、1276及1277地號共4筆土地(金府路、康莊路123號旁),40.0,0.0,22.5684527493288,120.353784498498
寶盛自強路停車場,(自強一路158號旁)東金段1463-1、1463(部分使用)、1463-4 (部分使用)地號共3筆土地,38.0,0.0,22.633700779669038,120.29223000000002
義大天悅飯店停車場,姑婆寮段26-310地號(31三和里義大八街100號地下2~4層）,212.0,0.0,22.73081,120.40122
高雄市棧貳庫西停車場,鼓南段一小段92-4、92-5、92-6、118-14、118-17、118-18地號共6筆土地〈臨海新路上〉,110.0,196.0,22.61984,120.27623
竑穗海南停車場,新後港西段161、162、163地號部分使用(霞海南二街、後港巷),117.0,0.0,22.68094,120.32382
Times高雄中正民族停車場,林德官段1336、1336-8地號（中正二路246號西側）,27.0,0.0,22.630879999999998,120.31414
高雄大勇路駁二停車場,大東段749、749-5、749-6、750、750-1、750-2地號（大勇路底駁二）,86.0,0.0,22.619698421161505,120.281472862959
春陽1號(李金柱),獅頭段2313地號(大昌二路、春陽167號旁),40.0,0.0,22.646863444821,120.332462933687
春陽2號(李金柱),獅頭段2210地號(春陽街160號旁),48.0,0.0,22.6469648260287,120.332475562627
大同醫院停車場,前金段93地號土地(中華三路68號地面層及地下二層),62.0,0.0,22.627522318352824,120.29734860172108
Times高雄鳳山中山澄清停車場,新庄子段243-34地號（中山西路與澄清路東南側）。,85.0,0.0,22.62794,120.34478
文天停車場,福山段281地號土地(文天路205號旁),24.0,0.0,22.6878,120.31498
馨蕙馨醫院停車場,新庄段八小段27地號（至聖路288號）,17.0,0.0,22.6597064141637,120.30455671822399
統固力文學重和停車場,福山段455地號(2文學路171號旁),37.0,0.0,22.68593,120.31065
五權臨時停車場,林德官一小段1695地號(和平一路87號地下2樓),36.0,0.0,22.6212520239009,120.321226578528
明仁新莊停車場,新華段66地號土地(新莊一路301號旁),18.0,0.0,22.67161,120.30058999999999
Times高雄中山橫路停車場,新與段四小段1653、1654、1654-3地號共3筆土地,34.0,0.0,22.6317142087428,120.300590739426
新榮(三)停車場,菜公段六小段1127地號（榮耀、榮總路口）,28.0,275.0,22.67946986,120.32173272
長庚醫療財團高雄長庚紀念醫院員工機車停車場,長庚段574地號大埤路123號(地上一、二層),0.0,1175.0,22.65070036,120.35667896
長庚醫療財團法人高雄長庚紀念醫院訪客機車停車場,長庚段574（大埤路123號後面）,0.0,402.0,22.64962216,120.35519828
長庚紀念醫院高雄分院訪客兒童大室內停車場,長庚段574（大埤路125號）,341.0,0.0,22.650073982691307,120.354325862537
長庚醫療財團高雄長庚紀念醫院復健大樓訪客室內停車場,長庚段574大埤路127號(室內地下一、二層),282.0,0.0,22.65032412,120.35304807
長庚醫療財團法人高雄長庚紀念醫院訪客第一停車場,"長庚段581-3,581-17,587-37,618,618-1及正修段10地號共6筆土地（大埤路123號前面）",245.0,513.0,22.65027612,120.35492144
壽山動物園停車場,鼓中段四小段657地號(高雄市鼓山區萬壽路350號),244.0,27.0,22.63399951,120.28056102
八德路停車場,新興段一小段138、138-1及138-2地號共3筆土地（民族二路、八德一路西南側）,60.0,0.0,22.63492,120.31267
鴻海高雄園區軟體研發大樓地下停車場,獅甲段518-4、518-7、518-8、518-9、518-10等地號(高雄市前鎮北里成功二路25號地下三層),57.0,0.0,22.6055,120.299919999999
坴和成功長生停車場,博孝段624地號(長生街68號對面),57.0,0.0,22.622073126984898,120.295117028636
武復中山苓雅停車場,過田子段638、639地號 (5中山二路473號旁),24.0,0.0,22.61847612,120.30255395
蓮潭國際會館停車場,新庄段6小段441、464、464-1、1229、1230等10筆地號(崇德路801號),105.0,0.0,22.67722414,120.29944235
武復苓雅路停車場,過田子段634地號（苓雅二路489號旁）,15.0,0.0,22.6183848193606,120.30217099186501
前金停車場,前金段55-1、55-3至5、55-8、55-10至11及55-22共8筆地號（新盛一街、中正四路口）,24.0,0.0,22.62982426,120.29682176
國立中山大學收費停車場,鼓南段四小段1地號（中山大學內）,45.0,0.0,22.624324373543896,120.264818592989
國立中山大學西子灣停車場,鼓南段四小段426地號（中山大學門口）,44.0,0.0,22.618580236502705,120.266219793586
國立中山大學國研大樓停車場,鼓南段四小段0001地號(蓮海路70號D4 教學大樓（室外）,26.0,0.0,22.627230331568303,120.267248199292
寶盛大智路停車場,高雄市大成段730、751地號部分使用(大智路58-2號旁、忠孝國小對面),10.0,0.0,22.62172,120.28581000000001
停易適一心復興停車場,愛群段729、730地號共2筆土地（復興三路與一心二路口;復興三路114號旁）,8.0,0.0,22.61077601752889,120.310582163806
國軍高雄總醫院附設民眾診療服務處收費停車場,衛武段948、949地號（中正、澄清路口）,128.0,164.0,22.6256706421242,120.34222139466002
新長越富民路停車場,(新庄段十三小段1357地號)高雄市2富民路435號地下一樓,58.0,100.0,22.668426977978893,120.305143105732
高雄長庚紀念醫院醫學大樓訪客室外停車場,"長庚574,581-6（大埤路123號）",332.0,0.0,22.64901,120.35623000000001
台灣聯通大順停車場,大順段522地號（大順街41號旁）,40.0,0.0,22.64045314,120.32712973
華欣停車場,龍華段一小段718號、719號(華欣路81號旁 ),46.0,0.0,22.6697404473501,120.29517672753201
Times高雄博愛大順停車場,龍華段九小段970、971、972地號(博愛一路495巷口 ),28.0,0.0,22.655173132610397,120.303181749659
Times高雄民生二路停車場,前金段391、391-10地號(自強二路105-2號南側),37.0,0.0,22.62559207,120.29536508
大自由停車場,仁新段912地號(水管路三段仁安三巷對面),54.0,0.0,22.70447,120.36429
Times高雄中山一路停車場,新興段四小段1959、1960、1961、1962、1963、1964、1965、1966、1967地號共9筆土地（中山一路、自立橫路口西北側）,48.0,0.0,22.630216627488604,120.301224278234
實衛中華新光停車場,獅甲段二小段554地號之部份使用面積（中華、林森路口）,93.0,0.0,22.60966,120.30281000000001
亞歌明星停車場,東金段745-3地號(明星街155號西側空地近自立二路),16.0,0.0,22.632437763625003,120.29609973829099
家樂福鼎山店停車場(大順二路近順昌街),灣中段73、88、89等筆三筆地號(家福股份有限公司鼎山分公司)鼎金中街42巷近,48.0,0.0,22.652537477944,120.31917969058088
夢時代購物中心附屬停車場,興邦段120號(高雄市前鎮區中華五路789號地下B1~B5及地上3F~10F),3316.0,1967.0,22.595674114381428,120.30862102254696
沛立停車場,鳳甲段46地號(鳳山區甲智路145號右側),87.0,0.0,22.5985,120.34427
乙發有限公司自由停車場,林聖段3、147、148、148-1及148-2地號 共5筆土地(凱旋三路893號左方),84.0,0.0,22.61942,120.32553999999999
Times高雄鼎新路停車場,金獅段107、108、110地號(鼎新路37號旁),58.0,0.0,22.66277,120.32303
統強興中仁智停車場,過田子段1104-1地號土地(興中一路306號右側;近仁智街),15.0,0.0,22.61602,120.30527
台灣聯通高雄鼎義停車場,"灣和段89、92、93地號,三民區鼎山街261號後方空地",7.0,0.0,22.65888,120.32222
七賢復興停車場,新興段二小段766-2地號(七賢一路302號旁),52.0,0.0,22.634539070633107,120.30819247525551
Times高雄長生文武停車場　,民生段656、656-2地號(文武二街與長生街口),28.0,0.0,22.622861000562555,120.29729910370419
樂群停車場,光華段1331地號土地(育群街14號西側),45.0,0.0,22.60746638045695,120.32184085809023
嘟嘟房高雄文武站停車場,文東段563、564、565、577-5、579、580、581、581-1、581-2、581-3、581-4、581-5、581-6、582、583共15筆地號土地(文武三街196號),24.0,0.0,22.621007038686965,120.2983417995823
義大醫療財團法人附屬義大大昌醫院停車場,灣內段0466-0000地號(三民區大昌一路305、309、311號B1F(部分使用)、B2F、B3F),161.0,0.0,22.65755,120.31965
七賢復興第二停車場,新興段二小段766-1地號土地(七賢一路302號左側),13.0,0.0,22.63471,120.30816999999999
日月亭美術東二停車場,青海段170地號(美術東七街、美術東二路口),99.0,0.0,22.66173,120.28884
Times高雄文府重愛停車場,福山段203地號(文府路235號旁),35.0,0.0,22.68915,120.31182
小港醫院停車場,宏明段435、436、437、437-1、438地號(小港區山明路482號室外地面層),63.0,0.0,22.56792615138249,120.36300252115632
高雄市鳳山運動園區羽球館停車場,道爺廍段1035地號部分土地(高雄市鳳山區平等路99號),99.0,0.0,22.622865488578054,120.35232579730983
高雄市殯葬管理處第一殯儀館停車場,鼎金段141-1地號等53筆(三民區本館路600巷20號室外空間),370.0,0.0,22.66039600893136,120.33288443036213
重惠停車場,福山段501地號(重惠街26巷上),35.0,0.0,22.68264,120.31063
統強同盟興安停車場,三塊厝段四小段2325-1及2325-2地號共2筆土地(哈爾濱街399巷旁近同盟二路),17.0,0.0,22.65082,120.29938
宏舜HH停車場 ,鼓山區中華一路862號地下一樓部份使用(近美術東五路),16.0,0.0,22.658364065844555,120.2920475762237
Times高雄哈爾濱宣化停車場,三塊厝段四小段2501及2501-1地號共2筆土地(哈爾濱街、宣化街口),21.0,0.0,22.648668173984042,120.2998272232345
谷杉長明建國停車場,長明段513、514地號共2筆土地 (長明街3號旁),24.0,0.0,22.63781,120.31318
宏昌停車場,德昌段115地號(楠梓區宏昌街118號右側),32.0,0.0,22.71784,120.29341000000001
高雄市殯葬管理處第二區停車場,鼎儀段1、2、3地號(高雄市三民區本館路600巷20號),69.0,0.0,22.660668173697143,120.33503572657946
福東停車場,藍田西段309地號(近高雄大學路與大學十街西北側),62.0,0.0,22.72588,120.28497
Times高雄復興新田停車場,"大統段二小328,329,330,370,371,372地號共6筆土地(復興二路133號北側)",20.0,0.0,22.62369,120.30878
九儒文自重立停車場,新福段三小段17、18、19地號(重立路582東側),52.0,0.0,22.67964,120.31051000000001
立中停車場,新福段七小段32、32-1地號(立中路72號東側 ),38.0,0.0,22.673366214385446,120.3027276831192
乾元興停車場,三民區灣勝段594地號(大順二路530號右側),65.0,0.0,22.65079419776829,120.32313935265915
欣駿停車場,大公段521、522、643、649、649-2地號共5筆土地(中山北路108號南側),58.0,0.0,22.7959,120.29915
大統百貨企業股份有限公司大立分公司停車場,"文東段542~550,554-1地號共10筆(五福三路57號地下B3~B6層)",166.0,185.0,22.621920000000006,120.29806
鼎豪停車場,灣和段91、91-1地號(鼎勇街與鼎義街口西北側),29.0,0.0,22.65836,120.32243999999999
寶盛美術東六街停車場,青海段254、254-1及256地號共3筆土地(美術東六街81-87號對面),59.0,0.0,22.658345351451448,120.29157630453187
Times高雄大同瑞源停車場,"前金段91-12,91-47,91-99地號(大同一路254號東側)",26.0,0.0,22.62825,120.29835
和盛自由路停車場,大港段四小段1991地號(察哈爾一街22號東側),35.0,158.0,22.64733781992977,120.30859463558204
停網中山修文停車場,"獅甲段117,122,123,124,125,126,127,130,131地號共9筆(中山二路73號南側)",21.0,0.0,22.60842,120.30633
停網文林修文停車場,"獅甲段141,143,146地號(修文街40號東側)",11.0,0.0,22.60841,120.30555
水京棧國際酒店股份有限公司停車場,"龍北段22地號,高雄市鼓山區明華路366號(地下室B1、B2、B3、B4)(篤敬路與明華路口近博愛二路)",111.0,0.0,22.66276,120.30216000000001
航空教育展示館停車場,軍校段0771、0899、0904、0906、0908、0910、0911-2、0914、0919地號(致遠路55號),100.0,192.0,22.79559,120.27037
隆賢建設有限公司停車場	,青海段492地號 (青海路195、197、199、201、203、205、207、209號),21.0,30.0,22.65115,120.28623999999999
吉利停車場,新博段30地號土地(新榮街近南屏路),12.0,0.0,22.66813,120.30016
高鐵路停車場,"福山段402,403,404,410,410-1~410-10地號共14筆土地(文府路與重和路口北側)文府路93-123號",64.0,144.0,22.6873,120.31001
日月亭同協停車場,中華段一小段208地號(同協路163號東側近同盟二路),77.0,0.0,22.64859542788036,120.29382724848278
六合停車場,"新興段一小段918,918-13地號(六合一路與錦田路西南側)",71.0,0.0,22.6322,120.31
文化停車場,文英段1299地號(文化路16號東側 ),21.0,0.0,22.63426,120.3543
全能網保泰南華停車場,五甲段1736及1737地號共2筆土地(保泰路與南華路口西南側),110.0,0.0,22.604074857017515,120.33681577182767
灣復停車場,灣復段351、352、353、357、358、359、489共7筆地號土地(和順街與宗元街41號對面),90.0,0.0,22.653170000000006,120.31647
漢神巨蛋新莊停車場,"新華段32,33地號(至真路與文直路口東南側)",128.0,0.0,22.672357725550214,120.30047682209009
翔赫機車停車場,"菜公段六小段1114-1,1115地號(榮總街34巷與榮總路141巷20弄口北側)",0.0,109.0,22.68091,120.32132
全淙中山橫路停車場,"新興段四小段1583,1588,1589地號共3筆土地(中山橫路10號西側)",34.0,0.0,22.632066679220237,120.30121693827095
振興停車場,前鎮區	獅甲段三小段648、649、650地號(修文街10號對面),13.0,0.0,22.60840823196615,120.30451417912049
明華明倫停車場,"龍華段八小段2319,2320-1,2322,2321地號(明華路與明倫路口東北側)",109.0,0.0,22.66355,120.29827
親水公園停車場,瑞南段一小段1012地號部分使用(翠亨北路與翠村街口南側),35.0,0.0,22.593501247124767,120.31525023544305
華泰停車場,龍華一小段687地號部分使用(華泰路281號北側近華榮路 ),22.0,0.0,22.670724867777967,120.29404141565169
華慶停車場,"龍華二小段40,41,50-1地號(華慶街106號東側、華榮路與慶豐街口)",62.0,0.0,22.667698226072808,120.29512762968623
新長越文武一街停車場,"前金段132-13,132-14,132-15地號(中華三路147巷9號對面)",11.0,0.0,22.62978009717363,120.29513731779093
Times高雄鳳山文鳳文平停車場,大貝湖段48地號部分使用(文鳳路32號東側)(文鳳路近文平街 )(文鳳路近文平街 ),45.0,0.0,22.642333416379838,120.35020821891978
Times高雄安吉富國停車場,(富民路近安吉街)新庄段12小段1095地號(安吉街90號東側),24.0,0.0,22.66161,120.30583
寶鑫新德路停車場,龍華段三小段294地號(新德路與龍德新路口)(大順一路432巷62號旁空地),36.0,0.0,22.65475,120.30475
岩程大順建國停車場,正明段146、148-1、149、150、151、152、152-1地號共7筆土地(大順三路180號對面),84.0,0.0,22.63404,120.32578000000001
晶英國際行館停車場,"獅甲段250-3,253,261-4地號(中山二路199號地下二層~地下五層)",93.0,0.0,22.61055,120.30545
停網四維仁義停車場,過田子段688-1地號土地(仁義街65號對面),7.0,0.0,22.617095336912858,120.30251072883608
寶盛文川路停車場,福山段326地號部分使用(文川路196-1號旁),49.0,0.0,22.684724140365034,120.31283469444271
高富覺民停車場,大順段1069地號(九如一路548巷弄6號西側),14.0,0.0,22.641392573507837,120.32579294477465
強笙河西一路停車場,青海段455及458地號共2筆土地(河西一路1411號北側),26.0,0.0,22.65002,120.28532
Times高雄中正四路停車場,前金段122-3地號(中正四路174號西側),17.0,0.0,22.62911,120.29445
中華路停車場,前金段114、114-1、114-7、114-8、114-17、114-18、114-22及114-23 地號共8筆土地(中華三路157號南側),23.0,0.0,22.628760940255212,120.2958027719765
新長越新堀江停車場,"前金段501-3,501-15地號(中山一路與新田路口西北側)",11.0,0.0,22.621586518854986,120.30124364418032
棨賢大同自強停車場,"後金段51-7,53地號共2筆土地(自強三路與大同二路口西北側)",31.0,0.0,22.62698619464241,120.29442401062894
坴和河西南二停車場,(河西一路與龍水二路口西側)青海段418、418-1、418-2、419、420、421、422、423及423-1地號共9筆土地,70.0,0.0,22.649394063455357,120.2846219828034
Times高雄文府重忠停車場,福山段176地號(文府路與重忠路口南側),53.0,0.0,22.690475355436195,120.31437416931158
中山汽車停車場	,愛群段3017地號(滇池街與文橫三路9巷口西側),42.0,8.0,22.61272,120.30548
Times高雄青海東四路停車場,青海段675地號(青海路與美術東四路西南側),20.0,0.0,22.65117,120.28962
前朕四維福建停車場,林德官段一小段2482地號土地部分使用(福建街93號對面),21.0,0.0,22.62061,120.31626999999999
錦田復橫停車場,"新興段一小段1638(部分使用面積154平方公尺),1639(部分使用面積459平方公尺)共2筆地號(錦田路34號對面)",22.0,0.0,22.62907801242041,120.30991799273569
好市多大順店停車場,龍東段14、15地號(高雄市鼓山區大順一路111號室外地面層、地上一層及地下一層),554.0,0.0,22.6566236,120.30707000000008
寶盛文恩路停車場,菜公段一小段291地號部分使用(文恩路124巷3號旁),47.0,0.0,22.6859,120.31973
坴和河北繼光停車場,三塊厝段一小段1086-2地號(河北二路82號西側),7.0,0.0,22.6369,120.29875
青年文化停車場,文英段1659-5地號(青年路二段148號南側),18.0,0.0,22.635467226721982,120.35049459714355
寶盛文信路停車場,龍華段二小段1572地號(文信路320號東側 ),42.0,0.0,22.664697283969154,120.29666414411976
寶嘉重立路停車場,新光段70地號(文川路56號對面),120.0,0.0,22.68136658089476,120.30825603633491
東一裕國停車場,龍中段224地號(美術東一路129號對面),7.0,0.0,22.655781239243346,120.2929886410766
文學重和第二停車場,福山段362地號(文學路與重和路口東側),28.0,0.0,22.68625315254461,120.31099149056992
龍勝明誠停車場,龍中段134地號(龍勝路與至聖路口西側),115.0,0.0,22.659531592282697,120.29550368085596
北三馬卡停車場,"青海段126,127,128地號(美術北三路260號對面)",113.0,0.0,22.66341,120.28701000000001
寶發曹公路停車場,"新庄子段57-11,57-24地號(曹公路48號北側)",0.0,72.0,22.63045,120.35755
瑞竹(一)停車場,竹子腳段152-59、152-64、152-113地號(瑞順街127號南側),45.0,0.0,22.62846,120.36827
大順龍文停車場,龍中段32、33、34地號(龍文街27號北側),74.0,0.0,22.65663,120.3008
峇淂興華林森停車場,新興段二小段1721、1722、1723、1724等4筆地號(興華路49號對面),8.0,0.0,22.63228,120.30442
瑞竹(二)停車場,"竹子腳段160-5,160-18,166-1,167-1地號(瑞竹路173巷7號對面)",40.0,0.0,22.62799,120.36863999999998
義華停車場,獅頭段一小段1438地號(義華路與義忠街口東南側 ),39.0,0.0,22.64213,120.34281999999999
Times高雄光復中華月租停車場,"民生段193,198,199地號(光復三街5號對面)",7.0,0.0,22.62499,120.297
Times高雄民生中華計時停車場,"民生段176,180-1,180-2,202,203地號(民生二路與光復三街4巷口南側)",20.0,0.0,22.625347372701267,120.29681655299908
Times高雄大寮鳳屏一路停車場,"翁公園段4029,4029-2,4029-3地號(鳳屏一路348號西側)",62.0,0.0,22.63454,120.39035
停壹美明東四停車場,青海段70、71地號共2筆土地(美明路19號東側),35.0,0.0,22.66530772440546,120.29100145767212
阿榮鵝肉停車場	,龍北段16地號(明華路319號對面),38.0,0.0,22.66294,120.30129
龍勝神農停車場,"(龍勝路148號對面)龍中段129-3(部分使用面積：1559平方公尺),129-4(部分使用面積：1441平方公尺)地號（合計使用面積：3000平方公尺）。",103.0,0.0,22.65725,120.2957
旗勝停車場,正文段402地號(至誠66號東側),118.0,0.0,22.63205,120.34097
停壹美術館路停車場,"青海段 599,600,600-1,584,584-1,584-2地號共筆土地(美術館路123號西側)",64.0,0.0,22.65473,120.28674
澄清中山西停車場	,新庄子段243-344地號(澄清路與尚勇路東側),65.0,0.0,22.62721655439535,120.3445746355819
褒忠義民廟停車場,"獅頭段2651-4,2653-1地號(褒忠街與壽昌路口西南側)",32.0,0.0,22.64189653095717,120.33367915487473
寶盛大中二路停車場,福民段392及393地號共2筆土地(大中二路430號東側),37.0,0.0,22.68088,120.31126
寶盛大中自由停車場,"新民段5,5-2,10,10-1地號(大中二路297號西側)",53.0,0.0,22.67922,120.31308999999999
停壹天祥河堤停車場	,"新福段11小段1,2-1地號共2筆土地(天祥二路62巷內)",71.0,0.0,22.66690892294209,120.31338973743436
美術東八停車場,"(美術東八街120號對面)青海段625,626,627(部分使用面積：227.41平方公尺)地號，（合計使用面積：741.43平方公尺）""",28.0,0.0,22.65414,120.29109
寶盛新榮街停車場,新博段33地號(新榮街35號南側),9.0,0.0,22.66805089190969,120.3002669728412
佐鄞合江歸綏第二停車場,"大港段四小段1979,1980地號(合江街與歸綏街口東南側)",33.0,0.0,22.64899517360058,120.30809408130608
開盛正言路停車場		,五塊厝段1901、1901-1地號(正言路62號對面),90.0,0.0,22.63166,120.33028999999999
竑穗嫩江停車場,三塊厝段1256地號(十全二路與嫩江街口西南側),25.0,0.0,22.64556,120.29843999999999
智育停車場,二甲段25地號(甲智路18號左側),56.0,0.0,22.59616,120.34136000000001
竑穗十全停車場,三塊厝段四小段2626地號(十全二路與嫩江街口西北側),28.0,0.0,22.645982768457493,120.29831411830857
北平東區停車場	,博愛一路335號南側,10.0,0.0,22.649873046193605,120.30302450953808
中油高雄成功光復停車場,博孝段236地號(成功一路384號旁),26.0,0.0,22.62342,120.29455
Times高雄大裕大豐停車場,"大裕段一小段200,202地號(大裕路225號對面)",92.0,0.0,22.65814288125797,120.32907208444068
北平西區停車場,大港段四小段3357地號(北平二街5巷14號北側),11.0,0.0,22.649908375447282,120.30276786952196
力揚左營高鐵站停車場,站前北路與環山路南側,182.0,0.0,22.688219295221106,120.30511632307925
Times高雄中正自立停車場,新興段四小段1877地號(中正四路62號東側),17.0,0.0,22.63078820505156,120.29963072883606
八卦漁村停車場,龍中段31-1地號(龍文街71號南側),45.0,0.0,22.65692,120.30078999999999
壹欣三商善和停車場,"保泰段15,16,16-1地號(三商街與善和街口西南側)",25.0,0.0,22.60171,120.33403999999999
寶盛裕國街停車場,"龍中段229-1,230地號(裕國街199號南側)",13.0,0.0,22.65816254354941,120.29311256720224
隆豐停車場,興樹段749地號(三民路211號對面),20.0,0.0,22.7551721033818,120.3058448932361
鳳學路停車場,鳳翔段165地號(鳳學路30號對面),25.0,0.0,22.624000000000002,120.38011999999999
寶盛正忠路停車場,"義民段919,920地號共2筆土地(建興路21號西側)",50.0,0.0,22.64187,120.3305
東門停車場,"新庄段七小段382,383-1,636地號共3筆土地部分使用(東門路376號對面)",47.0,0.0,22.66874,120.29695
豐聖停車場,六合段814、815、828、829、834、836、850、851地號共8筆土地(鎮潭路與拷潭路口東南側),0.0,0.0,22.58411,120.38157
Times高雄鳳山五甲五福停車場,"五甲段1001-134,1376,1377,1377-7,1377-30地號共5筆土地(鳳山區五福二路3號對面無名巷內)",61.0,0.0,22.58924,120.32358
日月亭美明停車場,青海段31地號(美明路118號西側),45.0,0.0,22.665920199559732,120.28842244907378
小港醫院第四停車場,"宏明段433-3,433-4地號(華仁街與宏茂街口東北側)",84.0,212.0,22.567731876793985,120.36506232016323
九儒加仁德惠停車場,和平段五小段30地號土地(加仁路與德惠路口東南側),84.0,0.0,22.72777088608857,120.30325728625941
九儒美術龍水停車場,青海段321-1地號(美術館立體停車場對面),25.0,0.0,22.65471,120.28368
實全中華路停車場,"獅甲段二小段551地號之部份使用面積（中華、林森路口）""",162.0,0.0,22.61061,120.30282
榮帝科技察哈爾二街停車場,三塊厝段四小段1614地號(察哈爾二街20號對面),13.0,0.0,22.64752,120.30195
九儒明倫路停車場,龍華段八小段2351地號(明倫路與明倫路502巷口西北側),23.0,0.0,22.66231,120.29794
智能文衡文安停車場	,"大貝湖段152,153地號(文衡路與文安南街口西南側)",57.0,0.0,22.64138,120.34723000000001
Times高雄瑞源育才停車場,東金段807地號(瑞源路與育才街口西南側),55.0,0.0,22.63189532080065,120.29690459878998
捷西停車場,"山子頂段3284,3285,3286地號(鳳林四路6號後方)",48.0,0.0,22.61478,120.38943
Times高雄文天重義停車場,福山段333地號(文天路近重義路東側),52.0,0.0,22.68538,120.31251999999999
榮帝科技五甲一路停車場,道爺廍段259、260、263、263-1、285、285-1、285-2、285-3地號共8筆(五甲一路72號北側),32.0,0.0,22.62148727314283,120.35721947670231
九儒鼓南停車場,鼓南段一小段475-12地號(濱海一路25號東側),24.0,0.0,22.619880854787432,120.2726166801749
寶盛重吉路停車場,"新吉段20,22地號(文智路與重吉路口東側)",47.0,0.0,22.67581,120.29757
九儒文龍文藝停車場,"鳳青段281,285地號(文龍東路780號西側)",51.0,0.0,22.64317,120.35252
頂豐停車場,獅頭段2335地號(大昌二路250號東側),51.0,0.0,22.64538,120.33237
岡五停車場,"岡山段519-14,519-32,519-39,519-91,519-92,519-95地號土地(維新東路與岡燕路31巷口西南側)",67.0,0.0,22.793326144509788,120.29701218650824
國立高雄師範大學停車場,"五權段487,487-4,489,489-1,490,490-1,490-2,491地號(苓雅區和平一路116號)",111.0,0.0,22.6257,120.32056999999999
喜羊羊停車場,文武段25地號土地(文學路二段與文學八街東南側),12.0,0.0,22.70083,120.35661
寶川文川路停車場,新光段67及69地號共2筆土地(重立路782巷48號東側),20.0,0.0,22.68166,120.30833999999999
優停建國北斗停車場,"鹽北段201,201-1,202,202-1〜14,202-23〜32、204及204-1〜204-2地號共30筆土地(建國四路與北斗街口西南側)",164.0,0.0,22.63192,120.28355
東昇明誠停車場,青海段174地號土地(明誠四路136號西側),48.0,0.0,22.66144,120.2896
一陽停車場,"光華段一小段1974,1974-1地號共2筆土地(天山路與景德路東南側)",72.0,0.0,22.61142134198413,120.31556755092619
勁侶五甲社區停車場,新甲段1245-273、1245-279地號、道爺廍段1093-59、1093-63地號共4筆土地(南京路與南京路292巷),197.0,0.0,22.614312187811517,120.34460172023772
金石停車場,"新興段四小段1111-1,1111-2,1111-3地號共3筆土地(明星街32號對面)",18.0,0.0,22.63375,120.3001
Times高雄建國一路停車場,五塊厝段1515地號土地(建國一路99號東側),14.0,0.0,22.63075,120.33495
弎多明誠東四停車場,青海段176地號土地(明誠四路136號東側),44.0,0.0,22.66154,120.28988999999999
強笙華夏重和停車場,福山段365地號土地(華夏路1331號西側),24.0,0.0,22.686120000000006,120.31161999999999
寶愛重愛路停車場,福山段211地號土地(重愛路422號東側),56.0,0.0,22.68858,120.3123
榮帝科技文濱路停車場,澄東段87地號土地(褒揚東街39號右側),58.0,0.0,22.63936,120.34862
君和萬全街停車場,大港段四小段1989地號土地(萬全街6號旁),40.0,0.0,22.64803,120.30882
陽端北端街停車場,"鹽北段144,146-1地號共2筆土地(端北街78號旁)",3.0,0.0,22.63276,120.28353
仁倵五福和平停車場,五權段47地號土地(五福一路與和平一路186巷口) ,160.0,0.0,22.62881722951007,120.31916128801114
弍聖本和大裕停車場,灣昌段337地號土地(本和街17號對面),73.0,0.0,22.65375,120.32808999999999
趣停車場,前金段58地號(前金區六合二路147號）商辦大樓,68.0,0.0,22.63074552262012,120.29629482223686
大樹市場停車場 ,"土角厝段929,931(部分使用),932,933地號共4筆土地(大樹區中興南路104號旁)",23.0,0.0,22.68900992597168,120.433008506174
噗噗車棧德威停車場	,新庄段十二小段1077地號土地(德威街36號對面),29.0,0.0,22.662216135631226,120.30703969814316
停壹裕興路停車場,龍華段一小段521地號土地(華榮路616巷與裕興路129巷口北側),61.0,0.0,22.67198060131196,120.29297291534431
助安168高雄中正停車場,林德官段1082、1083、1084地號(國泰人壽保險(股)公司中正第二商辦大樓地下三層〜地下四層:中正二路30號),36.0,0.0,22.63039,120.32033
寶盛孟子路停車場,新民段154地號土地(文強路178號北側),49.0,0.0,22.6758,120.30712
智崴集團停車場	,智崴科技商辦大樓室外地面層(前鎮區復興四路9號)獅甲段518-4、518-7、518-8、518-9及518-10地號,57.0,0.0,22.60497,120.29965
Times高雄鳳山文鳳文濱停車場,大貝湖段93地號土地(文鳳路85號西側),92.0,0.0,22.64241,120.34853000000001
高興昌青海停車場,"青海段76-1地號及同區龍水段一小段1157,1158,1159地號(中華一路與美術北三路西北側)共4筆土地",307.0,0.0,22.663287514265146,120.29190983566956
弍聖文水重立停車場,新光段78地號土地(文水路與重立路口南側),42.0,0.0,22.68167,120.30728
名光停車場,澄合段300地號土地（名光街36號南側）。,26.0,0.0,22.68592,120.35035
寶盛十全路停車場,高雄市三民區十全一路109號地下一層,73.0,0.0,22.64472,120.30994
仁倵大同市中停車場,"後金段253,256,257,268,269,269-1,269-2,269-3,270地號共9筆土地（大同二路108對面）。",29.0,0.0,22.625770000000006,120.29191999999999
瑞鳳停車場,"瑞興段16,17,18地號共3筆土地（瑞興街359號南側)",292.0,174.0,22.62966,120.36706000000001
清翔停車場,清楠段269-1地號土地,105.0,0.0,22.73769,120.33961000000001
宏偉文理街停車場,左營區重信路549號室外地面層(福山段555地號),8.0,0.0,22.68483,120.30935
Times高雄榮德榮光停車場,菜公段六小段1063地號土地(榮德街257號北側)。,37.0,0.0,22.68519,120.32068999999998
寶東美術東四路停車場,青海段210地號土地(美術東四路430號北側),128.0,0.0,22.66032,120.29073000000001
Times優衣庫高雄九如路店停車場,高雄市三民區九如ㄧ路600號室外地面層(大順段788地號、大港段3393-17地號),35.0,0.0,22.63967,120.32472
八達立寶中停車場,"建安段751,951地號共2筆土地(建德路210巷與建德路210巷16弄口東側)",48.0,0.0,22.64381,120.32323000000001
全速通九如教仁停車場,"大順段875,875-2,875-3,876,876-1,876-2,878,878-1,878-2地號共9筆土地(教仁路2號對面)",101.0,0.0,22.63891,120.325681
捷安停車場,新民段196地號土地(崇德路與文自路口西北側),24.0,0.0,22.67395,120.30776999999999
翠安停車場,"翠屏段四小段2,6地號共2筆土地(翠屏路與加仁路口西側)",67.0,0.0,22.72723,120.29867
嘟嘟房高雄富野站停車場,"鹽中段65,66地號共2筆土地(富野路26號對面)",11.0,0.0,22.62747,120.28513000000001
連成停車場,"崎漏段625,625-8,625-9地號共3筆土地(濱海路一段282號南側)",120.0,0.0,22.87053,120.19246000000001
崗杉德勝街停車場,"新都段161,162,319地號共3筆土地(德勝街近德旺街口南側)",114.0,0.0,22.64421,120.29038999999999
俥亭熱河三街停車場,三塊厝段三小段3693地號土地(中華二路與熱河三街西北側),22.0,0.0,22.64499,120.29133
,澄正段16地號土地(正義路與正義路311巷口東北側),177.0,0.0,22.63477,120.34278
弘平順停車場,灣內段183地號土地(大順二路766號南側),49.0,0.0,22.65452,120.3181
仁愛第一停車場,"新興段三小段174～177,185,186,189～193地號共11筆土地(仁愛一街21號對面)",21.0,0.0,22.62828635568711,120.30717588702032
停網瑞源大同停車場,"前金段77-7,77-8,77-9,77-10地號共4筆土地(瑞源路與瑞源路74巷西北側)",8.0,0.0,22.62957548693504,120.29798452123451
永銨水源路停車場,澄正段4地號土地(澄清路與水源路口西南側),235.0,0.0,22.63484,120.34388999999999
崗杉永平苓安停車場,苓雅寮段800、801、802、802-1、803、804、805、806、812、813及820地號共11筆土地,40.0,0.0,22.613645807122804,120.29290385704668
宜舍岡山福利站停車場,"陽明段397,401地號土地(柳橋西路與樹人路西側)",30.0,0.0,22.79045,120.28885
博客停車場燦坤華榮場,"鼓山區華榮路345號室內地下一層〜地下二層(龍華段二小段50,51,52-3地號 共3筆土地 ",45.0,0.0,22.66753161778032,120.29521257287273
寶盛凱國路停車場,"凱歌段880,881,882,890,890-1,891,891-1,892地號共8筆土地(凱歌路35號南側 ) ",81.0,0.0,22.636484264560252,120.31540352256206
寶盛裕誠路停車場	,龍中段122地號土地(裕誠路2008號對面),149.0,0.0,22.65727,120.29457
壹欣篤敬文信停車場,"龍華段八小段2412,2413地號共2筆土地(篤敬路31號對面)",6.0,0.0,22.66418,120.30256000000001
弎多十全中華停車場,新都段113地號土地(十全三路3號西側),43.0,0.0,22.64593,120.29111999999999
寶盛藍昌路停車場,"藍田中段220,223地號共2筆土地(藍昌路379號南側)",100.0,0.0,22.725671870728487,120.29080691952775
自由興業停車場,"清楠段423,425,427地號共3筆土地(常德路287號南側)",29.0,0.0,22.7363,120.33653000000001
寶盛凱歌路停車場,"""凱歌段767,767-1,771,771-1,788,788-1,789,789-1,790地號共9筆土地""(凱歌路4號對面)",126.0,0.0,22.63473,120.31786000000001
民享停車場,三塊厝段1250地號土地(嫩江街148號對面),33.0,0.0,22.64522,120.29836999999999
前朕宏平金府停車場,"""店鎮段一小段1044,1045,1046,1128,1129,1130地號共6筆土地(永順街111號對面)""",81.0,0.0,22.5693,120.35435
俥亭重平路停車場,"福山段481,481-1地號共2筆土地(文川路與重平路口北側)",38.0,0.0,22.68419,120.31166999999999
蓬萊路停車場,"""鼓山區蓬萊路1-6,1-18,2-5,2-6,6-1,6-2,6-10,6-11,18-1,18-2,18-3,18-5號共12戶建築物地面層(鼓山區鼓南段一小段46,46-",149.0,0.0,22.617770339395914,120.28134480524069
Times高雄錦田路第3停車場,"新興段一小段1647,1648地號共2筆土地(錦田路34號南側)",61.0,0.0,22.62888,120.31025
家福成功店停車場,高雄市前鎮區中華五路1111號地下一層〜二層(獅甲段419-3地號土地),325.0,0.0,22.60492615505657,120.30498739098041
Times高雄林森六合停車場,"新興區	新興段二小段1139,1139-2地號共2筆土地(林森一路與南華橫一路西南側)	",34.0,0.0,22.63342,120.30463999999999
群基翠華路停車場,內惟段11小段3地號土地(翠華路近明誠四路西側),91.0,0.0,22.66221,120.28398999999999
Times高雄復興一路停車場,新興段二小段766地號土地(復興一路111號南側),15.0,0.0,22.63478266629965,120.30821767735823
坴和環河中華停車場,青海段687地號土地(環河街10號東側),41.0,0.0,22.6503,120.29135
小港醫院第五停車場,宏明段431地號土地(漢志街28號對面)	,52.0,0.0,22.56811,120.36518999999998
竑穗龍水停車場,青海段404地號土地(馬卡道路與龍水二路口東北側),459.0,0.0,22.65072,120.28216
日月亭果貿二停車場,果貿段215-7地號土地(海青工商後門啟文路對面),200.0,0.0,22.67322,120.28443999999999
新長越珠江街停車場,光華段1小段1860地號土地(珠江街與一心一路306巷口東北側),111.0,0.0,22.608626837531794,120.31844256912836
俥亭海洋音樂中心停車場,"高雄市苓雅區海邊路15號室外地面層(苓雅區苓西段303-9,305,329,330,331,332-5,332-7,335地號共8筆土地",171.0,0.0,22.61387867674337,120.29130653183607
寶盛楠梓量販店停車場,高雄市楠梓區土庫一路60號地上三層〜四層(清豐段189地號土地）。,275.0,0.0,22.73617,120.33108
Times高雄至聖路停車場,龍中段21-2地號土地(至聖路與博愛二路口西北側),160.0,0.0,22.65989,120.30147
日月亭美術南三路停車場	,青海段656-1地號土地(美術南三路與美術東四路東南側),60.0,0.0,22.65284,120.29053
停壹德旺十全停車場,新都段88地號土地(德旺街與十全三路口西北側),23.0,0.0,22.64676,120.28968
旺旺停車場,援中段一小段220及221地號共2筆土地(大學26街1303號東側),34.0,0.0,22.72669,120.27696
哈囉文府停車場,福山段204地號土地(文府路與重愛路),0.0,70.0,22.68897,120.31175
寶盛文天路停車場,福山段332地號土地(重和路與文天路口),30.0,0.0,22.68512,120.31218999999999
寶盛英明路停車場,林聖段一小段1982地號土地(英明路與英義街口西北側),35.0,0.0,22.619,120.32359
武強街停車場,東金段1472地號土地(武強街19號對面),20.0,0.0,22.63325,120.29308999999999
停網大學一街停車場,藍田東段183地號土地(大學一街18號北側),58.0,0.0,22.72756,120.29473
停網藍田路停車場,藍田中段30地號土地(大學十六街與大學十街330巷北側),235.0,0.0,22.727970000000006,120.28603000000001
永固永靖停車場	,林德官段一小段3117地號土地(學源街與永靖街口東北側),78.0,0.0,22.62036,120.31551
竑穗國光停車場,"佛公段752,753地號共2筆土地(國光路與佛西街西南側)",24.0,0.0,22.5695,120.32248
Times高雄褒揚街停車場,獅頭段一小段1602地號土地(褒揚街與義華路159巷口西北側),45.0,0.0,22.6415,120.34031
坴和東五東六停車場,青海段251地號土地(美術東五路與美術東六街口西南側),80.0,0.0,22.6587,120.2912
嘟嘟房中山新光站停車場,"獅甲段253-2,258地號共2筆土地(中山二路199號北側)",33.0,0.0,22.61092,120.30531
現代人停車場,"成功段65,66地號共2筆土地(英雄路路上)",16.0,0.0,22.62011,120.29368999999998
華安停車場,"福山段141,142地號共2筆土地(重仁路68號西北側)",24.0,0.0,22.68846,120.31553999999998
重安停車場,福山段148地號土地(重仁路108號東南側),16.0,0.0,22.68877,120.31517
文天(一)停車場,"福山段139,143地號共2筆土地()",52.0,0.0,22.68858,120.31581000000001
旗一停車場,大德段1015地號土地(中山南街1巷3號西側),6.0,0.0,22.88407,120.48232
寶盛瑞日街停車場,"臨北段195、209、211、211-1、272、272-1、273、274、274-2地號共9筆土地(瑞日街與瑞賢街31巷口東北側)""",44.0,0.0,22.59734,120.32201
明昇安泰醫院停車場,"小港區學府路111號室外地面層(高松段二小段2006地號土地）。""",18.0,0.0,22.5653,120.36156000000001
弍聖東四青海第二停車場,青海段662地號土地(美術東四路與青海路62巷口西北側),49.0,0.0,22.65217,120.28958
壹欣至聖南屏停車場	,龍中段20地號土地(至聖路與南屏路口東北側),49.0,0.0,22.65986121660357,120.30034485230988
停壹文自孟子停車場,葫蘆段1地號土地(文自路與文自路360巷口南側),10.0,0.0,22.67563,120.30912
文誠停車場,新民段78地號土地(文強路與博愛三路376巷口西北側),28.0,0.0,22.67734,120.3077
和春技術學院停車場,大寮區至學路288號室外地面層(翁公園段2021地號土地) ,282.0,0.0,22.60613413452333,120.42730141661345
錦德停車場,大港埔段529地號土地(錦田路與河南路口西南側),10.0,0.0,22.636590488329066,120.31065999999998
日月亭華鳳停車場,華鳳段149-2地號土地(北賢街88號對面),20.0,0.0,22.64246,120.37012
鳳山醫院訪客停車場	,"竹子腳段1-46,1-53,1-204,1-205地號共4筆土地(鳳山醫院西北側大門對面)。",40.0,0.0,22.62878,120.36287
仁愛第二停車場,新興段三小段454~457地號共4筆土地(忠孝一路200巷31號對面)。,6.0,0.0,22.62827,120.30682
裕林停車場,新庄段七小段634地號土地(東門路107巷34號北側),5.0,0.0,22.66878,120.29768
鳳山自由停車場,"(自由路37號西側)道爺廍段136-6,136-47,136-68,136-364,136-366,142-3,142-13,142-49地號共8筆土地",50.0,0.0,22.625879854599198,120.35465779096762
全淙中正南華停車場,"新興段二小段1760,1761,1762,1763,1764,1766地號共6筆土地(南華路83巷31號東側)",23.0,0.0,22.63164,120.30351999999999
衛武營國家藝術文化中心地下停車場,高雄市鳳山區三多一路1號地下一層〜二層,716.0,0.0,22.624307820210205,120.34095689637208
保舍甲停車場,清福段905地號土地(保舍甲路31號西側),34.0,0.0,22.74409,120.34883
彤儒停車場	,新興段二小段1078地號土地(七賢一路471號西側),23.0,0.0,22.63425,120.30363999999999
家安停車場,"新庄段二小段519-2,520地號共2筆土地(明華一路與富民路口西南側)",30.0,0.0,22.66282,120.30487
菜源停車場,菜公段五小段848地號土地(子華段150號北側),26.0,0.0,22.67524401368917,120.31037717179301
高雄捷運R22青埔站轉乘停車場,橋頭區經武路20號室外地面層(橋頭區仕隆段一小段1510-6、1512-1、1513-1地號共3筆土地),97.0,209.0,22.743659076844,120.31787069243931
Times高雄美術東四路【月租】停車場,青海段81地號土地(美術東四路401號南側),75.0,0.0,22.66345,120.29015
高雄捷運R23橋頭火車站轉乘停車場,高雄市橋頭區站前街12之1號室外地面層(橋子頭段1121-7、1123-1、1124-49、1127-7地號共4筆土地),62.0,223.0,22.759778721274557,120.31138243379814
茄萣中正路停車場,"白砂段74,75,236地號共3筆土地(中正三路42號東側)",39.0,0.0,22.91362,120.18595
嘟嘟房汾陽黃興站停車場,陽明段二小段75地號土地(黃興路與汾陽路口東南側),101.0,0.0,22.64957,120.3381
金馬賓館ALIEN Art Centre停車場,"鼓中段五小段325-4,325-13地號共2筆土地(鼓山一路119巷內東側)",85.0,0.0,22.62857,120.27905
佐鄞新下街停車場,新庄段十三小段1358地號土地(新下街與太原街80巷口西南側),41.0,0.0,22.66849,120.30475
寶盛文忠路停車場,"龍華段二小段1574～1579,1581,1582-1地號共8筆土地(華榮路119號南側)",26.0,0.0,22.66495,120.29677
君和合江街停車場,"大港段四小段1988,1989-1地號共2筆土地(合江街與萬全街口東北側)",40.0,0.0,22.64811,120.30797
棨賢新庄重清停車場,新庄段一小段605地號、新庄段十一小段1476地號共2筆土地(新庄仔路395號西側),25.0,0.0,22.66864,120.31058
新長越自強一路停車場,"東金段1471,1471-2地號共2筆土地(自強一路與武強街口東北側)",49.0,0.0,22.63313,120.29271999999999
谷杉昌裕大裕停車場,灣昌段221及224地號共2筆土地(昌裕街190巷與昌裕街190巷16弄口西側),30.0,0.0,22.65331,120.32886
谷杉青島遼寧停車場,大港段二小段1419地號土地(青島街與遼寧一街口東北側),27.0,0.0,22.64228,120.3103
台灣聯通高雄同新停車場,新興段三小段869地號土地(新興路與忠孝一路口西北側),8.0,0.0,22.62822,120.30565
統強文守孟子停車場,"新福段十小段66,66-1,66-2,67地號共4筆土地(文守路165號北側)",69.0,0.0,22.67201,120.31578
榮帝科技大義街停車場,"大成段572,572-3,572-4地號共3筆土地(大義街96號南側)",11.0,0.0,22.62154,120.2864
坴和龍勝明誠第二停車場,"龍中段135,136地號共2筆土地(龍勝路與至聖路口西北側)",84.0,0.0,22.66005,120.29548999999999
弍聖中山哨船停車場	,鼓南段四小段166地號土地(哨船街與哨船街80巷口西南側),21.0,0.0,22.62318,120.26916999999999
寶盛店仔頂路停車場,"左南段2235-2,2235-3,2236-2,2236-3,2237-1,2261,2262地號共7筆土地(店仔頂路67號北側)",30.0,0.0,22.684290210174122,120.29059229638516
俥亭左洲停車場,"左洲段3,9地號共2筆土地(洲仔東街與環潭路426巷口北側)",65.0,0.0,22.68633,120.30134
福滿庭停車場,藍田西段115地號土地(大學二十街38號西側空地),35.0,0.0,22.72921,120.28282
Times高雄澄清路停車場,"澄東段40,41地號共2筆土地(澄清路638號北側)",22.0,0.0,22.64471,120.34676
榮帝科技長明街停車場,"大港六小段494-6,494-13,494-14,494-15,494-16地號共5筆土地(長明街150號旁)",57.0,0.0,22.63833,120.30826
左東站前停車場	左營區,站前路與站前北路口西北側,76.0,76.0,22.68946484778238,120.30747099140171
弎多文學華夏停車場,"福山段17,18,21地號共3筆土地(文學路與文學路655巷口東南側)",55.0,0.0,22.68958,120.3189
好市多中華店停車場 ,前鎮區中華五路656號地下二層、地上三層及屋頂層,509.0,0.0,22.603880426938648,120.3060386944428
福天漢泰街停車場,高雄市苓雅區福東段1009、1011-1～1011-3、1011-6～1011-8地號共7筆土地(武慶三路43巷旁),19.0,0.0,22.62027,120.33075
谷杉察哈爾天津停車場,三塊厝段四小段1599地號土地(察哈爾二街58號東側),16.0,0.0,22.64786,120.30148
佐鄞宣化重慶停車場,三塊厝段四小段1595地號土地(宣化街1號西側),15.0,0.0,22.64822,120.30198
中油右沖A區停車場,油舍段209地號土地使用(後昌路546巷內西側),78.0,0.0,22.7103,120.30091999999999
百冠停車場,保成段2-3地號土地(紅毛港路近南華一路東北側),58.0,0.0,22.59494,120.34593000000001
Times高雄光興街停車場,新庄段十二小段925-1地號土地(光興街177巷45號東側),11.0,0.0,22.66302,120.31018
皇雄停車場,中都段四小段137地號土地(中庸街151號對面),77.0,0.0,22.63801,120.28863
俥亭北壽山停車場,青泉街97之1號旁地面層(鼓山區壽山段38-76地號土地),97.0,50.0,22.65154488703753,120.27317203665586
統強至聖南屏第二停車場,龍中段21地號土地(至聖路與南屏路口東北側),145.0,0.0,22.65998,120.30072
旗津海岸公園中區停車場,旗汕段467-1地號土地(旗津三路與旗津三路62巷交叉口),0.0,0.0,22.59691772483381,120.2787524196434
統強澄德路停車場,澄德段61地號土地(澄德路39號北側),101.0,0.0,22.6842,120.34481000000001
Times高雄復興長明停車場	,長明段100、101、104地號共3筆土地部分使用(復興一路與長明街東北側),64.0,0.0,22.63839,120.30901999999999
通安停車場,高昌段377地號土地部分使用(通昌街與興泰街東南側),25.0,0.0,22.71819,120.28353
文府重義停車場,福山段384地號土地部分使用(文府路與重義路口東側),44.0,0.0,22.68783,120.31114
統強重惠文川停車場,福山段529及530地號共2筆土地((重惠街與文川路167巷口西南側),66.0,0.0,22.68295,120.30933
鳳杉昌盛南屏停車場,龍華段八小段2311地號土地(昌盛路與南屏路口西南側),18.0,0.0,22.66371,120.2996
林園區行政中心停車場,高雄市林園區王公路1、3、5號地下一層(林園區王公廟段56-13地號),14.0,0.0,22.51282616374452,120.394402581804
時代公有停車場,經貿段一小段12地號土地(時代大道近中山路南側),64.0,42.0,22.5974,120.31171
忠言修明停車場,修明街69號地下一層〜二層((新庄段八小段53、54地號共2筆土地),22.0,0.0,22.658520000000006,120.30386999999999
易齊停車場	,翠屏段578、582、583、586地號共4筆土地(大新路102之2號東側),60.0,0.0,22.72504,120.35186000000002
大晶鑫德昌停車場,德昌段82、82-1地號共2筆土地(後昌新路817-2對面),35.0,0.0,22.72099,120.29213999999999
楠枳九如大昌停車場,義民段1197、1197-1、1198、1198-2、1199、1200-3、1200-4地號共7筆土地(九如一路與大昌二路西北側),70.0,0.0,22.638692451247238,120.33184379608896
鳳杉東四北五停車場,青海段75-1地號土地(美術東四路與美術北五街東北側),208.0,0.0,22.664459891138893,120.2906786198066
信宏停車場,磚子磘段2529-4地號土地(大寮區江山路上),10.0,0.0,22.63827,120.40986000000001
翔赫天祥停車場,天祥一路102號地面層(三民區覆鼎金段覆鼎金小段1210地號土地),14.0,0.0,22.667585004963488,120.32035871764583
德新停車場,永仁段131地號土地(德新街38號西側),16.0,0.0,22.685221964748386,120.33224637971013
Times高雄文自路停車場,新福段二小段6地號土地(文自路640巷25號西側),24.0,0.0,22.680718762605924,120.31256854232788
Times高雄育英街停車場,獅頭段2152、2152-1、2153地號共3筆土地(皓東路與育英街西北側),26.0,0.0,22.648484355830412,120.332643201593
哈囉駁二停車場	,大成段764、764-1、765、765-1地號共4筆土地(大義街87號南側),15.0,0.0,22.62098,120.28571000000001
江山大東停車場	,鳳西段7地號土地部分使用(大東二路49號旁),37.0,0.0,22.6199745659061,120.36001854232792
寶夏華夏路停車場,新庄段六小段574、575地號共2筆土地(文智路250號東側),21.0,0.0,22.67618,120.3003
寶仁仁山街停車場,仁武區澄清段60-4地號土地(仁山二街9號西側),24.0,0.0,22.67661,120.35491
聚星停車場,大仁南路136巷23號地面層(岡山區大紅段475、476地號共2筆土地),17.0,0.0,22.78868,120.30188999999999
五都停車場高鐵左營三站,左東段5-2、5-6地號共2筆土地部分使用(站前路與站前北路西側空地),0.0,62.0,22.68884,120.3074
利銓宏光停車場,宏明段304地號土地(宏光街與宏智街口西北側),30.0,0.0,22.56977,120.36305
翔赫林森停車場,五甲段1200-2地號土地(林森路17號西側),20.0,0.0,22.5916,120.33001000000002
翔赫裕誠停車場,新庄段十三小段1461地號土地(裕誠路447號西側),21.0,0.0,22.66546,120.3055
旗山老街火車站第一觀光停車場,旗山區大德段1164、1165地號共2筆土地(中山南街2之5號北側),74.0,0.0,22.88369,120.48062
黃李停車場,左營區福山段475地號土地(重平路17號北側),18.0,0.0,22.6845,120.31086
佳位停車場	,前金區文東段1196、1197、1198、1199、1202地號共5筆土地(新田路292號西側),0.0,22.0,22.62001,120.2965
福順停車場,福民段304地號土地(重信路146巷8號西側),16.0,0.0,22.6821,120.31499
佐鄞青年仁義停車場,過田子段619、619-1~619-3、621、621-2及621-3地號共7筆土地(青年二路與仁義街口東北側),24.0,0.0,22.61958,120.30158999999999
華順停車場,青海段565、565-1、565-2、565-3地號共4筆土地(美術南一街45號東側),20.0,0.0,22.65396,120.28646
仰旺停車場,福山段192、193地號共2筆土地(文府路321號西南側),51.0,0.0,22.69009,120.31277
捷安鼎中停車場,覆鼎金段覆鼎金小段1535、1535-1地號共2筆土地(鼎中路222號南側),42.0,0.0,22.66319,120.31943999999999
九如瀋陽停車場,大港段二小段1516地號土地(九如二路與瀋陽街口東南側),14.0,0.0,22.6407,120.30735
Times高雄十全德旺月租停車場,新都段76、81地號共2筆土地(十全路與德旺街口東北側),56.0,0.0,22.64667,120.29007
全淙瑞明停車場	,東金段714地號土地(瑞源路與明星街口西南側),5.0,0.0,22.63263,120.29682
悅誠廣場停車場,民族一路427號地下二層及地上三層(聯興路350巷內),385.0,0.0,22.656968783325702,120.31460673578998
瀚威停車場,港墘段207-2、208-2地號共2筆土地(漢威街與港後路口東南側),29.0,0.0,22.56772698097563,120.3341678166172
Times高雄廈莊五街停車場,廈莊段743地號土地(廈莊五街69號東北側),30.0,0.0,22.5836,120.3595
統固力武廟國治停車場,五塊厝段2253地號土地(武廟路與國治路東南側),48.0,0.0,22.630842670188304,120.3258041693116
鳳杉安東十全停車場	,中華段一小段230、230-1、230-2、232地號共4筆土地(遼北街與安東街東南側),26.0,0.0,22.64722,120.29591
舍抄樓蘭七賢河西停停車場,鹽府段12-1、12-2、13、13-1、13-2地號共5筆土地(興華路與河西路西北側),21.0,0.0,22.6301,120.28568
嘟嘟房汾陽黃興2站停車場	,陽明段二小段81地號土地(黃興路與汾陽路口西南側),41.0,0.0,22.64937,120.3375
齊津和平中東停車場,林德官段1140-1地號土地部分使用(尚義街與190巷5號東側),8.0,0.0,22.63303,120.31667
齊津美都徳裕停車場,三民區新都段61地號土地(同盟三路與美都路口西南南側),17.0,0.0,22.64923,120.28778999999999
寶盛福安路停車場,福河段1995地號土地(福安路與河北路53巷東北側),21.0,0.0,22.62599,120.33103
齊津同盟美都停車場,新都段59地號土地(同盟三路642號東側),24.0,0.0,22.64941,120.28721000000002
蔡姐裕誠辛亥停車場,新庄段九小段1420地號土地(辛亥路203巷3號西側),31.0,0.0,22.66519,120.30949
竑穗三塊厝停車場,中華段二小段670-2、670-5、659-4、659-5、659地號共5筆土地(九如二路637巷29弄2號南側),19.0,0.0,22.6399,120.29461
大樹國小停車場,埔尾段1065-1、1065-3、1074、1075、1076、1077、1077-1、1078、1078-1、1079、1079-1地號共11筆土地(大樹國小後門對面),15.0,0.0,22.68935864159717,120.43383341104506
源集停車場,赤山段527地號土地(八德路與文勇街口東北側),36.0,0.0,22.63847,120.3588
前朕文川重愛停車場,福山段343-1地號土地(文川路409號東北側),17.0,0.0,22.686120000000006,120.31392
高雄左營新康停車場,新康段25-1、29-1地號共2筆土地(新庄仔路145巷19號對面),25.0,0.0,22.67273,120.30247
寶盛文橫路(3)停車場,大統段一小段1055地號土地(文橫一路與玉竹一街西南側),19.0,0.0,22.62505,120.30268999999998
寶盛中華路停車場,前金段424地號土地(中華三路與民生二路口東北側),59.0,0.0,22.62641,120.29746999999999
Times高雄大學二十街停車場,藍田西段143地號土地(大學二十街91號東側),58.0,0.0,22.72892,120.28318
Times高雄鼎中街停車場,覆鼎金段覆鼎金一小段646-2地號土地(鼎中路762巷165號對面),14.0,0.0,22.67438,120.32417
盛展漢口街停車場,三塊厝段四小段3048地號土地(漢口街與漢口街201巷西北側),35.0,0.0,22.64647,120.29728
有盛文恩停車場,福民段7、7-1、7-2、7-3地號共4筆土地(文恩路與華夏路1716巷西北側),14.0,0.0,22.68747,120.31938000000001
崗杉保靖富民停車場,新庄段十三小段1507地號土地(保靖街55號西側),26.0,0.0,22.66358,120.30558
寶盛自強路(2)停車場,東金段1464、1464-2、1466、1467、1468、1469、1470地號(自強一路156-2號北側)共7筆土地,208.0,0.0,22.63349,120.29253999999999
寶盛河北路停車場,五塊厝段2508地號土地(河北路與武廟路251巷西北側),131.0,0.0,22.63185,120.32136000000001
台糖明正停車場,明正段2地號土地部分使用(第86期市地重劃區內15米計畫道路RD15-3上)中安路上,0.0,0.0,22.582424656571263,120.33360399272921
佐鄞憲政路停車場,五塊厝段四小段2699、2701、2702地號共3筆土地(憲政路與憲法路口西北側),64.0,0.0,22.63663,120.32234
齊津樂仁憲政停車場,五塊厝段四小段2713地號土地(樂仁路23巷與憲政路203巷口東北側),81.0,0.0,22.63591,120.32191999999999
谷杉重慶敦化停車場,三塊厝段四小段1652地號土地(重慶街與敦化街口西南側),51.0,0.0,22.64684,120.30203
蓮池潭兒童公園停車場,環潭路460號地面層(左營區左東段269-1、283、284及1052-2共4筆地號土地),46.0,13.0,22.68864,120.30103999999999
成風本安停車場,陽明段二小段26、26-1地號共2筆土地(黃興路與黃興路437巷口西北側),20.0,0.0,22.651,120.33686000000002
齊津建國同盟第二停車場,中都段四小段952-1、953-3、953-4、953-5、954-2、954-3、954-4、954-5、955-1地號共9筆土地(建國三路與河濱街東北北側),140.0,0.0,22.63511,120.28643999999998
國雲一心停車場,愛群段2815地號土地部分使用(一心二路192號東側空地),15.0,0.0,22.61293,120.30748
全聯左營文康停車場,文康路85號室外(新福段七小段20地號土地部分使用),16.0,0.0,22.67316,120.30335
中廈七賢停車場,新興段四小段601、602地號共2筆土地(七賢二路與南台路東北側),23.0,0.0,22.63457,120.29918
寶忠忠言路停車場,新庄段八小段68地號土地(忠言路172號東側),16.0,0.0,22.65855615572164,120.30428061628254
Times高雄三多一路停車場,武聖段1120、1121、1122、1123地號共4筆土地(三多一路與武智街30巷口西南側),69.0,0.0,22.623269903296084,120.33484999999996
統強熱河美都停車場,新都段307、309地號共2筆土地(美都路與熱河三街口東北側),82.0,0.0,22.64518,120.28886999999999
Times 高雄岡山公園西路三段停車場,大仁段3053地號土地(公園西路三段177號對面),88.0,0.0,22.79184,120.28448999999999
岩程大順建國第二停車場,正明段152-2、153、154地號共3筆土地(大順三路180號對面),113.0,0.0,22.63344,120.32551000000001
岩程樂善街停車場,正明段146-1地號土地(大順三路180號對面),10.0,0.0,22.634,120.3255
仁春仁樂街停車場	,仁春段805地號土地部分使用(仁樂街311號對面),35.0,0.0,22.70391,120.35026
高雄捷運O8五塊厝站轉乘停車場,福河段747、748、751地號共3筆土地部分使用(中正一路286號室外地面層),0.0,120.0,22.62909,120.32836
齊津英義街停車場,林聖段306、307地號共2筆土地(英義街與凱旋三路871巷口西北側),24.0,0.0,22.6187,120.32488000000001
高雄捷運O9技擊館站轉乘停車場,中正一路99號室外地面層(中正段8、9、10、31地號共4筆土地部分使用),0.0,150.0,22.62795611602847,120.33365591897963
前朕文川重愛第二停車場	,福山段299地號土地(文川路384號對面),70.0,0.0,22.68709,120.31505
大中興停車場,水源段211、225、227地號共3筆土地(中興路5號對面),45.0,0.0,22.61806,120.38506000000001
勁侶宏明停車場,宏明段467地號土地(宏光街與秀峰街1巷東南側),28.0,0.0,22.56707,120.36806999999999
寶盛文橫路(1)停車場,大統段一小段990、990-1、991-1、991-2、991-15地號共5筆(文横一路與玉竹一街20巷西南南側),21.0,0.0,22.62598,120.30252
寶盛文橫路(2)停車場,大統段一小段991-1、991-3地號共2筆土地,8.0,0.0,22.6257220208496,120.30270745871496
寶忠重和路停車場,高雄市左營區福山段329地號土地(博愛四路與重和路口北側),34.0,0.0,22.68432,120.31293000000001
鳳山薇風情停車場,正義段24-1地號土地(保南二路與過埤路東北側),110.0,0.0,22.59186,120.34985
小港青島停車場,青島段一小段1322地號土地(廠邊一路與宏泰街口東北側),28.0,0.0,22.5705,120.35472
台糖鳳山休閒廣場停車場,建軍段428、429、430、431地號共4筆土地,122.0,0.0,22.61495,120.3576
寶盛德利街停車場,新都段130、130-1、306、308地號共4筆土地(美都路與德利街東南側),106.0,0.0,22.64558,120.28854
乙發明正停車場,草衙段二小段113地號土地(明正三街125號東南側),25.0,0.0,22.58115,120.32333
山頂國小停車場,山頂路211號室外地面層(大寮區內厝段723地號土地),10.0,0.0,22.60798,120.38873000000001
愛思奇高雄中華新光停車場,苓雅區中華四路2號地下第二、三、四層(意誠段158地號土地),66.0,0.0,22.61216502971375,120.3030717242957
寶盛美術北五街停車場,青海段78、79、80、80-1地號共4筆土地(美術北五街1號西側),58.0,0.0,22.66379,120.28995
齊津民族同盟停車場,建生段28地號土地(民族一路與自忠街口北側),74.0,0.0,22.64656628689372,120.31401854232786
慈善堂停車場,中庄北段618地號土地(立德路656巷西側),26.0,0.0,22.63301,120.39415
哈囉南屏停車場,新庄段七小段629、632地號共2筆土地(南屏路與南屏路268巷東南側),22.0,0.0,22.66895,120.29818999999999
寶盛遼北街停車場,新都段48、50、51、52、53、54地號共6筆土地(遼北街與美都路口東北側),227.0,0.0,22.64832,120.28851999999999
寶盛德勝街停車場,新都段362、363地號共2筆土地(德勝街南側),76.0,0.0,22.64526,120.28553000000001
勁侶華山停車場,山明段6-11地號土地(華山路與華明街口東南側),134.0,0.0,22.56439033848495,120.36983492819763
勁侶南北停車場	,店鎮段二小段2952地號土地(南北路26號北側),23.0,0.0,22.561,120.35493999999998
便利停右昌停車場,右昌段四小段898、900、904-4、904-5地號共4筆土地(右昌街347號右昌郵局西側),16.0,0.0,22.71459,120.28871000000001
寶盛鳳山火車站停車場,高雄市鳳山區曹公里曹公路137號地下第一、二層,121.0,650.0,22.63158781624021,120.35517565641408
勁侶店鎮停車場,店鎮段二小段2972-1地號土地(南北路54巷30號西側),18.0,0.0,22.56162,120.35531999999999
南正文豐停車場,五甲段1028-1地號土地(南正一路與文豐街36巷東南側),105.0,0.0,22.59635,120.33596000000001
保安停車場,保成段164地號土地(紅毛港路與代德二街口東南側),49.0,0.0,22.588245973780225,120.34385755064206
保華停車場,保成段150地號土地(保華一路與代德二街口西北側),29.0,0.0,22.588532232284145,120.34647573713731
齊杉中山橫路停車場,新興段四小段1846地號土地(中山橫路65號旁),33.0,0.0,22.6313,120.29954
Times高雄桂田街停車場,桂林段109-6、150地號共2筆土地(桂田街與桂明街西北西側),36.0,0.0,22.58255,120.35608
三贏立信停車場	,新庄段十三小段1315地號土地(立信路83東側),17.0,0.0,22.66615,120.30673
Times高雄重立孟子停車場,新民段413、414、415地號共3筆土地(孟子路與重立口東北側),95.0,0.0,22.67376,120.31373
和雲高雄仁智街停車場,過田子段652地號土地(仁智街199號北側),4.0,0.0,22.61969,120.3031
國際星辰旅館附屬停車場	,建國三路252-1號地上第二、三層(中都段四小段700地號土地),30.0,0.0,22.636094254830702,120.28927460357386
楠枳曾子政德停車場,新光段188地號土地(曾子路與政德路口南側),56.0,0.0,22.68162,120.30423
鳳翔停車場,新庄子段223-39、225-24、225-25、226-7地號共4筆土地(自由路與自由路112巷口西北側及東北側),94.0,0.0,22.62621,120.3514
雲朵民族停車場,菜公段二小段107-4、107-5、108-2、141-1、142地號土地(民族一路859號北側),90.0,0.0,22.67797,120.31792
三陸澄東(一)停車場	,澄東段84地號土地(褒揚東街15號西側),27.0,0.0,22.63912,120.34946000000001
大榮停車場,新康段30地號土地(新庄仔路145巷9號對面),7.0,0.0,22.67259,120.30236000000001
竑穗大同國小停車場,前金段433-1地號土地(民生路與新盛二街東北側),29.0,210.0,22.62676,120.29811000000001
崗杉明誠東七停車場,青海段178地號土地(明誠四路與美術東四街口東北側),110.0,0.0,22.661764110617064,120.2905551607132
Times高雄立中路【月租】停車場,新康段25、29地號共2筆土地(立中路與立中路38巷口西南側),22.0,0.0,22.67285,120.30261999999999
Times高雄新田路停車場,過田子段593、594、595地號共3筆土地(新田路197巷66號對面),18.0,0.0,22.6215,120.30201000000001
福滿閣機車停車場,藍田中段265地號土地(大學二十六街2號西側),0.0,35.0,22.72916,120.29125
鳳甲保成停車場,保成段2-5、2-6地號共2筆土地(鳳甲一街49號對面),105.0,0.0,22.59473,120.3456
楠梓駿安停車場,楠都段一小段1202-3、1202-4、1202-6、1202-7地號共4筆土地(建楠路60巷8之10號西側),37.0,0.0,22.72754,120.32862
大旺第二停車場,凱歌段830、830-1、831、831-1、837地號共5筆土地部分使用(民族一路2巷85號對面),38.0,0.0,22.63688,120.31681
鳥松大同段停車場,大同段248-2、248-5、249-1、250-2地號共4筆土地(松埔路37巷8弄5號南側),22.0,0.0,22.66258,120.37442
翔安春陽停車場	,獅頭段2325、2326地號共2筆土地(春陽街與正氣街口東南側),13.0,0.0,22.64669689881794,120.33142629253234
竑穗新興民生停車場,新興段三小段914地號土地(民生一路328號東側),13.0,0.0,22.627670582140517,120.30478609325405
Times高雄南屏路停車場,新勝段42、43地號共2筆土地(新莊一路290巷與南屏路293巷口西南側),44.0,0.0,22.67021,120.2998
Times高雄善和街停車場,五甲段1801地號土地(善和街與保泰路370巷東側),26.0,0.0,22.60268,120.33563999999998
嘟嘟房高雄德惠站停車場,和平段五小段58-1、58-2、59-1、139、139-1地號共5筆土地(德惠街70巷15號對面),71.0,0.0,22.72702,120.30356
高雄捷運R24南岡山站第一停車場,中山南路2號室外地面層(岡山區大寮段1027-9地號土地),207.0,379.0,22.77892,120.30094
Times高雄福建四維停車場,林德官段一小段3111地號土地(四維二路與福建街口西北側),31.0,0.0,22.621377813849737,120.3155919239425
哈囉建楠停車場,楠都段二小段1291地號土地(建楠路與鳳楠路口東北側),14.0,0.0,22.72696201739117,120.32947939625821
台灣聯通高雄七賢停車場,七賢三路6號室外地面層(鹽埕區大東段769地號土地),5.0,0.0,22.62144,120.27993000000001
水秀停車場,宏明段514、517地號共2筆土地(山明路38號西側),18.0,0.0,22.56586,120.36707
寶盛文強路停車場,新民段160地號土地(文強路與重上街東側),67.0,0.0,22.67498,120.30703000000001
凱地停車場,東金段678、679地號共2筆土地(新盛一街與明星街東北側),24.0,0.0,22.63261,120.29593999999999
和威停車場,宏明段505地號土地(宏光街與宏偉街81巷口西南側),76.0,0.0,22.566270000000006,120.36582
信守街停車場,林德官段1171地號土地(信守街26號東側),20.0,0.0,22.63143,120.3164
貿林延慶慶雲停車場,大港段3540、3541地號共2筆土地（延慶街202號對面）。,117.0,0.0,22.64251,120.31546000000002
楠枳南五南二停車場,青海段530地號土地(美術南五街與美術南二路口東北側),52.0,0.0,22.65257,120.28505
琳鈞翠仁停車場,和平段五小段327、327-1、327-2、345、346、346-1地號共6筆土地(翠屏路與加仁路東北側),32.0,0.0,22.72755,120.29938999999999
仁倵大順憲政停車場,正福段583、583-1、584、584-1、585、594、595及595-1地號共8筆土地(大順三路與大順三路204巷口東北側),83.0,0.0,22.63392,120.32654
青年文化停車場	,新庄子段135-7、135-17及139地號共3筆土地(青年路二段48號對面),30.0,0.0,22.63017,120.34912
Times高雄昌盛路第2停車場	,龍華段八小段2295地號土地(昌盛路35號西北側),13.0,0.0,22.66369,120.30126000000001
寶盛樹人路停車場,鎮昌段一小段1496地號土地(樹人路與旭原街口東側),57.0,0.0,22.58871,120.32009
台糖店鎮停車場,店鎮段一小段1088地號土地(宏平路677號西側),12.0,0.0,22.56943,120.35077
台糖宏明停車場	,宏明段453地號土地(宏光街469號西側),6.0,0.0,22.56743,120.3675
寶盛二聖路停車場,林聖段1387地號土地(二聖一路28號西側),33.0,0.0,22.61224,120.32586
寶盛霞海南三街停車場,新後港西段141、142及143地號共3筆土地(霞海南三街69號對面),62.0,0.0,22.68277,120.32486999999999
景新龍德停車場,龍中段94地號土地(龍德路377號南側),47.0,0.0,22.6562,120.29678999999999
嘟嘟房八五大樓地下停車場,自強三路3、5、7號地下第四層(苓雅區意誠段763、763-1地號),270.0,0.0,22.610882474246434,120.30001669383228
哈囉燕巢停車場,燕西段161地號土地(中民路623巷20號對面),6.0,0.0,22.792749386796952,120.36103542200672
霖園高雄商業大樓停車場,三民區九如一路502號地下第二、三、四及五層(三民區大順段510地號),203.0,0.0,22.639832889225012,120.32760805506672
永仁停車場	,豐禾段597、600地號共2筆土地(永仁街與永新七街東側),72.0,0.0,22.69028,120.33233999999999
寶盛美術東四路停車場,青海段216地號土地(美術東四路289號南側),190.0,0.0,22.65991,120.28988999999999
大瑟察哈爾重慶停車場,三塊厝段四小段1615地號土地(察哈爾二街與重慶街口西南側),14.0,0.0,22.64757,120.30216999999999
震禾企業岡山老街停車場,大公段931、931-3及931-11地號共3筆土地(岡燕路31巷與後興北路59巷交叉口東南側),28.0,0.0,22.79398,120.29738
大寮國中停車場,高雄市大寮區進學路150號室外地面層(內厝段186及240地號土地部分使用),9.0,0.0,22.60364,120.3939
蓮池潭兒童公園南區停車場,高雄市左營區環潭路460號地面層(左東段627及997地號土地部分使用),25.0,0.0,22.68672,120.30212
大瑟榮耀榮富停車場	,菜公段六小段1131地號土地(榮耀街與榮富街口西南側),75.0,0.0,22.67961,120.32086000000001
寶盛霞海路停車場,新後港西段94地號土地(霞海路霞海南三街口西側),73.0,0.0,22.6836,120.3242
Times高雄民主橫路第2停車場,新興段四小段873、874及880地號共3筆土地(民主橫路56號南側),8.0,0.0,22.63413,120.30131000000002
齊杉六合中華停車場,前金段58-10地號土地(中華三路132號東側),10.0,0.0,22.63041,120.29593999999999
寶盛曾子路停車場,新光段151、153及154地號共3筆土地(曾子路378號北側),117.0,0.0,22.68166,120.30495
寶盛藍田路停車場,藍田中段30-2地號土地(藍田路與大學十一街口西南側),152.0,0.0,22.7276,120.28681
Times高雄鳳山過雄街停車場,頂庄段989、990、994、995及995-1地號共5筆土地(過雄街與鳳頂路口東南側),36.0,0.0,22.58652,120.35946000000001
成風鳳東停車場,埤頂段2165、2165-1及2165-3地號共3筆土地(鳳東路165號東側),72.0,0.0,22.62597,120.3785
天府宮對面停車場,左東段1052地號土地(蓮潭路158號對面),19.0,0.0,22.686610204268113,120.29672653009415
紫玄宮對面停車場,左東段1052地號土地(蓮潭路158號對面),17.0,0.0,22.68585047484786,120.29608279993059
寶盛霞海路-2停車場,新後港西段118、119、120、131、132及133地號共6筆土地(霞海路與霞海南三街口南側),142.0,0.0,22.68328,120.32463999999999
老新台菜停車場,新都段201地號土地(德裕街與十全三路口西南側;十全三路265號),27.0,0.0,22.64796,120.2861
杉霖中山四維停車場,過田子段1140地號土地(中山二路358號南側),18.0,0.0,22.61661,120.3039
佳德興停車場	,五塊厝段二小段2608及2609地號共2筆土地(至誠路25巷西南側),42.0,0.0,22.63159,120.34143999999999
博學昭華停車場,山明段227地號土地(博學路與鳳福路口西南側),60.0,0.0,22.56272,120.37061000000001
統固力河北瑞源停車場,三塊厝段二小段1362地號土地(河北二路與瑞源路口北側),44.0,0.0,22.63609,120.29581
寶潭環潭路停車場,左洲段34地號土地(環潭路與環潭路426巷交叉口南側),76.0,0.0,22.68647,120.30046999999999
鳳杉加仁德惠第二停車場,和平段五小段32及32-1地號共2筆土地(加仁路216號西側),30.0,0.0,22.72781,120.3039
三塊厝自立停車場,三塊厝段四小段3022地號土地(自立一路與察哈爾二街口東南側),24.0,0.0,22.64796,120.297
寶盛九如路停車場,新都段186地號土地(九如三路與中華二路157巷西北側),60.0,0.0,22.643,120.29008
寶盛至聖博愛停車場,龍中段22地號土地(林皇宮百匯西側),44.0,0.0,22.66,120.30197
大樂停車場,灣內段700地號(民族一路463號室外地面層)俥亭重文街停車場	左營區	新光段118地號土地(重文街55號對面),84.0,0.0,22.68389,120.30668999999999
杉霖建興路停車場,大順段189地號土地(建興路與建武路76巷7弄口西南側),6.0,0.0,22.64219,120.32961
