grid,StationUID,StationID,StationName,StationAddress,BikesCapacity,lat,lng
140,TAO2030,2030,同德國中,南平路479號對面同德國中旁人行道,38,25.01613,121.293908
196,TAO2229,2229,成功國小,中正三街與長春路口,34,24.999511,121.306346
300,TAO2328,2328,八德埤塘自然生態公園,榮興段1483地號公園人行道,32,24.941091,121.310887
195,TAO2055,2055,桃園龍鳳公園,國豐五街51號對面龍鳳公園旁人行道,40,24.989688,121.278943
295,TAO2284,2284,龍慈龍和三街口,龍慈路與龍和三街旁路側,40,24.940105,121.243768
328,TAO2208,2208,中山親水公園,新農街80號旁公園內,32,24.909657,121.148482
293,TAO2146,2146,廣南停車場,環南路二段11號旁人行道,32,24.944913,121.208633
271,TAO2005,2005,中原大學,中北路200號(中原大學校內懷恩樓後方空地),82,24.957943,121.240201
272,TAO2105,2105,仁祥公園,華祥一街3巷2號對面人行道,38,24.948864,121.260842
270,TAO2010,2010,中壢國小,康樂路61號旁公園,46,24.954097,121.220349
91,TAO2134,2134,大湖福德宮,忠義路二段483號前方人行道,24,25.051424,121.358878
248,TAO2027,2027,內壢自強公園,強國路46號旁自強公園側人行道,50,24.967686,121.259279
56,TAO2130,2130,老街溪停車場,大觀路31巷1號旁老街溪上方停車場,36,25.064974,121.195804
222,TAO2308,2308,中山路裕和街口,中山路1306號旁人行道,34,24.980741,121.274497
221,TAO2049,2049,吉林路吉利六街口,吉林路吉利六街口東南側人行道,42,24.9829,121.250406
199,TAO2154,2154,萬壽中興路口,萬壽路二段981號對面停車場,36,24.994938,121.337264
113,TAO2258,2258,大魯閣(中正路),中正北路2巷16號對面廣場,32,25.030046,121.293195
92,TAO2364,2364,合遠新天地,華亞三路50號旁綠帶,60,25.047496,121.378891
246,TAO2007,2007,中壢區公所,環北路380號旁人行道,40,24.965697,121.224696
86,TAO2179,2179,南榮公園,南平街洛陽街口南側公園旁人行道,34,25.045165,121.291398
272,TAO2178,2178,華愛兒童公園,華愛街35號對面公園旁人行道,32,24.952303,121.259724
140,TAO2323,2323,中正莊敬路口,中正路1379號前方人行道,32,25.023593,121.294916
266,TAO2321,2321,過嶺廣場,松勤路13號對面公園,32,24.96035,121.164511
270,TAO2116,2116,中壢中央公園,建國北路9號對面公園人行道,38,24.956663,121.226195
270,TAO2003,2003,中正公園(中美路),中美路101-113號對面人行道,54,24.959113,121.224805
248,TAO2058,2058,忠孝廣場,忠孝路8-22號對面路側,50,24.972516,121.256853
42,TAO2262,2262,桃園市立圖書館山腳分館,山外路117號旁人行道,32,25.08289,121.287672
273,TAO2106,2106,篤行公園,永福路47號對面人行道,34,24.958288,121.26328
295,TAO2153,2153,龍和公園,龍和三街290號(活動中心旁公園人行道),32,24.934221,121.244805
222,TAO2127,2127,桃園龍山國小,龍祥街94號對面人行道,34,24.981988,121.271035
198,TAO2339,2339,貿商社區,自強南路自強南路301巷口,34,24.990411,121.334721
91,TAO2135,2135,中央警察大學,樹人路56號(面中央警察大學校門左側),34,25.045564,121.352319
251,TAO2128,2128,桃園假日農業創意市集,介壽路547號旁國道二號橋下空間,34,24.97422,121.302536
269,TAO2317,2317,新明國中,民族路109號對面人行道,38,24.956212,121.21231
224,TAO2025,2025,國立陽明高中,德壽街8號前方人行道,60,24.980404,121.303296
330,TAO2250,2250,瑞塘公有停車場,萬大路187號對面停車場,32,24.908548,121.179031
328,TAO2162,2162,楊梅火車站(前站),大成路256號(火車站前方人行道),50,24.913845,121.146247
351,TAO2145,2145,中豐坤慶路口,坤慶路1號前方人行道,30,24.90262,121.211817
368,TAO2238,2238,山仔頂公園,自由街57號對面公園,36,24.892175,121.20433
169,TAO2170,2170,財政部北區國稅局桃園分局,三元街150號,36,25.003782,121.320733
373,TAO2078,2078,大溪中正公園,普濟路80號旁停車場,44,24.883151,121.285453
313,TAO2166,2166,獅子林社區活動中心,大智街88號對面,34,24.928339,121.225294
168,TAO2204,2204,溫州公園,大興西路二段139巷173號旁公園人行道,36,25.008,121.29825
24,TAO2292,2292,捷運坑口站(A11),捷運坑口站(A11)出入口前,48,25.086895,121.265778
224,TAO2079,2079,忠孝兒童遊樂場,宏昌七街泰昌三街西南側廣場,58,24.986849,121.294739
190,TAO2332,2332,中壢公15公園,領航南路一段218號對面公園,32,25.000532,121.207897
315,TAO2277,2277,龍安里集會所,龍江路99號前方廣場,32,24.93149,121.25766
270,TAO2004,2004,中壢火車站(前站),中和路139號對面圓環,114,24.953874,121.2256
166,TAO2074,2074,開南大學,開南路1號(行政大樓南棟前停車場),56,25.011106,121.269685
251,TAO2088,2088,廣豐公園,公園路廣豐二街東北側人行道,40,24.966015,121.297907
250,TAO2220,2220,元聖宮,東泰街2號旁空地,34,24.96384,121.27843
373,TAO2077,2077,月眉停車場,月眉15鄰105號,50,24.889279,121.287613
162,TAO2212,2212,青塘園,洽溪路133號對面公園人行道,48,25.00641,121.20492
251,TAO2351,2351,廣豐新天地,大智路17號對面廣場,40,24.964385,121.299811
140,TAO2031,2031,桃園展演中心(同德六街),同德六街藝文二街口東南側廣場,50,25.016551,121.29997
113,TAO2311,2311,新南路一段榮興路口,新南路一段榮興路口旁人行道,34,25.041056,121.29587
87,TAO2071,2071,南崁高中,仁愛路二段1號(南崁高中旁人行道),34,25.052456,121.297856
199,TAO2271,2271,龜山中正公園,自強北路19號對面人行道,38,24.999606,121.343598
119,TAO2160,2160,國立體育大學綜合體育館,文化一路250號(國立體大體育館前馬路旁人行道),42,25.035994,121.38504
248,TAO2026,2026,夢幻公園,榮安十三街榮民路口(西南側),46,24.962541,121.261596
113,TAO2265,2265,榮興橋,南新段 948地號人行道,50,25.040756,121.294279
195,TAO2366,2366,昭揚建築(水秀公園),力行路688巷11號旁公園,32,24.99845,121.291143
170,TAO2289,2289,台北榮民總醫院桃園分院,成功路三段三聖路口旁人行道,46,25.002531,121.323988
223,TAO2244,2244,茄明里集會所,中華路27號外側人行道,36,24.986389,121.28182
223,TAO2246,2246,國豐公園,龍鳳三街65巷2號對面公園,36,24.987028,121.279348
298,TAO2242,2242,八德仁德公園,仁德路218號對面公園,32,24.935127,121.287328
62,TAO2261,2261,蘆竹區聯合辦公大樓,長安路二段與東溪路口,32,25.062955,121.280302
168,TAO2322,2322,藝文一街大興西路口,藝文一街6號對面廣場,50,25.013286,121.301557
199,TAO2067,2067,龜山國中,自強西路66號前方人行道,36,24.997536,121.339485
198,TAO2184,2184,陸光河濱公園,同心二路19號對面公園內人行道,58,24.99485,121.330472
293,TAO2090,2090,廣仁公園,廣南路168號對面公園旁人行道,36,24.939478,121.206413
162,TAO2100,2100,捷運高鐵桃園站(A18),高鐵北路一段6號(對面捷運站出口外側人行道),62,25.013775,121.213932
269,TAO2248,2248,義興公園,義興街55號對面公園人行道,32,24.949106,121.209494
244,TAO2001,2001,中央大學圖書館,中大路300號(中央大學校內圖書館前),60,24.968128,121.194666
171,TAO2095,2095,璟都江山社區,光峰路131巷6號前方人行道,32,25.0023,121.342803
137,TAO2138,2138,大竹國小,南竹路五段271號對面人行道,38,25.024481,121.259057
93,TAO2124,2124,樂善公園,文安街50號(對面公園北側巷道),36,25.055461,121.380587
195,TAO2169,2169,風禾公園,文中二路慈文路口東北側人行道,40,25.000991,121.289893
272,TAO2302,2302,普忠榮民南路口,普忠路1168號前人行道,32,24.949502,121.256339
68,TAO2215,2215,文化花園夜市,龜山一路168號旁公園,34,25.064312,121.365578
169,TAO2047,2047,大有國中,大有路民光東路口西北側人行道,48,25.008585,121.319869
87,TAO2072,2072,蘆竹區婦幼館,五福路88號對面婦幼館人行道,36,25.050733,121.293711
246,TAO2102,2102,捷運環北站(A21),中豐北路26號旁人行道,40,24.967563,121.220967
246,TAO2018,2018,中壢區聯合辦公大樓,溪洲街298號前方人行道,38,24.962068,121.230027
270,TAO2222,2222,老街溪河川教育中心,中原路58號前方人行道,36,24.953739,121.21856
269,TAO2092,2092,平鎮區婦幼館,廣成街10號對面路側,38,24.956269,121.208551
119,TAO2119,2119,文青路,文青路199號前方人行道,36,25.040189,121.388379
246,TAO2059,2059,忠福廣場,南園二路292號對面忠福廣場旁人行道,40,24.971805,121.227697
238,TAO2276,2276,新福二路大仁街口,新福二路/大仁街路口旁人行道,30,24.970672,121.105909
284,TAO2210,2210,伯公岡公園,民生街101號對面公園,36,24.938531,121.084646
355,TAO2252,2252,仁和國小,仁和二街50號旁人行道,30,24.897638,121.276781
140,TAO2239,2239,桃園區南平運動中心,南平路23號對面人行道,42,25.021357,121.306156
269,TAO2327,2327,平鎮平興國中,育達路二段102號對面人行道,44,24.950435,121.205398
299,TAO2283,2283,八德楓樹腳公園,介壽路二段931號對面公園,40,24.935287,121.297258
225,TAO2024,2024,桃園建國公園,桃鶯路93號對面建國公園旁人行道,38,24.987418,121.317759
171,TAO2209,2209,楓樹公園,楓樹一街19號對面公園,42,25.00465,121.34496
271,TAO2310,2310,環中東實踐路口,環中東路776號前人行道,40,24.953682,121.243344
268,TAO2216,2216,平鎮魚形公園,清泉街49-53號旁公園內,30,24.95796,121.19022
225,TAO2353,2353,桃園建國國小,昆明路120號對面人行道,46,24.983616,121.31578
169,TAO2046,2046,大業國小,民光東路280號對面人行道,42,25.006896,121.31476
251,TAO2300,2300,桃智路廣豐三街口,桃智路31號前外側人行道及路側,32,24.964802,121.295471
135,TAO2172,2172,大園國際高中,大成路二段37號對面人行道,60,25.020834,121.220506
314,TAO2234,2234,龍岡大操場,龍岡路三段游泳路口旁公園人行道,36,24.930164,121.239605
221,TAO2176,2176,常樂公園,文化二路237-243號旁公園人行道,40,24.976881,121.250856
98,TAO2313,2313,觀音中興停車場,中興路與玉林路口,32,25.038199,121.080987
168,TAO2108,2108,慈文國中,中正路835號前方人行道,50,25.008916,121.301842
221,TAO2083,2083,桃園市立圖書館內壢分館,光華三街10號前方人行道,50,24.977945,121.257972
196,TAO2245,2245,向陽公園,正光路186巷50號對面人行道,40,24.997013,121.29609
272,TAO2152,2152,晉元路仁德一街口,仁德一街28-4號對面路側,30,24.950926,121.261293
161,TAO2275,2275,竹風青田,永園路一段130號前方人行道,28,25.011504,121.20184
42,TAO2097,2097,捷運山鼻站(A10),南山路三段176號旁自行車停放區,22,25.080942,121.285489
271,TAO2011,2011,莒光公園,寧夏二街43號對面莒光公園入口圓環,30,24.951472,121.235693
140,TAO2140,2140,桃園中正公園(同安街),同安街601號旁公園人行道,60,25.023701,121.297919
86,TAO2320,2320,光明國中,洛陽街139號之1對面人行道,38,25.044194,121.290175
197,TAO2020,2020,朝陽森林公園,朝陽街104-108號對面機車停車場,40,24.999107,121.31282
384,TAO2372,2372,中科院五號門,石園路615號前方空地,60,24.867174,121.256142
188,TAO2233,2233,內厝社區活動中心,中正路四段112號前方路側,32,24.989317,121.179425
296,TAO2149,2149,黎明公園,同慶路榮民南路口西南側公園前方路側,30,24.939894,121.256127
172,TAO2211,2211,中央造幣廠,振興路577號前方人行道,40,25.013917,121.36006
276,TAO2307,2307,大安果樹公園,建安街長安街口公園廣場,32,24.950006,121.318555
162,TAO2343,2343,高鐵桃園站(3號出口),高鐵北路一段6號前人行道,48,25.012423,121.215221
118,TAO2223,2223,美光晶圓公司,復興三路667號前方人行道,40,25.038673,121.374561
87,TAO2125,2125,蘆竹區公所,南上路3號對面路側,40,25.047325,121.294341
317,TAO2227,2227,建德公園,長興路61號對面公園,38,24.931091,121.281626
163,TAO2247,2247,公七公園,青商路288-298斜對面公園內,34,25.008599,121.219904
196,TAO2111,2111,桃園市立游泳池,吉昌街86號(對面人行道),40,24.989458,121.292088
252,TAO2272,2272,大仁里遊樂場,中華段 764地號,36,24.968349,121.319564
224,TAO2226,2226,八德霖園公園,介壽路一段16巷73號旁公園人行道,34,24.97847,121.300762
251,TAO2051,2051,君臨公園,忠勇六街1號對面人行道,42,24.964524,121.305469
337,TAO2214,2214,埔頂公園,仁善街102號對面停車場內,36,24.90904,121.28357
137,TAO2290,2290,大竹游泳池,大新一街115號旁空地,40,25.021193,121.257617
222,TAO2354,2354,高城公園,高城六街48巷9號旁公園,30,24.979318,121.274198
294,TAO2060,2060,健行科技大學,健行路229號(商學大樓後人行道),66,24.946778,121.229011
162,TAO2224,2224,兒九公園,致遠街致維街口公園內,34,25.005083,121.212793
314,TAO2228,2228,龍岡圓環,龍東路龍岡路三段路口,30,24.926002,121.244046
171,TAO2237,2237,南崁溪自行車道(長壽路口),半嶺段 44地號,38,25.001722,121.347685
243,TAO2182,2182,南方莊園,樹籽路8號對面停車場旁人行道,22,24.967284,121.177906
335,TAO2133,2133,東安國中,平東路168號(面東安國中右側人行道),34,24.916497,121.249757
140,TAO2165,2165,經國國中,經國路276號(面經國國中校門左側人行道),32,25.0217,121.303596
272,TAO2235,2235,普忠路770巷口,普忠路605號對面人行道,32,24.954231,121.251253
294,TAO2340,2340,平鎮棒球場,德育路240號旁人行道,34,24.946102,121.219066
140,TAO2259,2259,同安國小,同德十一街33號對面人行道,38,25.021257,121.297788
330,TAO2350,2350,埔心停車場,金龍三路95號前停車場,32,24.912472,121.185342
63,TAO2293,2293,蘆竹親子公園,六福路163號對面廣場,36,25.059,121.295414
332,TAO2316,2316,平鎮國民運動中心,興安路20號對面空地,62,24.913957,121.209701
196,TAO2080,2080,桃園市政府,縣府路3號對面廣場,74,24.992799,121.30168
194,TAO2213,2213,龍安公園,國豐七街122號對面公園,30,24.99153,121.27619
196,TAO2068,2068,西門綠園,文康街61號對面人行道,32,24.993968,121.303884
356,TAO2266,2266,十大觀光小城公園,介壽路965號對面公園,40,24.905108,121.284806
222,TAO2069,2069,衛福部桃園醫院,龍壽街60號對面人行道,34,24.979389,121.268981
92,TAO2094,2094,大華公園,文化七路142號(右側人行道),38,25.051615,121.366364
92,TAO2121,2121,文興公園,復興南路及復興南路26巷口東南側公園旁人行道,38,25.055851,121.371531
269,TAO2002,2002,中壢高中,中央西路二段215號對面人行道,52,24.960815,121.212038
246,TAO2006,2006,銀河廣場,九和一街48號對面銀河廣場人行道,58,24.961716,121.224241
189,TAO2254,2254,青松農場,聖德路一段596之20號前方空地,30,24.995065,121.194071
92,TAO2093,2093,文化二復興三路口,文化二路復興三路口西南側人行道,36,25.051205,121.372325
299,TAO2297,2297,八德區衛生所,介壽路二段361巷28號前廣場,30,24.947541,121.298567
169,TAO2260,2260,文昌國中,民生路729號前方人行道,36,25.010094,121.308003
294,TAO2344,2344,環南金陵路口,環南路三段243號前方人行道,32,24.940731,121.222884
78,TAO2201,2201,大園國中,園科路400號前人行道,38,25.053976,121.171991
197,TAO2042,2042,桃園火車站(前站),中正路1號面火車站右方人行道,66,24.989618,121.313022
225,TAO2022,2022,福豐公園,建國路昆明路口(西北側),38,24.985652,121.311513
224,TAO2155,2155,大同西路簡易公園,大同西路7巷4號對面公園,40,24.988164,121.304047
67,TAO2015,2015,文化三復興一路口,復興一路227-235號前方人行道,48,25.057653,121.364843
197,TAO2032,2032,東溪綠園,成功路二段1號旁小公園,70,24.993122,121.313558
246,TAO2335,2335,新街國小,環北路564號旁步道,40,24.964378,121.228734
199,TAO2066,2066,龜山區公所,中山街26號前方人行道,40,24.992532,121.33766
223,TAO2269,2269,茄明公園,明光街56號對面公園人行道,32,24.98279,121.279858
86,TAO2342,2342,台茂購物中心,南崁路一段112號前方人行道,40,25.05246,121.28779
247,TAO2336,2336,福州橋,福州二街513號對面步道,34,24.968299,121.234777
285,TAO2291,2291,富岡運動公園,新富七街180號斜對面,40,24.93788,121.089127
329,TAO2330,2330,頭重溪公園,三元街99號對面公園綠地,32,24.911118,121.171616
57,TAO2098,2098,捷運大園站(A15),橫湳一路1號捷運站旁人行道,32,25.056627,121.209741
87,TAO2137,2137,五福停車場,五福一路120號對面人行道,36,25.055851,121.294575
68,TAO2136,2136,桃園酒廠,文化一路55號前方人行道,38,25.056078,121.375319
196,TAO2326,2326,南門公園,文化街64號對面公園,42,24.991347,121.306248
195,TAO2038,2038,國強公園,國強一街益壽一街口(東北側人行道),56,24.993077,121.289327
112,TAO2053,2053,光明國小,南昌路忠孝西路口東北側人行道,36,25.041275,121.290229
269,TAO2009,2009,翠堤橋,義民路105號旁人行道,46,24.953265,121.215878
223,TAO2243,2243,中德里市民活動中心,國際路一段與國際路一段678巷口,32,24.977868,121.287946
86,TAO2294,2294,好市多南崁店,南崁路一段369號 前方人行道,30,25.054957,121.282179
196,TAO2056,2056,桃園市政府文化局,縣府路21號面文化局左側路側,46,24.994184,121.300537
293,TAO2084,2084,宋屋公園,廣泰路152號對面公園旁人行道,34,24.945284,121.204192
269,TAO2081,2081,五權公園,正大街五族二街西北側人行道,42,24.958867,121.204579
372,TAO2346,2346,三元公園,員林路二段450號對面公園,32,24.882799,121.266547
168,TAO2110,2110,桃園永康公園,力行路中正五街口東南側人行道,34,25.00189,121.302925
299,TAO2312,2312,瑞泰公園,介壽路2段583巷16弄12號對面空地,32,24.941473,121.298571
140,TAO2043,2043,瑞慶公園,中埔一街362號對面瑞慶公園旁人行道,40,25.019129,121.292954
195,TAO2113,2113,國強一街上海路口,國強一街上海路口西北側高架橋下廣場,40,24.992059,121.282126
276,TAO2173,2173,同福公園,和義街50號對面人行道,32,24.959257,121.308382
161,TAO2104,2104,領航公園,領航北路一段永裕路口北側公園旁人行道,38,25.007413,121.201054
135,TAO2099,2099,捷運領航站(A17),領航北路四段358號對面人行道,40,25.023021,121.222169
162,TAO2103,2103,青埔國中,領航北路二段281號前方人行道,36,25.010832,121.205798
119,TAO2345,2345,文青一文青二路口,文青路文青一路口東北側人行道,32,25.039422,121.3914
147,TAO2122,2122,迴龍國中小,萬壽路一段168號前方人行道,40,25.019115,121.404963
267,TAO2181,2181,過嶺國中,松智路過嶺路一段路口人行道,30,24.960203,121.175517
98,TAO2314,2314,觀音國小,文化路61號對面人行道,32,25.03451,121.083586
225,TAO2337,2337,陽明運動公園(建新街),建新街163號對面公園籃球場旁,36,24.980992,121.311016
351,TAO2144,2144,莊敬里民集會所,自強街莊福路口東北側人行道,30,24.90408,121.214821
224,TAO2333,2333,介壽公園,介壽段16地號公園,34,24.979016,121.306013
269,TAO2357,2357,廣明停車場,廣明路78號旁停車場,40,24.954579,121.214063
333,TAO2324,2324,桃園市立圖書館東勢分館,金陵路五段55號前方空地,30,24.9105,121.231206
196,TAO2107,2107,桃園市政府警察局桃園分局,永安路375號旁人行道,34,25.000418,121.299434
167,TAO2315,2315,中路兒2公園,永安路765巷8號對面公園,30,25.007402,121.290432
91,TAO2183,2183,工四工業區(頂湖路),頂湖路33號(面工廠大門左側人行道),38,25.042612,121.362294
76,TAO2331,2331,觀音區棒壘球場,福興街147之1號對面停車場,32,25.044671,121.138213
191,TAO2221,2221,大江購物中心,中園路二段501號前方人行道,44,25.00127,121.22939
198,TAO2334,2334,桃園高中,成功路三段8號旁邊空地,62,24.997204,121.324855
225,TAO2141,2141,建新公園,陽明十二街25號對面公園旁人行道,38,24.979206,121.310324
157,TAO2203,2203,觀音高中,文中路46號對面人行道,42,25.014978,121.133881
275,TAO2118,2118,重慶公園,重慶街183號對面公園旁人行道,30,24.955984,121.304068
194,TAO2231,2231,龍安國小,文中路一段35號,32,24.99242,121.27288
137,TAO2249,2249,上興公園,上興路182號對面路側,34,25.018738,121.261501
248,TAO2070,2070,環中東永福路口,環中東路325號前人行道,44,24.96203,121.255168
69,TAO2329,2329,龜山長樂公園,長庚路169號對面公園,40,25.056873,121.383066
294,TAO2033,2033,桃園市立圖書館平鎮分館,環南路三段88號右前方人行道,56,24.940031,121.218322
91,TAO2052,2052,中國科技大樓,復興一路361號前方人行道,36,25.05557,121.361496
249,TAO2150,2150,興仁公園,興仁路二段120號對面公園內人行道,48,24.966256,121.263548
226,TAO2295,2295,山頂里集會所,明興街36號旁人行道及路側,36,24.986224,121.33042
293,TAO2091,2091,新寶公園,新富五街41號(左側公園綠帶),34,24.939561,121.214068
196,TAO2225,2225,永定二保定三街89巷口,永定二街保定三街89巷口公園內,32,24.99746,121.298213
197,TAO2142,2142,中正一正康一街口,正康一街1號對面機車停車場,34,24.999637,121.308633
196,TAO2305,2305,復興路大同路200巷口,復興路293號旁停車場,44,24.989177,121.306037
56,TAO2132,2132,華興池,華興路205號對面路側,36,25.059125,121.194852
56,TAO2131,2131,大中華幼兒園,中正三街9號對面空地,34,25.06179,121.201825
383,TAO2219,2219,國軍桃園總醫院,中興路179號對面人行道,36,24.87498,121.23637
197,TAO2035,2035,三民運動公園,三民路一段200號前方人行道,50,25.000577,121.319691
244,TAO2085,2085,中央大學依仁堂,中大路300號(松苑餐廳前方廣場),58,24.967119,121.190958
296,TAO2207,2207,華勛公園,華仁街68巷34號對面公園,38,24.946622,121.261741
251,TAO2174,2174,大勇國小,忠勇街373號對面人行道,44,24.968624,121.303459
294,TAO2082,2082,中壢新興公園,林森路90號前方人行道,36,24.945265,121.22605
248,TAO2028,2028,內壢復興公園,復華街191號對面復興公園旁人行道,40,24.97363,121.248114
315,TAO2303,2303,龍岡停車場,龍東路202號機車停車場,36,24.930088,121.253064
355,TAO2341,2341,大溪永昌宮,仁和路二段190巷27號前方廣場,32,24.904152,121.26523
221,TAO2062,2062,內壢文化公園,文化路長春二路西北側公園旁人行道,42,24.979567,121.250102
238,TAO2279,2279,新屋區公所,中山路267巷1號對面路側,42,24.972532,121.105284
248,TAO2318,2318,中華路一段文化二路口,中華路一段480號前方人行道,50,24.970929,121.253549
248,TAO2151,2151,自立新村(榮安一街),榮安一街自立三街2巷北側人行道,32,24.965432,121.253381
296,TAO2251,2251,至善綠園, 龍昌路32號對面公園,32,24.940354,121.249948
246,TAO2286,2286,六和兒童公園,六和路55號對面公園,32,24.963642,121.224583
269,TAO2034,2034,新勢公園,延平路一段181號對面新勢公園旁人行道,48,24.950692,121.216686
225,TAO2041,2041,桃園市立圖書館大林分館,樹仁二街37號後方人行道,46,24.977812,121.321076
171,TAO2325,2325,光榮光峰路口,光峰路299號旁公園,30,25.006866,121.343263
223,TAO2156,2156,霖園兒童公園,國鼎二街132號(對面公園東側人行道),66,24.986079,121.287879
313,TAO2205,2205,忠愛公園,金陵路二段454巷18號旁公園,34,24.93306,121.22493
169,TAO2186,2186,大檜溪公園,興一街65巷50號(地下停車場出入口旁公園),32,25.013781,121.31682
275,TAO2076,2076,大和休閒廣場,銀和街83號對面公園人行道,36,24.955938,121.298334
169,TAO2112,2112,寶山公園,民有三街517號對面公園旁人行道,34,25.013132,121.313903
272,TAO2285,2285,功學社新村,功學路156號前方空地,30,24.954249,121.256356
195,TAO2054,2054,桃園龍岡公園,國豐一街101號對面龍岡公園旁人行道,34,24.99039,121.281064
87,TAO2338,2338,南美國小,南上路南美街口東北側人行道,34,25.048012,121.296449
284,TAO2255,2255,富岡車站,成功路58號斜對面廣場,32,24.934444,121.082367
315,TAO2273,2273,萬坪公園,龍昌路龍川九街路口旁人行道,36,24.932823,121.249297
63,TAO2232,2232,綠九公園,六福路/六福路247巷路口旁公園,36,25.061109,121.29726
273,TAO2282,2282,中壢仁德公園,崁頂路崁頂路1401巷口旁人行道,38,24.953347,121.266529
137,TAO2230,2230,新福大新一街口,新福街125-127號對面,30,25.02428,121.25673
295,TAO2274,2274,龍興國中,龍勇路100號前方人行道,40,24.937841,121.236378
225,TAO2023,2023,桃園火車站(後站),延平路26號對面人行道,70,24.987795,121.314279
169,TAO2319,2319,春日路民富九街口,春日路618號前方人行道,34,25.007974,121.311688
12,TAO2287,2287,海湖農會,海湖東路77號旁空地,24,25.101066,121.263396
294,TAO2143,2143,平鎮和平公園,莒光路39號對面路側,32,24.947529,121.221136
271,TAO2309,2309,莒光公園 (環中東路),環中東路二段288號前人行道,34,24.948936,121.235966
211,TAO2202,2202,清華高中,中華路658號前方人行道,32,24.981699,121.107716
137,TAO2139,2139,中興環保公園,大興四街61巷及大興四街路口公園內,32,25.016221,121.260268
197,TAO2019,2019,民族公園,汕頭街15號對面民族公園旁人行道,44,24.995946,121.306636
270,TAO2017,2017,中正公園(元化路),元化路197巷對面中正公園旁人行道,40,24.960415,121.2273
168,TAO2044,2044,中寧公園,同德二街177號對面中寧公園旁人行道,32,25.009993,121.29956
248,TAO2048,2048,莊敬廣場,莊敬路38-1號對面自行車停放區,48,24.971851,121.257255
191,TAO2063,2063,萬能科技大學,萬能路1號(萬芳樓後方人行道),60,24.992749,121.229925
198,TAO2065,2065,桃園巨蛋,三民路100號對面人行道,72,24.995393,121.323924
140,TAO2347,2347,同安親子公園,同安街358號對面公園,34,25.017355,121.302291
332,TAO2168,2168,民俗文化公園,上海路及上海路119巷口西南側廣場,38,24.911914,121.206352
199,TAO2120,2120,龜山國小,大同路23號對面人行道,50,24.994765,121.340557
270,TAO2040,2040,信義國小,成都路36號對面人行道,30,24.951017,121.231454
296,TAO2177,2177,金鋒太子,金鋒四街50巷2號對面,30,24.945911,121.248625
221,TAO2115,2115,甲蟲公園,元生二街元生三街口西北側公園旁人行道,36,24.977542,121.252751
189,TAO2101,2101,捷運桃園體育園區站(A19),高鐵南路二段369號對面人行道,30,25.001568,121.202782
249,TAO2029,2029,元智大學,遠東路135號(面元智大學左側人行道),64,24.970346,121.263249
317,TAO2240,2240,溪濱公園,廣興二路廣興五街口旁公園,32,24.933108,121.278891
86,TAO2073,2073,光明河濱公園,光明路二段100號對面路側,36,25.046808,121.287677
55,TAO2129,2129,桃禧航空城酒店,大觀路777號(桃禧航空城酒店園航路側人行道),26,25.061756,121.175354
195,TAO2280,2280,國信公園,國信街1號對面公園,40,24.994389,121.286743
409,TAO2376,2376,三坑自然生態公園,永福段1148地號,32,24.838888,121.25862
314,TAO2050,2050,龍岡森林公園,龍岡路三段289號對面龍岡森林公園旁人行道,44,24.933974,121.235924
168,TAO2109,2109,同新公園,同安街經國路251巷口(東南側人行道),42,25.012389,121.305633
293,TAO2117,2117,新榮公園,振興西路新德街口西北側公園旁人行道,40,24.945991,121.214981
118,TAO2298,2298,大埔國小,振興路1169號前人行道,32,25.030009,121.375351
275,TAO2161,2161,和盛公園,大和路101號對面公園側人行道,34,24.954289,121.296402
330,TAO2278,2278,四維兒童公園,四維二路95號對面公園,32,24.91279,121.18062
169,TAO2171,2171,桃園觀光夜市旅客服務中心,正康三街8號旁停車場,36,25.004089,121.308517
199,TAO2123,2123,大同公園,德明路77巷65號對面公園旁人行道,48,24.989332,121.342481
294,TAO2167,2167,紫雲宮,自忠二街126號對面停車場,34,24.944845,121.222832
251,TAO2087,2087,思源公園,思源街122號(對面公園綠帶),32,24.973517,121.298761
253,TAO2218,2218,大明公園,興隆街2號對面公園,32,24.96875,121.32744
140,TAO2157,2157,家樂福經國店,天祥三街10號對面人行道,44,25.016383,121.30502
119,TAO2096,2096,捷運體育大學站(A7),文化一路688號(捷運站出口前方人行道),32,25.040707,121.385161
373,TAO2217,2217,大溪河濱公園,瑞興段2407地號內停車格,42,24.89212,121.28389
225,TAO2021,2021,桃園延平公園,大豐路187號對面延平公園旁人行道,70,24.980482,121.314998
317,TAO2241,2241,豐德公園,豐田一路87號對面公園,38,24.926655,121.28745
318,TAO2268,2268,八德藝文廣場,瑞發街興豐路825巷口旁空地,30,24.933575,121.299289
140,TAO2299,2299,水汴頭音樂廣場,鹽庫西街70號對面空地,36,25.023323,121.305316
40,TAO2257,2257,菓林國小,菓林里12鄰41號前方人行道,26,25.077668,121.256217
245,TAO2008,2008,光明公園,民權路322號對面停車場,96,24.962812,121.217385
224,TAO2158,2158,玉山公園,南豐二街120號斜前方公園側,34,24.982621,121.301174
317,TAO2349,2349,八德區公所,中山路40號對面人行道,34,24.929308,121.284555
294,TAO2304,2304,平鎮市廿公園,德育路二段104號對向人行道上,40,24.942799,121.218962
225,TAO2045,2045,陽明運動公園,介壽路199號前方人行道,42,24.982285,121.308126
251,TAO2089,2089,大湳公園,福國北街130號(對面公園綠帶),42,24.961775,121.295451
198,TAO2355,2355,桃園市立田徑場,萬壽路二段1379號對面人行道,50,24.99277,121.32457
270,TAO2012,2012,中壢火車站(後站),新興路68-94號對面人行道,106,24.952352,121.224325
197,TAO2013,2013,桃園市立圖書館桃園分館,民權路32號前方人行道,82,24.99304,121.310863
197,TAO2057,2057,成功春日路口,成功路二段春日路口東南側人行道,100,24.994177,121.31713
332,TAO2175,2175,上海南京路口,上海路227號旁人行道,38,24.915815,121.206128
113,TAO2126,2126,峻德宮,奉化路292號旁路側,36,25.036999,121.292555
140,TAO2037,2037,桃園展演中心(中正路),中正路南平路口東南側人行道,42,25.018038,121.298235
168,TAO2039,2039,新埔公園,同安街203號對面人行道,34,25.015195,121.303725
141,TAO2159,2159,會稽國中,大興路222號(面會稽國中校門左側人行道),32,25.016115,121.313437
68,TAO2014,2014,捷運長庚醫院站(A8),文化一路10巷旁停車場前人行道,58,25.060061,121.370974
328,TAO2163,2163,楊明國中,新農街337號(面楊明國中左側人行道),38,24.910546,121.154995
383,TAO2373,2373,中科院石園三村,武漢路100號對面停車格,40,24.870971,121.23472
347,TAO2164,2164,楊梅國中,校前路86號對面人行道,46,24.904093,121.147179
162,TAO2236,2236,青埔國小,新生路四段127號對面人行道,34,25.00662,121.21368
251,TAO2064,2064,中德里休閒廣場,國際一路國際二路口西南側停車場,34,24.962275,121.293209
220,TAO2061,2061,啟英高中,西園路76號對面啟英高中旁人行道,50,24.97561,121.234553
198,TAO2185,2185,山福里集會所,中興路152號旁停車場,32,24.988965,121.331988
23,TAO2361,2361,遠雄自貿港區加值園區,航翔路5號前方廣場,32,25.093612,121.255208
269,TAO2036,2036,復興廣德街口,復興街廣德街口西南側人行道,36,24.954375,121.205035
296,TAO2206,2206,南亞技術學院,中山東路三段414號內機車停車場,32,24.93756,121.25171
113,TAO2281,2281,經國轉運站,水汴頭段14地號園道內,40,25.02986,121.3008
197,TAO2114,2114,青溪公園,自強路217號前方人行道,38,25.000959,121.317024
147,TAO2301,2301,迴龍商場,萬壽路一段122號前人行道,28,25.018473,121.406675
246,TAO2348,2348,老街溪環河步道(環北路),環北路92號旁公園,32,24.9661,121.219325
87,TAO2075,2075,蘆竹吉林公園,吉林路121-137號對面吉林公園旁人行道,44,25.04956,121.299397
162,TAO2365,2365,青埔公10公園,青溪段233地號上人行道,40,25.014404,121.20756
226,TAO2296,2296,臻愛家社區,建國東路31號旁人行道,32,24.987167,121.324152
169,TAO2256,2256,北門國小,大連一街103號對面人行道,36,25.007437,121.306712
248,TAO2253,2253,中鑄公園,中華路一段619巷31號對面公園,32,24.968527,121.250653
317,TAO2267,2267,八德興豐公園,興豐路豐田路路口旁公園,40,24.930484,121.289487
296,TAO2086,2086,桃園市立圖書館龍岡分館,台貿一街100號後方機車停車場,34,24.937936,121.255829
92,TAO2016,2016,大坪頂公園,公園路32號對面大坪頂公園旁人行道,36,25.054611,121.366915
275,TAO2270,2270,大忠停車場,大忠街140號對面人行道,40,24.958435,121.300971
