grid,StopUID,AuthorityID,Bearing,City,StationID,StopAddress,StopName,lat,lng
159,HSZ291842,12,W,Hsinchu,130308,新竹市建功路建功高中候車亭,建功高中,24.797065,121.001682
122,HSZ291373,12,S,Hsinchu,130473,新竹市延平路二段1233巷口,營房口,24.81376,120.92827
125,HSZ291424,12,W,Hsinchu,130580,新竹市湳雅街135號,湳雅,24.81933,120.97246
122,HSZ291379,12,N,Hsinchu,130449,新竹市延平路二段1580號,冠軍廠,24.82428,120.92735
140,HSZ291757,12,E,Hsinchu,130174,新竹市中山路,中山路,24.80101,120.95948
158,HSZ303581,12,S,Hsinchu,138616,新竹市東區光復路二段101號人社院,生科館(人社院),24.789443,120.989571
175,HSZ303838,12,S,Hsinchu,138788,新竹市東區新安路,交大南大門,24.783541,120.996392
157,HSZ295449,12,N,Hsinchu,132689,新竹市高峰路65號,聖經書院,24.79279,120.97316
159,HSZ291242,12,S,Hsinchu,130209,新竹市光復路二段354號對面(候車亭),清華大學,24.79631,120.99745
104,HSZ291375,12,N,Hsinchu,130453,新竹市延平路三段206-1號,三德,24.83158,120.92913
176,HSZ303833,12,S,Hsinchu,138783,新竹市東區介壽路,金山街口,24.778178,121.018622
141,HSZ291512,12,S,Hsinchu,130523,新竹市西大路412號,西門市場,24.80322,120.96477
142,HSZ291679,12,N,Hsinchu,130381,新竹市東光路59號對面,二分局,24.80324,120.98695
157,HSZ303606,12,E,Hsinchu,132732,新竹市東區南大路371號,西大路,24.79686,120.968616
142,HSZ303597,12,N,Hsinchu,130245,新竹市東區東山路,學園商場,24.798593,120.978028
143,HSZ291682,12,E,Hsinchu,130595,新竹市建功一路85號對面,公學新城,24.80149,120.99616
125,HSZ291403,12,N,Hsinchu,130568,新竹市水田街152號,水田,24.81582,120.96778
142,HSZ296982,12,E,Hsinchu,130207,新竹市光復路二段167號,海軍新村,24.79938,120.99227
125,HSZ291664,12,E,Hsinchu,130182,新竹市光華北街6號對面,光華國中,24.81805,120.97426
146,HSZ297013,12,S,Hsinchu,130969,新竹縣竹北市高鐵七路6號,高鐵新竹站,24.80743,121.04027
140,HSZ291334,12,W,Hsinchu,130407,新竹市中山路318號,西門派出所,24.8017,120.96079
122,HSZ291368,12,N,Hsinchu,130445,新竹市延平路二段1260巷口,海口,24.81548,120.92891
125,HSZ291602,12,W,Hsinchu,130620,新竹市金竹路131號對面,金竹路,24.82401,120.97213
154,HSZ293703,12,E,Hsinchu,131807,新竹市大庄路215號,瑞光街口,24.79293,120.92358
154,HSZ300409,12,W,Hsinchu,136418,新竹市東區,大庄里活動中心,24.793056,120.920795
141,HSZ296967,12,S,Hsinchu,133841,新竹市中正路107號,地方法院,24.80757,120.96778
157,HSZ295483,12,W,Hsinchu,132729,新竹市南大路706巷對面,忠孝社區,24.79149,120.96409
141,HSZ298901,12,E,Hsinchu,135394,新竹市中華路二段518號對面,新竹下站,24.80047,120.96938
160,HSZ291618,12,W,Hsinchu,130361,新竹市裕民路24號,民享一站,24.78496,121.00893
174,HSZ303842,12,S,Hsinchu,138792,新竹市東區高翠路156號,下路北,24.781686,120.987838
159,HSZ296999,12,E,Hsinchu,133850,新竹市光復路二段296號,文教新村,24.79542,120.99878
156,HSZ291551,12,E,Hsinchu,130141,新竹市中華路三段73號,林森路口,24.79697,120.961855
141,HSZ295864,12,E,Hsinchu,133025,新竹市南大路345號,竹蓮街,24.79768,120.96949
156,HSZ293717,12,W,Hsinchu,130114,新竹市中華路三段73號,林森路口,24.79678,120.96155
145,HSZ297014,12,E,Hsinchu,133856,新竹縣文興路一段372號,文興嘉豐南路口,24.80876,121.03186
141,HSZ291420,12,W,Hsinchu,130329,新竹市北大路140巷口,北大橋,24.81034,120.96862
160,HSZ303830,12,S,Hsinchu,138782,新竹市東區關新路55號,關新公園,24.785827,121.018707
160,HSZ291239,12,E,Hsinchu,130215,新竹市光復路一段505號,科學園區別墅,24.78458,121.01426
174,HSZ303809,12,N,Hsinchu,132232,新竹市東區高峰路386巷60弄,古奇峰,24.778906,120.979719
129,HSZ297003,12,E,Hsinchu,130857,新竹縣文興路一段20號,文興嘉興路口,24.81284,121.02393
176,HSZ291258,12,W,Hsinchu,130227,新竹市光復路一段340號,仙水,24.7829,121.01873
140,HSZ291588,12,E,Hsinchu,130357,新竹市牛埔路153號,埔羌圍,24.80005,120.9509
176,HSZ303826,12,W,Hsinchu,138779,新竹市東區光復路一段283號,世界高中,24.782252,121.020146
159,HSZ291274,12,W,Hsinchu,130233,新竹市光復路二段100號(建軍停車場前),過溝,24.79276,121.00237
174,HSZ291868,12,E,Hsinchu,130546,新竹市高翠路217號,高翠,24.78012,120.98697
175,HSZ303818,12,N,Hsinchu,132241,新竹市東區新安路,同步輻射中心,24.783587,120.994429
141,HSZ298893,12,W,Hsinchu,130386,新竹市中央路109號,美術館,24.80638,120.96968
138,HSZ291365,12,E,Hsinchu,130428,新竹市延平路二段708號對面,罟寮,24.80593,120.92199
173,HSZ295505,12,W,Hsinchu,132720,新竹市明湖路920巷口斜對面,黃帝神宮,24.77117,120.97107
156,HSZ293704,12,E,Hsinchu,130140,新竹市中華路四段30號,農會,24.79658,120.95457
141,HSZ291322,12,E,Hsinchu,130107,新竹市中山路57號,城隍廟,24.80534,120.96645
125,HSZ291506,12,W,Hsinchu,130327,新竹市北大路52號,曙光女中,24.81265,120.97247
154,HSZ291555,12,W,Hsinchu,130134,新竹市元培街香山國中大門口對面,香山高中,24.78518,120.9306
157,HSZ295441,12,E,Hsinchu,132690,新竹市食品路238號,竹蓮國小,24.79623,120.97473
154,HSZ291562,12,W,Hsinchu,130342,新竹市香北路108號,大庄里,24.79174,120.92732
170,HSZ291543,12,S,Hsinchu,130122,新竹市元培街207對面,隘口,24.78273,120.93301
86,HSZ291461,12,S,Hsinchu,130505,新竹市東大路四段21號,里辦公處,24.841265,120.936121
85,HSZ291454,12,E,Hsinchu,130502,新竹市東大路四段161號,上南寮,24.84422,120.93074
158,HSZ291865,12,W,Hsinchu,130549,新竹市寶山路375號,雞蛋面,24.78739,120.98592
139,HSZ291575,12,W,Hsinchu,130334,新竹市牛埔路294號,新東藥廠,24.80011,120.94663
139,HSZ291587,12,E,Hsinchu,130354,新竹市牛埔路365號,重義橋,24.79804,120.9436
159,HSZ291295,12,E,Hsinchu,130265,新竹市建功高幹AE89號電桿對面,建功高中,24.796959996,121.0012749135
154,HSZ298912,12,N,Hsinchu,135399,新竹市元培街60巷口對面路燈編號141003,三姓橋火車站,24.78656,120.92948
139,HSZ293710,12,N,Hsinchu,131841,新竹市牛埔東路192巷21號,中埔里,24.79747,120.94495
142,HSZ291663,12,N,Hsinchu,130188,新竹市民生路62號對面,民生民族路口,24.80853,120.97843
157,HSZ295877,12,E,Hsinchu,133023,新竹市南大路445號,新竹國小,24.79611,120.96689
154,HSZ300408,12,E,Hsinchu,136417,新竹市東區,大庄里活動中心,24.792973,120.920803
126,HSZ291487,12,S,Hsinchu,130320,新竹市經國路一段442巷25號(候車亭),台大醫院新竹分院,24.81566,120.98053
129,HSZ297004,12,W,Hsinchu,130856,新竹縣文興路一段19號,文興嘉興路口,24.81272,121.02408
140,HSZ291310,12,W,Hsinchu,130088,新竹市延平路一段128、130號交界處,監獄邊,24.80432,120.95728
125,HSZ291462,12,E,Hsinchu,130520,新竹市東大路二段283號,武陵路口,24.81769,120.96354
140,HSZ291356,12,S,Hsinchu,130441,新竹市北大路西門國小門口(候車亭),西門國小,24.80244,120.96003
141,HSZ295436,12,W,Hsinchu,132662,新竹市南大路151、153號對面,警察宿舍,24.800232,120.973903
174,HSZ295432,12,W,Hsinchu,132671,新竹市高翠路210巷口,高翠,24.78032,120.98713
157,HSZ291519,12,E,Hsinchu,130528,新竹市西大路12號,高峰路口,24.7943,120.97303
159,HSZ293673,12,E,Hsinchu,131863,新竹市建功路建功高中候車亭,建功高中,24.79703,121.00128
158,HSZ291517,12,E,Hsinchu,130532,新竹市寶山路310號巷口對面,苗圃,24.78837,120.98202
142,HSZ295506,12,E,Hsinchu,132739,新竹市公園路82巷口旁(單邊),大潤發2站,24.805897,120.983924
105,HSZ291451,12,W,Hsinchu,130488,新竹市東大路三段357巷口對面,輕便車站,24.83651,120.94368
142,HSZ296979,12,E,Hsinchu,130205,新竹市光復路二段321號,工研院光復院區,24.8002,120.98913
159,HSZ291280,12,E,Hsinchu,130254,新竹市大學路1001號（行政大樓前）,交大光復校區,24.78831,120.99941
142,HSZ293779,12,W,Hsinchu,131890,新竹市忠孝路300號,大潤發1站,24.80427,120.98434
142,HSZ291703,12,W,Hsinchu,131831,新竹市水源街29號,馬偕醫院,24.80042,120.99128
143,HSZ291723,12,W,Hsinchu,130378,新竹市千甲路64號對面,水源,24.80679,120.99866
160,HSZ297001,12,S,Hsinchu,130841,新竹市慈雲路與埔頂路口西南側慈雲路上第二和第三支燈桿中間之小路燈旁,好市多,24.79374,121.0128
138,HSZ291364,12,E,Hsinchu,130429,新竹市延平路二段與浸水北街交叉口,香雅橋,24.80406,120.9259
141,HSZ291772,12,W,Hsinchu,130249,新竹市中央路146號,親仁里,24.807445,120.971667
85,HSZ291377,12,E,Hsinchu,130457,新竹市延平路三段490巷口,中寮,24.83879,120.93288
141,HSZ303599,12,E,Hsinchu,137274,新竹市東區東南街1巷,新竹轉運站,24.801274,120.972613
177,HSZ293676,12,W,Hsinchu,131873,新竹市光復路一段89巷141號,華清社區,24.77822,121.02544
177,HSZ291231,12,W,Hsinchu,130222,新竹縣竹東鎮竹中路135號,竹中,24.78114,121.03033
141,HSZ291236,12,E,Hsinchu,130197,新竹市東大路10號對面(候車亭),東門國小,24.80624,120.97335
126,HSZ295572,12,W,Hsinchu,132771,新竹市中華路一段2巷141號對面,前溪社區,24.81521,120.98657
141,HSZ295451,12,E,Hsinchu,132692,新竹市南大路139巷口旁,警察宿舍,24.80051,120.974456
125,HSZ291488,12,E,Hsinchu,130314,新竹市北大路13號,田美一站,24.81349,120.97367
141,HSZ291405,12,N,Hsinchu,130081,新竹市中正路26號,火車站,24.803816,120.971015
141,HSZ299150,12,N,Hsinchu,130195,新竹市北區民族路16號,火車站(民族路),24.803407,120.971855
158,HSZ302067,12,E,Hsinchu,137672,新竹市高峰路221巷1弄路口附近,煙波庭,24.784813,120.980323
142,HSZ291678,12,S,Hsinchu,130747,新竹市東光路59號,二分局,24.80349,120.98691
125,HSZ291401,12,E,Hsinchu,130570,新竹市湳雅街7-8號大潤發對面,大潤發,24.81761,120.97054
141,HSZ298894,12,E,Hsinchu,135388,新竹市中央路112號,美術館,24.80638,120.96984
124,HSZ294532,12,W,Hsinchu,132292,新竹市竹光路108號,竹光2站,24.81347,120.95929
142,HSZ291225,12,N,Hsinchu,130203,新竹市學府路與博愛街交叉口(候車亭),水源地,24.79779,120.98582
141,HSZ295465,12,W,Hsinchu,132697,新竹市南大路130號,後站(公園路口),24.80152,120.97568
177,HSZ291261,12,W,Hsinchu,130223,新竹縣竹東鎮竹中路49號,竹中口,24.78094,121.02856
188,HSZ295471,12,N,Hsinchu,133005,新竹市東香路美城高幹9號電桿,富群街口,24.76747,120.96084
141,HSZ291333,12,W,Hsinchu,130406,新竹市中山路170號,西門市場,24.80373,120.96377
125,HSZ291605,12,S,Hsinchu,130622,新竹市武陵路189號(候車亭),荷蘭村,24.82203,120.96945
141,HSZ296966,12,N,Hsinchu,133840,新竹市北大路143號,北大橋,24.80987,120.96807
125,HSZ291470,12,S,Hsinchu,130603,新竹市中正路223巷口,中正經國路口,24.811628,120.964902
140,HSZ291759,12,E,Hsinchu,130175,新竹市中山路203號,西門口,24.802448,120.962188
141,HSZ291354,12,E,Hsinchu,130443,新竹市中山路147號,西門市場,24.80367,120.96375
143,HSZ291726,12,E,Hsinchu,130371,新竹市公道五路二段101號旁,交流道口,24.79873,121.00603
177,HSZ291278,12,W,Hsinchu,130224,新竹市光復路一段38號,關東新村,24.7813,121.02554
142,HSZ302735,12,E,Hsinchu,138107,新竹市東區八德路55號旁,北新竹後站,24.807501,120.984551
187,HSZ300379,12,E,Hsinchu,132800,新竹市五福路二段615號(新竹市路燈編號15202)對面,茄苳湖,24.75773,120.94813
141,HSZ291857,12,N,Hsinchu,130558,新竹市西大路412號,西門市場,24.8031,120.96478
141,HSZ291553,12,E,Hsinchu,130143,新竹市中華路二段593號,南門市場,24.799623,120.967744
141,HSZ302069,12,E,Hsinchu,137274,新竹市東區南大路143號旁,新竹轉運站,24.801228,120.972854
171,HSZ291531,12,E,Hsinchu,130125,新竹市元培街306號（元培街元培醫專大門口）,元培科技大學,24.77811,120.94012
142,HSZ291246,12,N,Hsinchu,130204,新竹市學府路393-1號(候車亭),學府路口,24.80048,120.98692
176,HSZ291619,12,S,Hsinchu,130362,新竹市民享街64號,民享二站,24.78383,121.00944
175,HSZ303835,12,W,Hsinchu,138785,新竹市東區科園里,科技生活館,24.779819,121.00537
124,HSZ291442,12,E,Hsinchu,130178,新竹市武陵路10號,國軍新竹地區醫院,24.81575,120.96258
139,HSZ291586,12,E,Hsinchu,130355,新竹市牛埔路350號對面,明月香榭,24.79874,120.9448
122,HSZ291394,12,S,Hsinchu,130470,新竹市延平路二段1420巷口對面,南油車港,24.82037,120.92792
125,HSZ302630,12,E,Hsinchu,130181,新竹市湳雅街89號旁,湳雅公園(大潤發),24.81947,120.96889
160,HSZ291626,12,N,Hsinchu,130366,新竹市光復路二段174號,龍山社區口,24.78666,121.01011
139,HSZ291327,12,W,Hsinchu,130412,新竹市延平路一段488號,大鵬二村,24.80513,120.94628
176,HSZ293793,12,W,Hsinchu,130227,新竹市光復路一段340號,仙水,24.782938,121.018688
104,HSZ291389,12,S,Hsinchu,130464,新竹市延平路三段206號對面（與港北二街口）,三德,24.83166,120.92897
141,HSZ295479,12,E,Hsinchu,132733,新竹市南大路345號,竹蓮街,24.79768,120.96949
125,HSZ291496,12,W,Hsinchu,130328,新竹市北大路94號,水利局,24.81129,120.97019
157,HSZ303611,12,W,Hsinchu,132703,新竹市東區南大路582號,清大南大校區,24.794123,120.963953
174,HSZ291872,12,S,Hsinchu,130542,新竹市高峰路399號,青峰路口,24.77963,120.98144
85,HSZ291475,12,E,Hsinchu,130503,新竹市東大路四段119號,蝦仔埔,24.84349,120.932
189,HSZ295466,12,S,Hsinchu,132711,新竹市明湖路674號,柴橋,24.77001,120.96642
177,HSZ293672,12,N,Hsinchu,131872,新竹市東區公道五路三段對向(公車彎),金山公園,24.776395,121.025025
154,HSZ291578,12,N,Hsinchu,130345,新竹市大庄路27號,三姓橋一站,24.78909,120.92833
176,HSZ303827,12,N,Hsinchu,138780,新竹市東區光復路一段340號,仙水,24.782939,121.018562
138,HSZ291345,12,W,Hsinchu,130421,新竹市延平路二段708號,罟寮,24.80583,120.9222
141,HSZ291307,12,W,Hsinchu,130083,新竹市中山路57號,城隍廟,24.80502,120.96627
171,HSZ291544,12,W,Hsinchu,130132,新竹市元培街226-6號對面,土地公廟,24.77955,120.93582
155,HSZ291758,12,W,Hsinchu,130194,牛埔東路192巷口旁,香山國小,24.79695,120.94569
140,HSZ291305,12,S,Hsinchu,130086,新竹市北大路404號,服務中心,24.80413,120.96069
174,HSZ295420,12,S,Hsinchu,132670,新竹市高翠路166-1號,下路北,24.78171,120.98783
85,HSZ291428,12,W,Hsinchu,130495,新竹市東大路四段206號,上南寮,24.84427,120.93044
177,HSZ293680,12,W,Hsinchu,131874,新竹市光復路一段89巷35號,新科國中,24.78031,121.02425
190,HSZ295498,12,N,Hsinchu,132716,新竹市花園新城街對面路口(單邊),花園新城,24.76761,120.9791
141,HSZ291311,12,W,Hsinchu,130080,新竹市中華路二段471號,總站,24.80124,120.9706
142,HSZ293683,12,E,Hsinchu,131852,新竹市食品路57號對面(塗銷29.30停車格),體育館,24.79918,120.97969
138,HSZ291346,12,N,Hsinchu,130422,新竹市延平路二段738巷口,罟寮一站,24.80684,120.92155
125,HSZ291889,12,W,Hsinchu,130389,新竹市中正路225-1號,中正經國路口,24.811426,120.964993
141,HSZ291406,12,E,Hsinchu,130310,新竹市北大路教堂斜對面,北大教堂,24.80926,120.96726
174,HSZ291514,12,N,Hsinchu,130540,新竹市高峰路399號,青峰路口,24.77958,120.98144
141,HSZ293715,12,W,Hsinchu,131833,新竹市民族路40-1號,東區區公所,24.80521,120.97305
190,HSZ295507,12,S,Hsinchu,132717,新竹市花園新城街對面路口(單邊),花園新城,24.76765,120.97924
127,HSZ295578,12,S,Hsinchu,132769,新竹市中華路一段78巷口,經國路口,24.81766,120.99453
141,HSZ291740,12,N,Hsinchu,130081,新竹市中正路26號,火車站,24.803691,120.971049
139,HSZ291337,12,W,Hsinchu,130417,新竹市延平路二段294號,虎山,24.80745,120.93524
141,HSZ303600,12,E,Hsinchu,132735,新竹市東區南大路139巷4-2,警察宿舍,24.800468,120.974472
140,HSZ291323,12,E,Hsinchu,130105,新竹市北大路325號,棒球場,24.80623,120.96172
172,HSZ295476,12,E,Hsinchu,133008,新竹市新香街354號對面,觀日大地,24.77693,120.96102
124,HSZ294531,12,W,Hsinchu,132291,新竹市竹光路60號,竹光1站,24.81406,120.96033
174,HSZ295421,12,W,Hsinchu,132674,新竹市高峰路440號對面,土雞城,24.77855,120.98229
104,HSZ291396,12,S,Hsinchu,130463,新竹市延平路三段281號,草厝,24.83344,120.92961
124,HSZ291476,12,S,Hsinchu,130516,新竹市東大路二段627號,士林里,24.82324,120.95824
155,HSZ291533,12,W,Hsinchu,130119,新竹市中華路四段470號台玻大門前,台灣玻璃,24.79111,120.9374
158,HSZ303840,12,S,Hsinchu,138790,新竹市東區寶山路452巷,仙宮里,24.784273,120.990529
173,HSZ295854,12,S,Hsinchu,133001,新竹市明湖路484號,客運補習班,24.78033,120.9673
125,HSZ291674,12,N,Hsinchu,130180,新竹市武陵路154號,湳中街口,24.818781,120.967141
154,HSZ298913,12,N,Hsinchu,135400,新竹市元培街124號對面,香山高中,24.78518,120.9306
140,HSZ291300,12,W,Hsinchu,130087,新竹市延平路一段92號,新竹監獄,24.80372,120.95924
142,HSZ291252,12,E,Hsinchu,130246,新竹市公園路麗池公園旁(候車亭),公園,24.80227,120.97838
159,HSZ296989,12,E,Hsinchu,130211,新竹市光復路二段3號,過溝,24.79201,121.00312
141,HSZ298900,12,W,Hsinchu,135393,新竹市中華路二段518號,新竹下站,24.80067,120.96925
85,HSZ291474,12,E,Hsinchu,130501,新竹市東大路四段233號,漁港口,24.84486,120.92903
142,HSZ291704,12,E,Hsinchu,131828,新竹市水源街29號對面,馬偕醫院,24.80042,120.99143
159,HSZ296987,12,E,Hsinchu,130210,新竹市光復路二段190號對面,金城新村口,24.79382,121.00045
104,HSZ291398,12,N,Hsinchu,130467,新竹市西濱路一段6號,港北橋,24.82594,120.92747
155,HSZ293716,12,N,Hsinchu,131840,新竹市東華路20號對面,東華路,24.79448,120.94536
141,HSZ291763,12,E,Hsinchu,130196,新竹市中央路146號,親仁里,24.807501,120.971544
142,HSZ291240,12,E,Hsinchu,130207,新竹市光復路二段163號,海軍新村,24.79931,120.99223
176,HSZ303834,12,S,Hsinchu,138784,新竹市東區介壽路300號,實驗中學,24.776614,121.016998
125,HSZ291494,12,W,Hsinchu,130316,新竹市光華南街56號,金華大樓,24.8166,120.97309
158,HSZ291272,12,W,Hsinchu,130243,新竹市學府路36號對面,新竹高中,24.79572,120.98103
143,HSZ291693,12,N,Hsinchu,130591,新竹市建功一路86巷,孟竹國宅,24.79996,120.99735
141,HSZ291888,12,N,Hsinchu,130388,新竹市中正路175-1號,鄭氏家廟,24.810238,120.965835
141,HSZ293711,12,S,Hsinchu,131834,新竹市中正路28號,火車站,24.80328,120.97131
170,HSZ298914,12,N,Hsinchu,130133,新竹市元培街209號,隘口,24.78274,120.93298
158,HSZ291244,12,E,Hsinchu,130202,新竹市學府路128號,新竹高商,24.79691,120.98453
86,HSZ291390,12,W,Hsinchu,130459,新竹市天府路一段440號,上寮,24.83921,120.93452
171,HSZ291528,12,E,Hsinchu,130123,新竹市元培街233號對面,土地公廟,24.77946,120.93602
143,HSZ291737,12,S,Hsinchu,130379,新竹市水源街竹市路燈28175號桿,愛買2站,24.80417,120.9935
158,HSZ303586,12,E,Hsinchu,132668,新竹市東區寶山路,雞蛋面,24.787007,120.986317
155,HSZ293695,12,S,Hsinchu,131817,新竹市東華路20號,東華路,24.79442,120.9453
141,HSZ295462,12,W,Hsinchu,132699,新竹市南大路260號,東南街口,24.79945,120.97261
157,HSZ295474,12,W,Hsinchu,132702,新竹市新竹國小候車亭,新竹國小,24.795817,120.966867
140,HSZ291362,12,E,Hsinchu,130438,新竹市延平路一段357號,南勢,24.80505,120.94991
153,HSZ294558,12,E,Hsinchu,132312,新竹市中華路五段208巷64號,聖公宮,24.785483,120.91849
140,HSZ301953,12,W,Hsinchu,137589,新竹市經國路二段298號,經國西大路口,24.80868,120.95917
126,HSZ291631,12,W,Hsinchu,130157,新竹市鐵道路二段署立醫院98電桿旁,台大新竹分院,24.81568,120.98003
122,HSZ291393,12,S,Hsinchu,130468,新竹市延平路二段1589號,冠軍廠,24.82419,120.92712
160,HSZ291702,12,W,Hsinchu,130588,新竹市埔頂路149號,埔頂庄,24.79468,121.00902
141,HSZ291701,12,W,Hsinchu,130386,新竹市中央路116號,美術館,24.80638,120.96984
125,HSZ291415,12,W,Hsinchu,130581,新竹市湳雅街7-8號大潤發邊,大潤發,24.81769,120.97051
142,HSZ293656,12,E,Hsinchu,131805,新竹市忠孝路178號對面,新光路口,24.80445,120.99043
126,HSZ298891,12,E,Hsinchu,135386,新竹市中央路三民公園,三民國中,24.81141,120.97955
124,HSZ291612,12,S,Hsinchu,130625,新竹市武陵路20號對面空軍醫院,成功路口,24.81509,120.95559
143,HSZ291735,12,W,Hsinchu,130376,新竹市千甲路219號,原興路口,24.80782,121.0052
174,HSZ303810,12,N,Hsinchu,132233,新竹市東區高峰路392號,青峰路口,24.779638,120.981327
85,HSZ291391,12,W,Hsinchu,130460,新竹市延平路三段512號（與市延平路三段515巷口）,中寮,24.83877,120.93285
160,HSZ291688,12,W,Hsinchu,130587,新竹市埔頂路267號,好市多,24.79424,121.01195
140,HSZ291629,12,W,Hsinchu,130168,新竹市中和路18號,天公壇,24.8006,120.95779
141,HSZ295855,12,W,Hsinchu,132989,新竹市南大路130號,後站(公園路口),24.80152,120.97568
125,HSZ291408,12,N,Hsinchu,130567,新竹市東大路二段110號,北門國小,24.81451,120.96712
125,HSZ291505,12,E,Hsinchu,130324,新竹市光華南街72號對面,金華大樓,24.816524,120.972203
171,HSZ291538,12,E,Hsinchu,130124,新竹市元培街264號,香山坑,24.77845,120.93817
156,HSZ293696,12,E,Hsinchu,130141,新竹市中華路三段84號,林森路口,24.79697,120.96185
125,HSZ291503,12,W,Hsinchu,130322,新竹市光華東一街11號,地政事務所,24.8172,120.97607
173,HSZ295491,12,N,Hsinchu,133013,新竹市柴橋路128號對面,深湖,24.77046,120.96591
141,HSZ291686,12,W,Hsinchu,130385,新竹市中央路214號,巨城購物,24.80922,120.97569
157,HSZ295468,12,W,Hsinchu,132703,新竹市南大路580號,清大南大校區,24.794009,120.963928
158,HSZ295431,12,E,Hsinchu,132667,新竹市寶山路高峰植物園旁,高峰植物園,24.78839,120.98204
174,HSZ303841,12,S,Hsinchu,138791,新竹市東區寶山路452巷8弄,仙宮里活動中心,24.783535,120.989827
157,HSZ303609,12,W,Hsinchu,132702,新竹市東區南大路502-1號,新竹國小,24.795384,120.965884
155,HSZ291546,12,E,Hsinchu,130138,新竹市中華路四段(東華路與中華路交叉口),中埔口,24.79362,120.94552
142,HSZ291255,12,S,Hsinchu,130241,新竹市學府路與博愛街交叉口對面,水源地,24.79781,120.98566
85,HSZ291438,12,N,Hsinchu,130498,新竹市南寮街82號,南寮,24.84744,120.92873
140,HSZ291297,12,S,Hsinchu,130089,新竹市經國路二段532號(陸橋下與延平路交叉口),三廠,24.80461,120.95534
140,HSZ291745,12,W,Hsinchu,130100,新竹市中和路120巷口,台貿四村,24.8019216856,120.955485383
174,HSZ303846,12,S,Hsinchu,138796,新竹市東區高峰路441號,土雞城,24.778569,120.98222
138,HSZ291331,12,N,Hsinchu,130424,新竹市延平路二段865巷口對面,瓦厝,24.80991,120.92419
160,HSZ291238,12,E,Hsinchu,130212,新竹市光復路一段台電變電所對面,科學園區,24.78824,121.00835
159,HSZ291837,12,W,Hsinchu,130266,新竹市建功路31號,文教新村,24.79671,120.999276
171,HSZ300628,12,W,Hsinchu,132806,新竹市元培街371號,獅頭橋,24.77634,120.94354
174,HSZ291870,12,S,Hsinchu,130544,新竹市高峰路500號,高峰,24.77746,120.98311
154,HSZ293725,12,W,Hsinchu,131850,新竹市大庄路240號,瑞光街口,24.79304,120.92347
141,HSZ303598,12,W,Hsinchu,137273,新竹市東區東南街1巷,新竹轉運站,24.801274,120.972613
175,HSZ303820,12,N,Hsinchu,132243,新竹市東區展業二路12號,漢威光電,24.783478,120.99987
125,HSZ291400,12,E,Hsinchu,130573,新竹市湳雅街254號,土地廟,24.82284,120.97667
124,HSZ291672,12,E,Hsinchu,130178,新竹市武陵路10號,國軍新竹地區醫院,24.815754,120.962591
157,HSZ303610,12,E,Hsinchu,132730,新竹市東區南大路,清大南大校區,24.793652,120.963513
157,HSZ303592,12,S,Hsinchu,130530,新竹市東區寶山路,介壽山口,24.792084,120.975476
125,HSZ291446,12,N,Hsinchu,130476,新竹市中正路332號,中正城北街口,24.81347,120.96342
140,HSZ291657,12,N,Hsinchu,130169,新竹市經國路二段,大鵬新城,24.80329,120.9538
157,HSZ291858,12,W,Hsinchu,130556,新竹市西大路148號,南大路口,24.79688,120.96967
124,HSZ291449,12,N,Hsinchu,130481,新竹市東大路二段632號,士林里,24.82296,120.95839
154,HSZ291561,12,E,Hsinchu,130343,新竹市大庄路56-5號,大同磁器,24.79025,120.92735
155,HSZ302323,12,W,Hsinchu,137882,新竹市育德街135號對面右側（停車場告示牌旁）,香山行政大樓,24.79421,120.94293
159,HSZ291271,12,W,Hsinchu,130236,新竹市光復路二段296號,清華大學,24.79645,120.99747
141,HSZ291235,12,N,Hsinchu,130082,新竹市中正路84號,東門市場,24.80521,120.96964
155,HSZ291552,12,E,Hsinchu,130135,新竹市中華路四段567巷口,金山園,24.7905,120.93407
141,HSZ291665,12,N,Hsinchu,130084,新竹市西大路456號,西門市場,24.80438,120.96385
125,HSZ291412,12,E,Hsinchu,130572,新竹市湳雅街176巷口,鄭厝,24.82126,120.97464
142,HSZ291275,12,S,Hsinchu,130240,新竹市學府路441號巷口對面,學府路口,24.80024,120.98672
125,HSZ291499,12,W,Hsinchu,130326,新竹市北大路22號,田美一站,24.81324,120.97356
158,HSZ291524,12,S,Hsinchu,130534,新竹市高翠路6-1號對面,翠壁岩寺,24.78569,120.98804
124,HSZ291445,12,W,Hsinchu,130478,新竹市東大路二段載熙國小旁,載熙國小,24.81929,120.96261
143,HSZ291692,12,S,Hsinchu,130596,新竹市建功一路49巷,孟竹國宅,24.79953,120.99739
125,HSZ291705,12,E,Hsinchu,130390,新竹市經國路一段776號,國華街口,24.81399,120.97034
141,HSZ293718,12,W,Hsinchu,130112,新竹市中華路二段593號,南門市場,24.79965,120.96791
157,HSZ291511,12,S,Hsinchu,130529,新竹市寶山路29號,竹蓮市場,24.79368,120.97393
138,HSZ291352,12,W,Hsinchu,130425,新竹市延平路二段865巷口,瓦厝,24.81006,120.92426
141,HSZ303601,12,W,Hsinchu,132698,新竹市東區南大路172號,警察宿舍,24.800769,120.974621
141,HSZ295847,12,W,Hsinchu,132992,新竹市南大路378號,竹蓮街,24.79795,120.97011
154,HSZ298910,12,E,Hsinchu,135397,新竹市中華路四段617號,竹興公司,24.78944,120.93201
143,HSZ291732,12,E,Hsinchu,130372,新竹市東美路122-1號,東美路,24.80177,121.00325
155,HSZ293720,12,S,Hsinchu,131842,新竹市牛埔路391號,香山區公所,24.79716,120.9421
141,HSZ291741,12,N,Hsinchu,130082,新竹市中正路84號,東門市場,24.805219,120.969633
188,HSZ298920,12,W,Hsinchu,135405,中華大學側門停車場內,中華大學宿舍,24.7579,120.95015
157,HSZ291522,12,E,Hsinchu,130526,新竹市西大路106號,新竹青果,24.79631,120.9705
142,HSZ291241,12,E,Hsinchu,130206,新竹市光復路二段257號,馬偕醫院,24.79999,120.99036
174,HSZ303847,12,S,Hsinchu,138797,新竹市東區高峰路413號,青峰路口,24.779665,120.981485
154,HSZ291582,12,N,Hsinchu,130349,新竹市牛埔南路171-3號,吉悌,24.79435,120.93248
143,HSZ296984,12,W,Hsinchu,130237,新竹市光復路二段151號對面,光復中學,24.79824,120.99479
141,HSZ296969,12,N,Hsinchu,130082,新竹市中正路90號,東門市場,24.805562,120.96938
140,HSZ291355,12,E,Hsinchu,130442,新竹市中山路257號,西門派出所,24.80168,120.96103
174,HSZ295429,12,N,Hsinchu,132673,新竹市高翠路491號,高峰,24.77763,120.98307
157,HSZ291527,12,S,Hsinchu,130559,新竹市建華街上東南街巷口附近,建華國中,24.794295,120.976229
175,HSZ303836,12,W,Hsinchu,138786,新竹市東區展業一路,同業公會,24.782379,121.002049
142,HSZ302780,12,E,Hsinchu,138107,新竹市東區八德路55號旁,北新竹後站,24.807501,120.984551
105,HSZ291467,12,E,Hsinchu,130512,新竹市東大路三段221、223號中間,苦苓腳,24.83373,120.94743
140,HSZ291320,12,N,Hsinchu,130104,新竹市北大路373號,服務中心,24.80441,120.96084
173,HSZ295488,12,N,Hsinchu,132722,新竹市明湖路666號對面,柴橋,24.774,120.96667
125,HSZ291418,12,S,Hsinchu,130582,新竹市水田街139號,水田尾,24.81632,120.96871
141,HSZ296970,12,S,Hsinchu,130109,新竹市中正路19號,火車站,24.80332,120.9711
141,HSZ291319,12,S,Hsinchu,130106,新竹市西大路429號,西門市場,24.80415,120.96402
125,HSZ291495,12,E,Hsinchu,130313,新竹市北大路61號,曙光女中,24.81231,120.97228
160,HSZ291269,12,W,Hsinchu,130229,新竹市光復路一段440號,科學園區別墅,24.78473,121.014
189,HSZ295469,12,S,Hsinchu,133004,新竹市柴橋路132巷口,深湖,24.77001,120.96642
125,HSZ291489,12,N,Hsinchu,130315,新竹市光華東街18號,田美二站,24.81511,120.97421
159,HSZ291695,12,S,Hsinchu,130597,新竹市建功一路15號,忠貞新村,24.79707,120.99812
155,HSZ291563,12,S,Hsinchu,130144,新竹市牛埔路446號,牛埔,24.79716,120.9421
126,HSZ291713,12,N,Hsinchu,130383,新竹市自由路34號,監理站,24.8114,120.98225
160,HSZ303828,12,N,Hsinchu,138781,新竹市關新路,關新公園,24.78579,121.018911
160,HSZ291224,12,E,Hsinchu,130216,新竹市光復路一段421號,日光燈,24.7841,121.01612
125,HSZ291606,12,N,Hsinchu,130180,新竹市武陵路154號,湳中街口,24.81878,120.96714
125,HSZ291927,12,W,Hsinchu,130162,新竹市武陵路41號,武陵社區,24.81797,120.96595
171,HSZ291554,12,W,Hsinchu,130131,新竹市元培街275巷口,香山坑,24.77846,120.93788
125,HSZ291647,12,S,Hsinchu,130163,新竹市武陵路3號大門邊,國軍新竹地區醫院,24.816356,120.963086
141,HSZ291583,12,S,Hsinchu,130106,新竹市西大路429號,西門市場,24.804145,120.96402
140,HSZ301951,12,W,Hsinchu,137587,新竹市和平路22號,竹光國中,24.80764,120.95585
139,HSZ291357,12,E,Hsinchu,130432,新竹市延平路二段294號對面土地公邊,虎山,24.80752,120.93502
143,HSZ291733,12,W,Hsinchu,130402,新竹市東美路88號對面,東美路,24.80171,121.00359
188,HSZ300149,12,N,Hsinchu,136270,新竹市路邊編號183047號旁對面,東香南街口,24.7620068,120.949913
141,HSZ298892,12,E,Hsinchu,135387,新竹市中央路236號,巨城購物,24.80922,120.97569
176,HSZ303832,12,E,Hsinchu,132251,新竹市東區光復路一段284號,世界高中,24.782108,121.020082
155,HSZ291593,12,E,Hsinchu,130350,新竹市牛埔南路161-1號,德和,24.79594,120.93458
104,HSZ291385,12,S,Hsinchu,130450,新竹市西濱路一段6-2號,港北橋,24.82584,120.92725
104,HSZ291383,12,N,Hsinchu,130454,新竹市延平路三段252號,草厝,24.83332,120.92959
141,HSZ295442,12,N,Hsinchu,132691,新竹市東南街84號對面,東南街口,24.79752,120.97405
125,HSZ291906,12,S,Hsinchu,130603,新竹市中正路223巷口,中正經國路口,24.81163,120.9649
157,HSZ291515,12,E,Hsinchu,130525,新竹市西大路148號,南大路口,24.79714,120.96955
173,HSZ295486,12,N,Hsinchu,132724,新竹市明湖路447號,客運補習班,24.78044,120.96716
106,HSZ291441,12,N,Hsinchu,130483,新竹市東大路三段114號,烏瓦厝,24.83043,120.95551
141,HSZ295872,12,E,Hsinchu,133028,新竹市南大路103號,後站(公園路口),24.80141,120.9758
173,HSZ295493,12,N,Hsinchu,132723,新竹市明湖路566號斜對面,景湖別墅,24.77721,120.96734
187,HSZ298916,12,S,Hsinchu,135401,新竹市玄奘路225巷口對面,韭菜坑,24.76978,120.94722
141,HSZ291526,12,N,Hsinchu,130557,新竹市西大路299號旁,南門市場,24.80114,120.96632
160,HSZ291879,12,E,Hsinchu,130599,新竹市埔頂路149號,埔頂庄,24.79462,121.00902
85,HSZ302510,12,E,Hsinchu,137967,新竹市新港三路,新竹區漁會,24.846392,120.924942
106,HSZ291468,12,S,Hsinchu,130514,新竹市東大路三段106號對面,烏瓦厝,24.83015,120.95508
160,HSZ292083,12,W,Hsinchu,130697,新竹市埔頂路340號對面,慈濟路口,24.79346,121.01501
160,HSZ291709,12,E,Hsinchu,130404,新竹市埔頂路350號對面,慈濟路口,24.79331,121.01515
140,HSZ291566,12,S,Hsinchu,130332,新竹市經國路二段638號,和平橋,24.8012,120.95414
174,HSZ291521,12,N,Hsinchu,130541,新竹市高峰路323號,普天宮,24.78115,120.98062
86,HSZ291480,12,E,Hsinchu,130506,新竹市東大路三段539號,富美宮,24.84044,120.93769
125,HSZ291676,12,W,Hsinchu,130186,新竹市經國路一段644號,經國北大路口,24.8141,120.97466
173,HSZ295503,12,W,Hsinchu,132719,新竹市明湖路1135號,青草湖,24.77083,120.97326
141,HSZ296971,12,N,Hsinchu,130081,新竹市中正路22號,火車站,24.80348,120.97101
173,HSZ295464,12,S,Hsinchu,132709,新竹市明湖路484號,客運補習班,24.78033,120.9673
170,HSZ291559,12,N,Hsinchu,130133,新竹市元培街205號,隘口,24.78274,120.93298
175,HSZ303822,12,E,Hsinchu,132245,新竹市東區新安路3號,新安站,24.78112,121.004406
158,HSZ291864,12,W,Hsinchu,130550,新竹市寶山路310號巷口對面,苗圃,24.78865,120.98193
155,HSZ291530,12,W,Hsinchu,130117,新竹市中華路四段280號,中埔口,24.7938,120.94534
139,HSZ291591,12,E,Hsinchu,130356,新竹市牛埔路247巷口,新東藥廠,24.80003,120.94689
139,HSZ293687,12,S,Hsinchu,131816,新竹市牛埔東路192巷21號對面,中埔里,24.79757,120.94494
125,HSZ291413,12,E,Hsinchu,130574,新竹市湳雅街288號,舊社,24.82335,120.97769
125,HSZ291416,12,E,Hsinchu,130585,新竹市東大路二段文化中心旁,文化中心,24.81174,120.96914
176,HSZ293671,12,E,Hsinchu,131870,新竹市金山街75號旁,金山八街,24.77826,121.02045
141,HSZ291226,12,N,Hsinchu,130195,新竹市民族路16號,火車站,24.80314,120.97176
154,HSZ291576,12,W,Hsinchu,130341,新竹市香北路綜合運動場對面,綜合運動場,24.79243,120.93025
86,HSZ291376,12,E,Hsinchu,130458,新竹市延平路三段526巷口與天府路交接處,上寮,24.83913,120.93422
140,HSZ291325,12,E,Hsinchu,130102,新竹市延平路一段129號,監獄邊,24.80424,120.95727
177,HSZ291250,12,E,Hsinchu,130219,新竹市光復路一段139巷口,關東橋,24.78155,121.02296
143,HSZ302329,12,W,Hsinchu,130377,新竹市千甲路133號,千甲車站,24.80744,121.00222
125,HSZ291421,12,E,Hsinchu,130584,新竹市東大路二段107號,北門國小,24.81436,120.96687
177,HSZ291249,12,E,Hsinchu,130220,新竹市光復路一段33號,關東新村,24.78122,121.02555
104,HSZ291388,12,S,Hsinchu,130461,新竹市延平路三段471號,十塊寮,24.83756,120.93198
124,HSZ291471,12,E,Hsinchu,130518,新竹市東大路二段449號,郵局,24.8205,120.96086
157,HSZ295850,12,S,Hsinchu,132997,新竹市南大路790號,育賢國中,24.78953,120.96598
156,HSZ293709,12,W,Hsinchu,130116,新竹市中華路四段198號對面,中埔,24.79565,120.94948
157,HSZ295489,12,N,Hsinchu,132726,新竹市明湖路400巷對面,御史崎,24.78723,120.96749
174,HSZ291510,12,W,Hsinchu,130537,新竹市高峰路289號,竹泰社區,24.77883,120.98534
141,HSZ291660,12,W,Hsinchu,130191,新竹市中華路二段台電營業處前,火車站,24.80279,120.97277
126,HSZ291680,12,W,Hsinchu,130384,新竹市自由路,三民國中,24.81141,120.97955
174,HSZ303816,12,N,Hsinchu,132239,新竹市東區寶山路452巷8弄,仙宮里活動中心,24.783439,120.989704
141,HSZ291881,12,E,Hsinchu,130331,新竹市中正路113號,市政府,24.807392,120.968101
174,HSZ303844,12,S,Hsinchu,138794,新竹市東區高翠路278號,竹泰社區,24.778966,120.985469
157,HSZ295461,12,E,Hsinchu,132704,新竹市南大路706巷,忠孝社區,24.78955,120.96599
159,HSZ303579,12,S,Hsinchu,138614,新竹市東區光復路二段101號第二綜合大樓對面,第二綜合大樓,24.794098,120.993702
141,HSZ291905,12,S,Hsinchu,130602,新竹市中正路179號,鄭氏家廟,24.809988,120.966001
174,HSZ295422,12,W,Hsinchu,132669,新竹市寶山路452巷8弄13號對面,仙宮里活動中心,24.78374,120.98977
139,HSZ291348,12,E,Hsinchu,130437,新竹市延平路一段453巷口,大鵬二村,24.80505,120.94653
159,HSZ291841,12,W,Hsinchu,130266,新竹市建功路31號,文教新村,24.79671,120.99928
172,HSZ295473,12,N,Hsinchu,133009,新竹市新香街190號(單邊),陽明清境,24.77945,120.9596
159,HSZ291780,12,W,Hsinchu,130308,新竹市建功高幹AE89電桿對面,建功高中,24.79704,121.00174
140,HSZ291298,12,E,Hsinchu,130091,新竹市中和路70號,中和路,24.80135,120.95647
141,HSZ291437,12,N,Hsinchu,130388,新竹市中正路175-1號,鄭氏家廟,24.81023,120.96584
155,HSZ293713,12,W,Hsinchu,130337,新竹市牛埔南路69號,店子口,24.79642,120.94055
207,HSZ298922,12,W,Hsinchu,135407,新竹市五福路二段759-1號,香山轉運站,24.75611,120.95331
159,HSZ291284,12,W,Hsinchu,130253,新竹市大學路往交大叉路口土地公廟（人行道上）,梅竹山莊,24.78955,121.00047
139,HSZ291655,12,W,Hsinchu,130171,新竹市牛埔東路107號對面,聖德宮,24.79771,120.94778
158,HSZ303580,12,N,Hsinchu,138615,新竹市東區光復路二段101號生科館,生科館(人社院),24.789329,120.989681
156,HSZ298904,12,W,Hsinchu,130116,新竹市中華路四段198號,中埔,24.79565,120.94948
122,HSZ291380,12,N,Hsinchu,130447,新竹市延平路二段1420巷口,南油車港,24.82051,120.92794
158,HSZ291866,12,N,Hsinchu,130548,新竹市高翠路6-1號對面,翠壁岩寺,24.78567,120.98817
140,HSZ291584,12,E,Hsinchu,130358,新竹市經國路二段649號,和平橋,24.80144,120.95422
122,HSZ291370,12,N,Hsinchu,130444,新竹市延平路二段1233巷口對面,營房口,24.814,120.92867
159,HSZ291294,12,S,Hsinchu,130307,新竹市金城一路35巷,建功公園,24.79427,121.00258
139,HSZ291568,12,S,Hsinchu,130335,新竹市牛埔路346巷口,明月香榭,24.79896,120.94476
124,HSZ291477,12,E,Hsinchu,130517,新竹市東大路二段519號,樹林頭,24.82149,120.95995
157,HSZ303590,12,E,Hsinchu,130531,新竹市東區寶山路,萬佛寺,24.790131,120.977287
156,HSZ291312,12,S,Hsinchu,130093,新竹市中山路481-2號,警光一村,24.79733,120.95605
141,HSZ295427,12,W,Hsinchu,132661,新竹市南大路130號(單邊),後站,24.80152,120.97568
142,HSZ293682,12,N,Hsinchu,131853,新竹市食品路1號對面,體育場,24.8014,120.98286
157,HSZ295868,12,W,Hsinchu,133021,新竹市南大路706巷對面,忠孝社區,24.79149,120.96409
125,HSZ291501,12,W,Hsinchu,130159,新竹市光華北路14號大門邊,光華國中,24.8177499941,120.9737800765
140,HSZ291330,12,W,Hsinchu,130409,新竹市延平路一段252號,太子宮,24.80509,120.95312
188,HSZ295470,12,W,Hsinchu,133006,新竹市富群街市10766燈桿(單邊),富群花園,24.76878,120.9582
105,HSZ291455,12,E,Hsinchu,130511,新竹市東大路三段273號,上糠榔,24.83451,120.94623
154,HSZ293712,12,S,Hsinchu,130340,新竹市牛埔南路171-5號,吉悌,24.79436,120.93239
141,HSZ291516,12,S,Hsinchu,130524,新竹市西大路299號旁（對面）,南門市場,24.80114,120.9664
156,HSZ293686,12,E,Hsinchu,130139,新竹市中華路四段196號,中埔,24.7954,120.94953
143,HSZ291710,12,W,Hsinchu,130593,新竹市東區新竹市建功一路133號,愛買1站,24.80314,120.99397
124,HSZ291615,12,W,Hsinchu,130623,新竹市武陵路125號,變電所,24.81597,120.9603
175,HSZ303823,12,E,Hsinchu,138776,新竹市東區科園里,科技生活館,24.779819,121.00537
158,HSZ291273,12,W,Hsinchu,130242,新竹市學府路309號,新竹高商,24.79688,120.98421
85,HSZ291436,12,W,Hsinchu,130493,新竹市東大路四段110號,信義新村,24.8427,120.93349
85,HSZ291447,12,W,Hsinchu,130496,新竹市東大路四段221號對面,漁港口,24.84487,120.92928
143,HSZ291711,12,E,Hsinchu,130594,新竹市東區新竹市建功一路133號對面,愛買1站,24.80277,120.99393
104,HSZ291384,12,N,Hsinchu,130452,新竹市延平路三段160號,港北,24.82969,120.92832
187,HSZ298918,12,W,Hsinchu,135403,新竹市五福路二段615號(新竹市路燈編號15202),茄苳湖,24.75783,120.9482
126,HSZ291666,12,W,Hsinchu,130185,新竹市經國路一段466號,果菜市場,24.81469,120.97886
154,HSZ291580,12,N,Hsinchu,130346,新竹市大庄路58號對面,大同磁器,24.79042,120.92719
174,HSZ303843,12,S,Hsinchu,138793,新竹市東區高翠路186號,高翠,24.780284,120.986999
143,HSZ291260,12,W,Hsinchu,130237,新竹市光復路二段508號(候車亭),光復中學,24.79834,120.99484
159,HSZ291844,12,E,Hsinchu,130259,新竹市建功路49號對面,文教新村,24.796684,120.999583
142,HSZ293688,12,E,Hsinchu,131825,新竹市東區公園路麗池公園旁(候車亭),公園,24.80227,120.97838
140,HSZ291299,12,S,Hsinchu,130092,新竹市中山路426號,天公壇,24.80005,120.95779
157,HSZ291509,12,S,Hsinchu,130530,新竹市寶山路129號,介壽山口,24.79226,120.97557
141,HSZ303603,12,W,Hsinchu,132699,新竹市東區南大路256號,東南街口,24.799485,120.972563
174,HSZ291507,12,S,Hsinchu,130535,新竹市高翠路147號,下路北,24.78171,120.98783
125,HSZ291653,12,E,Hsinchu,130155,新竹市經國路一段644號,經國北大路口,24.81441,120.9749
141,HSZ296968,12,S,Hsinchu,130108,新竹市中正路93號,東門市場,24.80524,120.9695
125,HSZ291443,12,W,Hsinchu,130389,新竹市中正路225-1號,中正經國路口,24.81142,120.965
188,HSZ298919,12,E,Hsinchu,135404,中華大學側門停車場內,中華大學宿舍,24.7579,120.95015
126,HSZ298890,12,N,Hsinchu,135385,新竹市自由路102號,自由經國路口,24.81405,120.98008
157,HSZ295460,12,S,Hsinchu,132705,新竹市南大路790號,育賢國中,24.78953,120.96598
141,HSZ295475,12,W,Hsinchu,132698,新竹市南大路151、153號對面,警察宿舍,24.800232,120.973903
143,HSZ302734,12,W,Hsinchu,138106,新竹市千甲路296號旁,千甲社區,24.807598,121.006802
156,HSZ293726,12,W,Hsinchu,130115,新竹市中華路四段26號對面,農會,24.79668,120.95457
160,HSZ293792,12,W,Hsinchu,130228,新竹市光復路一段364號,日光燈,24.78402,121.01566
140,HSZ291756,12,W,Hsinchu,130176,新竹市西大路664號對面,民富國小,24.80812,120.96082
125,HSZ291435,12,W,Hsinchu,130477,新竹市東大路二段228號,武陵路口,24.817742,120.963459
160,HSZ297000,12,N,Hsinchu,130842,新竹市慈雲路113號對面(533199號路燈南側),好市多,24.79254,121.01266
125,HSZ291490,12,E,Hsinchu,130182,新竹市光華北街6號對面,光華國中,24.81805,120.97426
142,HSZ296981,12,W,Hsinchu,130238,新竹市光復路二段197號對面,馬偕醫院,24.79962,120.99183
124,HSZ291450,12,W,Hsinchu,130480,新竹市東大路二段540號,樹林頭,24.82151,120.95989
176,HSZ291257,12,W,Hsinchu,130226,新竹市光復路一段274號,世界高中,24.78233,121.02004
140,HSZ301952,12,E,Hsinchu,137588,新竹市經國路二段298號對面,經國西大路口,24.80848,120.95933
188,HSZ295456,12,N,Hsinchu,133007,新竹市富群街3號(單邊),日月光飯店,24.76935,120.95681
141,HSZ291673,12,W,Hsinchu,130189,新竹市中華路二段新光三越前,國賓大飯店,24.80609,120.97764
140,HSZ291753,12,E,Hsinchu,130359,新竹市牛埔路117號,頂埔社區,24.799386471,120.952659075
159,HSZ296990,12,W,Hsinchu,130233,新竹市光復路二段100號,過溝,24.79256,121.00263
126,HSZ291504,12,W,Hsinchu,130321,新竹市經國路一段454巷60號,金華二站,24.81646,120.97884
176,HSZ303831,12,E,Hsinchu,132250,新竹市東區光復路一段329之1號,仙水,24.782786,121.018486
171,HSZ300627,12,E,Hsinchu,136534,新竹市元培街367號對面電線桿（桿號東香高幹54D9182GC41）旁,獅頭橋,24.77628,120.94333
158,HSZ303582,12,N,Hsinchu,138617,新竹市東區光復路二段101號南大門,台積館,24.786945,120.988559
141,HSZ295487,12,E,Hsinchu,132736,新竹市南大路103號,後站(公園路口),24.80141,120.9758
86,HSZ291434,12,S,Hsinchu,130492,新竹市東大路四段68號,里辦公處,24.84167,120.93568
156,HSZ298902,12,E,Hsinchu,130141,新竹市中華路三段67號,林森路口,24.79697,120.96186
141,HSZ291256,12,S,Hsinchu,130109,新竹市中正路17號,火車站,24.80332,120.9711
125,HSZ301919,12,E,Hsinchu,137568,新竹市民生路271號,經國北大路口,24.81288,120.97478
160,HSZ291254,12,W,Hsinchu,130228,新竹市光復路一段364號,日光燈,24.784026,121.015653
141,HSZ291748,12,S,Hsinchu,130109,新竹市中正路17號,火車站,24.803082,120.97125
157,HSZ295482,12,N,Hsinchu,132728,新竹市南大路778號對面,育賢國中,24.78975,120.96571
160,HSZ291229,12,E,Hsinchu,130214,新竹市光復路一段571號,光武國中,24.78555,121.01205
157,HSZ291861,12,N,Hsinchu,130553,新竹市寶山路29號,竹蓮市場,24.79399,120.97346
141,HSZ291537,12,W,Hsinchu,130112,新竹市中華路二段576號,南門市場,24.799326,120.966937
171,HSZ291547,12,W,Hsinchu,130130,新竹市元培街306號對面(候車亭),元培科技大學,24.778,120.94049
154,HSZ291592,12,E,Hsinchu,130348,新竹市香北路綜合運動場邊,綜合運動場,24.79232,120.93017
160,HSZ296992,12,W,Hsinchu,130232,新竹市光復路一段568號,科學園區,24.78885,121.00801
141,HSZ291301,12,N,Hsinchu,130081,新竹市中正路26號,火車站,24.80336,120.97114
176,HSZ303824,12,N,Hsinchu,138777,新竹市東區介壽路,實驗中學,24.776485,121.017398
173,HSZ295876,12,N,Hsinchu,133015,新竹市明湖路566號斜對面,景湖別墅,24.77721,120.96734
124,HSZ291599,12,E,Hsinchu,130628,新竹市竹光路203號,竹光3站,24.81189,120.95746
141,HSZ291407,12,E,Hsinchu,130311,新竹市北大路143號,北大橋,24.80982,120.96815
141,HSZ298898,12,S,Hsinchu,135391,新竹市中正路19號,新竹車站,24.803072,120.97111
172,HSZ295496,12,W,Hsinchu,133011,新竹市新香街354號,觀日大地,24.77688,120.96102
86,HSZ291463,12,S,Hsinchu,130504,新竹市東大路四段99號,信義新村,24.84255,120.93374
157,HSZ295430,12,E,Hsinchu,132666,新竹市寶山路150巷8-1號旁,高峰社區,24.79151,120.9756
189,HSZ295502,12,W,Hsinchu,132718,新竹市明湖路1008對面,亞美佳社區,24.76914,120.97735
141,HSZ296972,12,E,Hsinchu,131824,新竹市民族路40-1號,東區區公所,24.80529,120.9732
157,HSZ295867,12,N,Hsinchu,133020,新竹市南大路778號對面,育賢國中,24.78975,120.96571
160,HSZ291621,12,S,Hsinchu,130360,新竹市科學園路36號,龍山社區口,24.7861,121.01022
158,HSZ291764,12,E,Hsinchu,130202,新竹市學府路128號,新竹高商,24.7969160741,120.9845548072
104,HSZ291381,12,E,Hsinchu,130455,新竹市延平路三段358巷口,海濱,24.83605,120.93084
157,HSZ291862,12,W,Hsinchu,130552,新竹市寶山路129號,介壽山口,24.79218,120.97562
176,HSZ291620,12,N,Hsinchu,130365,新竹市科學園路139號,科學二站,24.78336,121.01131
141,HSZ291248,12,E,Hsinchu,130196,新竹市中央路146號,親仁里,24.8075,120.97154
104,HSZ291378,12,N,Hsinchu,130451,新竹市延平路三段112號,外湖路口,24.82821,120.92787
125,HSZ291486,12,N,Hsinchu,130317,新竹市光華北街84號對面,北區區公所,24.81702,120.9713
158,HSZ291525,12,E,Hsinchu,130533,新竹市寶山路375號,雞蛋面,24.78706,120.98641
156,HSZ291309,12,W,Hsinchu,130094,新竹市崧嶺路46號,榮民之家,24.7948,120.95518
160,HSZ293791,12,W,Hsinchu,130230,新竹市光復路一段候車亭,光武國中,24.78576,121.012
86,HSZ291453,12,W,Hsinchu,130491,新竹市東大路三段716號,富美宮,24.84065,120.93735
125,HSZ302631,12,W,Hsinchu,130160,新竹市湳雅街77號對面,湳雅公園(大潤發),24.81845,120.97053
141,HSZ291223,12,W,Hsinchu,130198,新竹市公園路公園大門（大器四方前）,公園,24.80104,120.97654
125,HSZ291639,12,W,Hsinchu,130162,新竹市武陵路41號,武陵社區,24.817953,120.965893
138,HSZ291361,12,E,Hsinchu,130430,新竹市延平路二段519巷口,金廈園,24.80611,120.92911
141,HSZ291277,12,W,Hsinchu,130249,新竹市中央路146號,親仁里,24.80745,120.97168
125,HSZ291651,12,S,Hsinchu,130161,新竹市湳雅街92號,湳中街口,24.819887,120.967188
142,HSZ296978,12,W,Hsinchu,133052,新竹市光復路二段800號,二分局,24.80171,120.98553
159,HSZ291289,12,E,Hsinchu,130256,新竹市大學路81巷口,神學院,24.78901,121.00253
143,HSZ291729,12,S,Hsinchu,130374,新竹市水利路69號對面,旭家經貿,24.80377,121.00616
173,HSZ295504,12,W,Hsinchu,132721,新竹市明湖路800巷斜對面,美麗家園,24.77185,120.96806
141,HSZ291422,12,E,Hsinchu,130331,新竹市中正路113號,地方法院,24.80755,120.9678
141,HSZ293702,12,E,Hsinchu,130142,新竹市中華路二段686號,國泰醫院,24.79803,120.96519
157,HSZ303608,12,E,Hsinchu,132731,新竹市東區南大路451號,新竹國小,24.795882,120.967032
160,HSZ299891,12,E,Hsinchu,136095,新竹市光復路一段544巷118號,龍山里,24.789028,121.011831
139,HSZ291654,12,E,Hsinchu,130146,新竹市牛埔東路107號,聖德宮,24.79771,120.94784
129,HSZ297008,12,W,Hsinchu,133852,新竹縣文興路一段168號對面,新瓦屋(文興路),24.8114,121.02694
154,HSZ291539,12,S,Hsinchu,130121,新竹市元培街122號,香山高中,24.785,120.93081
154,HSZ293719,12,W,Hsinchu,131849,新竹市大庄路151號,美森街口,24.7921,120.92561
143,HSZ291725,12,E,Hsinchu,130397,新竹市千甲路120號,千甲車站,24.80717,121.00136
159,HSZ291290,12,E,Hsinchu,130255,新竹市大學路往交大叉路口土地公廟對面（人行道上）,梅竹山莊,24.7895,121.00044
125,HSZ291601,12,E,Hsinchu,130179,新竹市武陵路76號,武陵社區,24.81794,120.96565
187,HSZ298917,12,N,Hsinchu,135402,新竹市玄奘路225巷口,韭菜坑,24.76978,120.94731
139,HSZ291349,12,E,Hsinchu,130433,新竹市延平路二段169號,小南勢,24.80536,120.93828
175,HSZ303839,12,S,Hsinchu,138789,新竹市東區新安路,同步輻射中心,24.783838,120.994472
159,HSZ293681,12,E,Hsinchu,130211,新竹市光復路二段100號（建軍停車場）,過溝,24.79177,121.00323
160,HSZ296998,12,S,Hsinchu,133849,新竹市慈雲路與埔頂二路口西南側慈雲路上第二和第三支燈桿中間之小路燈旁,慈雲埔頂二路口,24.7911,121.01227
141,HSZ299153,12,S,Hsinchu,130109,新竹市北區中正路31號,火車站(中正路),24.803239,120.971151
160,HSZ296997,12,N,Hsinchu,133848,新竹市慈雲路與埔頂二路口東南側慈雲路上第一支燈桿旁,慈雲埔頂二路口,24.79118,121.01207
156,HSZ291656,12,E,Hsinchu,130149,新竹市警光路30號,警光路,24.79739,120.95721
174,HSZ291518,12,N,Hsinchu,130538,新竹市高峰路500號,高峰,24.77763,120.98307
85,HSZ291458,12,S,Hsinchu,130500,新竹市南寮街43號,冰廠,24.8466,120.92893
139,HSZ291347,12,W,Hsinchu,130413,新竹市延平路一段546巷口對面,實踐新村,24.80506,120.94424
175,HSZ303821,12,E,Hsinchu,132244,新竹市東區展業一路2號,同業公會,24.782384,121.00184
140,HSZ291316,12,E,Hsinchu,130103,新竹市延平路一段88號西門國小側門口(候車亭),新竹監獄,24.80359,120.95928
157,HSZ295866,12,E,Hsinchu,133024,新竹市南大路371號,西大路口,24.79705,120.96865
155,HSZ291643,12,S,Hsinchu,130144,新竹市牛埔路446號,香山區公所,24.797150786,120.9420958979
143,HSZ296983,12,E,Hsinchu,130208,新竹市光復路二段153號,光復中學,24.79816,120.99456
155,HSZ291585,12,E,Hsinchu,130352,新竹市牛埔南路71號,店子口,24.7962,120.94057
141,HSZ291687,12,N,Hsinchu,130309,新竹市中正路105號,市政府,24.807386,120.967783
173,HSZ295873,12,N,Hsinchu,133014,新竹市明湖路666號對面,柴橋,24.774,120.96667
173,HSZ295871,12,N,Hsinchu,133016,新竹市明湖路447號,客運補習班,24.78044,120.96716
125,HSZ291414,12,W,Hsinchu,130578,新竹市湳雅街329號,土地廟,24.82302,120.97685
141,HSZ293723,12,W,Hsinchu,130113,新竹市中華路二段697號,國泰醫院,24.79801,120.96507
140,HSZ291302,12,E,Hsinchu,130090,新竹市中和路107巷口,台貿四村,24.8018353681,120.9553539125
141,HSZ291304,12,N,Hsinchu,130084,新竹市西大路456號,西門市場,24.804384,120.96385
157,HSZ291513,12,S,Hsinchu,130527,新竹市西大路58號,青松公寓,24.79542,120.97178
143,HSZ293669,12,S,Hsinchu,130596,新竹市建功一路86巷,孟竹國宅,24.799431,120.99739
124,HSZ291460,12,S,Hsinchu,130521,新竹市中正路353號,竹光新村,24.81497,120.9624
143,HSZ291728,12,S,Hsinchu,130400,新竹市水利路100-1號對面,旭家經貿,24.80416,121.00623
104,HSZ291392,12,S,Hsinchu,130466,新竹市延平路三段59號,外湖路口,24.82783,120.92785
155,HSZ298907,12,W,Hsinchu,130118,新竹市中華路四段400號,牛埔口,24.79255,120.94212
156,HSZ298903,12,E,Hsinchu,130140,新竹市中華路四段28號對面,農會,24.79658,120.95457
143,HSZ302733,12,E,Hsinchu,138105,新竹市千甲路247號旁,千甲社區,24.807669,121.006802
157,HSZ303607,12,W,Hsinchu,132701,新竹市東區南大路430號,西大路,24.796987,120.968528
154,HSZ298911,12,S,Hsinchu,135398,新竹市元培街60巷口,三姓橋火車站,24.78633,120.92926
141,HSZ296965,12,W,Hsinchu,130329,新竹市北大路117號對面,北大橋,24.81033,120.96865
140,HSZ291659,12,S,Hsinchu,130173,新竹市中和路22號對面,天公壇,24.80058,120.95753
106,HSZ291433,12,W,Hsinchu,130482,新竹市東大路二段742巷旁,吉羊路口,24.82537,120.95694
142,HSZ301659,12,E,Hsinchu,130247,新竹市東區新竹市143006路燈(麗池公園對面),老人大學,24.80227,120.97838
124,HSZ291600,12,S,Hsinchu,130626,新竹市和平路267巷口,沙崙,24.81307,120.95426
159,HSZ291707,12,E,Hsinchu,130598,新竹市金城一路52巷,華夏金城,24.79507,121.00447
154,HSZ293698,12,S,Hsinchu,131808,新竹市大庄路136號,美森街口,24.7919,120.92574
126,HSZ295584,12,E,Hsinchu,132774,新竹市經國路一段120號,溪埔,24.81527,120.98987
125,HSZ291640,12,W,Hsinchu,130158,新竹市鐵道路二段10983號路燈桿對面,金華里,24.81872,120.97672
159,HSZ303578,12,N,Hsinchu,138613,新竹市東區光復路二段101號第二綜合大樓,第二綜合大樓,24.794003,120.993745
154,HSZ298909,12,W,Hsinchu,135396,新竹市中華路四段516號,竹興公司,24.78971,120.93179
140,HSZ291573,12,W,Hsinchu,130147,新竹市牛埔路142號,頂埔社區,24.79968,120.9527
171,HSZ300481,12,W,Hsinchu,136442,新竹市元培街289號,香山坑,24.77847,120.9382
174,HSZ291520,12,W,Hsinchu,130536,新竹市高翠路217號,高翠,24.78032,120.98713
142,HSZ291222,12,E,Hsinchu,130205,新竹市光復路二段321號(候車亭),工研院光復院區,24.80046,120.98891
158,HSZ291243,12,E,Hsinchu,130201,新竹市學府路36號新竹高中大門邊(候車亭),新竹高中,24.79565,120.98113
160,HSZ296991,12,E,Hsinchu,130212,新竹市光復路一段681號,科學園區,24.78832,121.00837
140,HSZ291335,12,N,Hsinchu,130408,新竹市北大路445號,西門國小,24.80234,120.96009
125,HSZ291417,12,W,Hsinchu,130583,新竹市水田街91巷口,水田,24.81581,120.96779
141,HSZ291630,12,E,Hsinchu,130150,新竹市中華路二段417號,火車站,24.80261,120.9724
139,HSZ291359,12,E,Hsinchu,130435,新竹市延平路二段67號,虎林新村,24.80507,120.94218
106,HSZ291457,12,E,Hsinchu,130513,新竹市東大路三段190號對面,古賢里,24.83251,120.95177
142,HSZ291281,12,E,Hsinchu,130251,新竹市博愛街76號巷口,交大博愛校區,24.79853,120.98314
157,HSZ295463,12,S,Hsinchu,132706,新竹市南大路890號,南光新村,24.78521,120.96761
155,HSZ298908,12,E,Hsinchu,130137,新竹市中華路四段411號,牛埔口,24.79215,120.94171
143,HSZ291722,12,E,Hsinchu,130396,新竹市千甲路64號,水源,24.80671,120.99873
173,HSZ295859,12,S,Hsinchu,133002,新竹市明湖路608巷旁,景湖別墅,24.77714,120.96729
125,HSZ291930,12,S,Hsinchu,130161,新竹市湳雅街92號,湳中街口,24.81989,120.96719
157,HSZ295494,12,E,Hsinchu,132731,新竹市南大路445號,新竹國小,24.79611,120.96689
160,HSZ303829,12,E,Hsinchu,132253,新竹市東區關新路210號,新莊車站,24.788011,121.021254
141,HSZ303602,12,E,Hsinchu,132734,新竹市東區南大路201號,東南街口,24.799345,120.972663
157,HSZ295853,12,S,Hsinchu,132998,新竹市南大路890號,南光新村,24.78521,120.96761
138,HSZ291344,12,W,Hsinchu,130420,新竹市延平路二段與浸水北街交叉口對面,香雅橋,24.80424,120.92587
138,HSZ291340,12,E,Hsinchu,130423,新竹市延平路二段811巷口對面,金元寶,24.80815,120.9223
160,HSZ293675,12,E,Hsinchu,131865,新竹市光復路一段566號（候車亭）,科學園區,24.78835,121.00846
127,HSZ298886,12,N,Hsinchu,135381,新竹市中華路一段91號,經國路口,24.81648,120.99384
141,HSZ291632,12,N,Hsinchu,130154,新竹市民生路115號電箱旁,民生中央路口,24.81017,120.97708
142,HSZ222237,12,E,Hsinchu,35049,新竹市東區光復路二段395號,二分局,24.801433,120.985459
122,HSZ291399,12,S,Hsinchu,130469,新竹市延平路二段1497號,港南,24.8223,120.92695
105,HSZ291452,12,W,Hsinchu,130487,新竹市東大路三段374號,糠榔,24.83537,120.94529
105,HSZ291478,12,S,Hsinchu,130509,新竹市東大路三段349號,輕便車站,24.8362,120.94409
154,HSZ295606,12,S,Hsinchu,132791,元培街124號,香山高中,24.785,120.93081
143,HSZ293782,12,N,Hsinchu,131887,新竹市水源街竹市路燈24045號,愛買2站,24.80396,120.99353
125,HSZ291425,12,W,Hsinchu,130579,新竹市湳雅街219巷口,鄭厝,24.82114,120.97455
140,HSZ291353,12,E,Hsinchu,130175,新竹市中山路203號,西門口,24.80242,120.96213
140,HSZ291755,12,W,Hsinchu,130193,新竹市牛埔路50號,信義幼稚園,24.79888,120.95496
157,HSZ295485,12,N,Hsinchu,132727,新竹市南大路653號,南光新村,24.78722,120.96743
141,HSZ291652,12,E,Hsinchu,130151,新竹市中華路撞球協會前,新竹女中,24.80481,120.97633
141,HSZ291556,12,E,Hsinchu,130142,新竹市中華路二段697號,國泰醫院,24.798032,120.965193
141,HSZ291419,12,W,Hsinchu,130330,新竹市北大路與中正路交叉口,北大教堂,24.80924,120.96706
122,HSZ291371,12,S,Hsinchu,130472,新竹市延平路二段1255號,海口,24.81536,120.92881
155,HSZ291532,12,W,Hsinchu,130118,新竹市中華路四段390號,牛埔口,24.79255,120.94212
171,HSZ300377,12,N,Hsinchu,136406,新竹市玄奘路98號附近新竹市路燈編號183008對面,榕樹下,24.77261,120.94478
154,HSZ291846,12,E,Hsinchu,130347,新竹市香北路108號,大庄里,24.79177,120.92681
158,HSZ303587,12,W,Hsinchu,132686,新竹市東區寶山路,雞蛋面,24.787355,120.985877
157,HSZ303604,12,E,Hsinchu,132733,新竹市東區竹蓮街349號,竹蓮街,24.797392,120.969482
143,HSZ291720,12,S,Hsinchu,130401,新竹市水利路33號旁電桿,水利路,24.80286,121.00548
124,HSZ291444,12,W,Hsinchu,130479,新竹市東大路二段449號對面停車場,郵局,24.82061,120.9609
156,HSZ291324,12,E,Hsinchu,130096,新竹市崧嶺路61號,榮民之家,24.79472,120.95525
125,HSZ291608,12,S,Hsinchu,130618,新竹市湳雅街89號邊,湳雅公園(大潤發),24.8196,120.96889
142,HSZ291696,12,S,Hsinchu,130392,新竹市東光路147號,東光忠孝路口,24.80482,120.98677
176,HSZ291616,12,S,Hsinchu,130363,新竹市民享街140號,土地廟,24.78144,121.00961
159,HSZ291700,12,E,Hsinchu,130265,新竹市建功高幹AE89電桿對面,建功高中,24.79696,121.00127
143,HSZ293645,12,E,Hsinchu,131787,新竹市公道五路二段（愛買前）,世博台灣館,24.80494,120.99335
142,HSZ291697,12,N,Hsinchu,130382,新竹市東光路147號對面,東光忠孝路口,24.80467,120.98689
104,HSZ291395,12,W,Hsinchu,130462,新竹市延平路三段391號,海濱,24.83601,120.93086
157,HSZ295862,12,N,Hsinchu,133017,新竹市明湖路460號對面,中興橋,24.78512,120.96759
139,HSZ291338,12,W,Hsinchu,130415,新竹市延平路二段78號大門邊,虎林國小,24.80516,120.94078
141,HSZ291746,12,S,Hsinchu,130109,新竹市中正路17號,火車站,24.803239,120.971151
145,HSZ297010,12,E,Hsinchu,133853,新竹縣嘉豐十一路一段113號,哈洛德(嘉豐十一路),24.80796,121.03625
174,HSZ291867,12,N,Hsinchu,130547,新竹市高翠路147號,下路北,24.78156,120.98808
125,HSZ291402,12,N,Hsinchu,130566,新竹市東大路二段文化中心對面,文化中心,24.81188,120.96928
160,HSZ291263,12,W,Hsinchu,130231,新竹市光復路一段538號,和平,24.78664,121.01083
142,HSZ291291,12,W,Hsinchu,130258,新竹市食品路142號,博愛街口,24.79949,120.98119
141,HSZ295495,12,E,Hsinchu,132735,新竹市南大路139巷口旁,警察宿舍,24.80051,120.974456
156,HSZ303612,12,E,Hsinchu,136360,新竹市北區成德路138號,成德路,24.794162,120.957985
155,HSZ291549,12,E,Hsinchu,130136,新竹市中華路四段473號,台灣玻璃,24.79094,120.93784
125,HSZ291498,12,S,Hsinchu,130323,新竹市光華北街69號對面,北區區公所,24.81726,120.97164
154,HSZ300239,12,S,Hsinchu,135398,新竹市元培街60巷口,三姓橋火車站,24.78633,120.92926
142,HSZ296975,12,E,Hsinchu,130246,新竹市東區新竹市143006路燈(麗池公園對面),公園,24.80227,120.97838
86,HSZ291466,12,E,Hsinchu,130507,新竹市東大路三段465號,南寮國小,24.8391,120.93947
157,HSZ295434,12,S,Hsinchu,132665,新竹市高峰路56號,聖經書院,24.79262,120.9733
140,HSZ291332,12,W,Hsinchu,130166,新竹市中山路356號,西門口,24.802569,120.962177
143,HSZ292082,12,W,Hsinchu,130696,新竹市公道五路二段142號,交流道口,24.79906,121.0063
159,HSZ291293,12,E,Hsinchu,130259,新竹市建功路49號對面,文教新村,24.79667,120.99953
141,HSZ291675,12,S,Hsinchu,130190,新竹市中華路車格3、5中間,新竹女中,24.80514,120.97631
108,HSZ291410,12,N,Hsinchu,130575,新竹市溪州幹133,莊厝,24.82976,120.98147
177,HSZ293677,12,E,Hsinchu,131871,新竹市金山街26號旁,集福宮,24.77776,121.02238
160,HSZ291690,12,E,Hsinchu,130672,新竹市關東路153號站內,新莊車站,24.78806,121.02145
140,HSZ301949,12,W,Hsinchu,137585,新竹市竹光路270號對面,磐石高中,24.81042,120.95614
142,HSZ296980,12,W,Hsinchu,130239,新竹市光復路二段726號,工研院光復院區,24.80069,120.98866
171,HSZ291550,12,N,Hsinchu,130128,新竹市玄奘路48號大門口(候車亭),玄奘大學,24.7746,120.94434
159,HSZ291706,12,W,Hsinchu,130589,新竹市金城一路50巷對面,華夏金城,24.79504,121.00405
140,HSZ291744,12,W,Hsinchu,130100,新竹市中和路120巷口,台貿四村,24.80192,120.95549
143,HSZ291721,12,N,Hsinchu,130373,新竹市水利路42號,水利路,24.80267,121.00523
104,HSZ291374,12,N,Hsinchu,130456,新竹市延平路三段430號,十塊寮,24.83743,120.93191
122,HSZ291386,12,N,Hsinchu,130448,新竹市延平路二段1494號,港南,24.82229,120.9271
157,HSZ291863,12,W,Hsinchu,130551,新竹市寶山路200巷口對面,萬佛寺,24.79053,120.97695
158,HSZ291769,12,W,Hsinchu,130242,新竹市學府路309號,新竹高商,24.796859,120.984171
142,HSZ291247,12,S,Hsinchu,130199,新竹市東山街與食品街交叉口,學園商場,24.79862,120.97773
140,HSZ291845,12,E,Hsinchu,130359,新竹市牛埔路117號,頂埔社區,24.79939,120.95265
159,HSZ291694,12,N,Hsinchu,130590,新竹市建功一路12號,忠貞新村,24.79704,120.99811
141,HSZ291752,12,W,Hsinchu,130113,新竹市中華路二段686號,國泰醫院,24.797996,120.965044
140,HSZ291326,12,N,Hsinchu,130097,新竹市中山路477號,警光一村,24.79743,120.95615
142,HSZ291270,12,W,Hsinchu,130238,新竹市光復路二段新源街口(候車亭),馬偕醫院,24.79955,120.99188
142,HSZ291276,12,N,Hsinchu,130245,新竹市東山街與食品街交叉口對面公園邊,學園商場,24.79868,120.97799
159,HSZ291253,12,W,Hsinchu,130235,新竹市光復路二段66號,文教新村,24.79531,120.99877
139,HSZ291570,12,W,Hsinchu,130336,新竹市牛埔路394巷口,重義橋,24.79795,120.94368
173,HSZ295472,12,S,Hsinchu,132710,新竹市明湖路608巷旁,景湖別墅,24.77714,120.96729
145,HSZ297015,12,W,Hsinchu,133857,新竹縣文興路一段301號,文興嘉豐南路口,24.80953,121.03195
157,HSZ302068,12,E,Hsinchu,137673,新竹市高峰路168-4號對面,建華社區,24.7880766667,120.9753183333
141,HSZ291306,12,N,Hsinchu,130082,新竹市中正路84號,東門市場,24.80528,120.969589
124,HSZ291594,12,E,Hsinchu,130627,新竹市西大路725號,文雅新村,24.81177,120.9558
157,HSZ303591,12,W,Hsinchu,130551,新竹市東區寶山路,萬佛寺,24.790455,120.977008
173,HSZ295500,12,E,Hsinchu,132712,新竹市明湖路800巷口,美麗家園,24.77164,120.9682
85,HSZ291448,12,N,Hsinchu,130494,新竹市東大路四段158號,蝦仔埔,24.8436,120.93206
141,HSZ295452,12,E,Hsinchu,132693,新竹市南大路130號(單邊),後站,24.80141,120.9758
158,HSZ291770,12,W,Hsinchu,130243,新竹市學府路36號對面,新竹高中,24.795705,120.980986
142,HSZ291251,12,W,Hsinchu,130239,新竹市光復路二段730-732號,工研院光復院區,24.80044,120.98914
157,HSZ295481,12,E,Hsinchu,132732,新竹市南大路371號,西大路口,24.79705,120.96865
174,HSZ295426,12,N,Hsinchu,132675,新竹市高峰路399號,青峰路口,24.77958,120.98144
174,HSZ303814,12,N,Hsinchu,132237,新竹市東區高翠路217號,高翠,24.779911,120.986951
159,HSZ293663,12,E,Hsinchu,131862,新竹市建功路31號,文教新村,24.79684,120.99976
155,HSZ291536,12,W,Hsinchu,130120,新竹市中華路四段500號,金山園,24.7905,120.93392
126,HSZ291661,12,E,Hsinchu,130184,新竹市鐵道路二段署立醫院98號電桿旁對面,台大新竹分院,24.8157,120.98001
155,HSZ302322,12,E,Hsinchu,137881,新竹市育德街135號附近（本市路燈編號240033號旁）,香山行政大樓,24.79411,120.94297
177,HSZ291232,12,E,Hsinchu,130221,新竹縣竹東鎮竹中路38號,竹中口,24.78087,121.02862
125,HSZ291668,12,S,Hsinchu,130183,新竹市鐵道路二段10983號路燈桿,金華里,24.81863,120.97668
141,HSZ298899,12,N,Hsinchu,135392,新竹市中正路42號,新竹車站,24.80377,120.97107
124,HSZ291597,12,E,Hsinchu,130630,新竹市竹光路41號,竹光1站,24.81414,120.96055
155,HSZ291581,12,E,Hsinchu,130353,新竹市牛埔路391號,牛埔,24.79713,120.94209
138,HSZ291341,12,W,Hsinchu,130419,新竹市延平路二段519巷口對面,金廈園,24.80627,120.92915
159,HSZ302736,12,E,Hsinchu,138108,新竹市金城一路35巷7弄,金城一路站,24.794567,121.002011
141,HSZ291742,12,N,Hsinchu,130082,新竹市中正路84號,東門市場,24.805256,120.969606
142,HSZ293778,12,S,Hsinchu,131891,新竹市食品路1號對面,體育場,24.80149,120.98273
141,HSZ301550,12,W,Hsinchu,137273,新竹市東南街1巷6號,新竹轉運站,24.801228,120.972854
142,HSZ291285,12,E,Hsinchu,130250,新竹市食品路75號,博愛街口,24.79958,120.98126
125,HSZ291411,12,E,Hsinchu,130571,新竹市湳雅街96號邊,湳雅,24.8194,120.97243
125,HSZ291469,12,S,Hsinchu,130163,新竹市武陵路3號大門邊,國軍新竹地區醫院,24.81636,120.96309
143,HSZ293679,12,S,Hsinchu,131857,新竹市水源街竹市路燈24045號,愛買2站,24.80411,120.99345
142,HSZ293661,12,E,Hsinchu,131854,新竹市忠孝路300號,大潤發1站,24.80419,120.98455
141,HSZ292080,12,N,Hsinchu,130309,新竹市中正路128號,地方法院,24.80757,120.96779
174,HSZ303811,12,N,Hsinchu,132234,新竹市東區高峰路440號,土雞城,24.77859,120.982063
140,HSZ291342,12,W,Hsinchu,130411,新竹市延平路一段368號,南勢,24.80506,120.94981
140,HSZ291628,12,W,Hsinchu,130167,新竹市中山路,中山路,24.80095,120.95938
173,HSZ295499,12,S,Hsinchu,132714,新竹市明湖路1135號斜對面,青草湖,24.77067,120.97322
156,HSZ291535,12,W,Hsinchu,130114,新竹市中華路三段84號,林森路口,24.79678,120.961545
173,HSZ295454,12,S,Hsinchu,132708,新竹市明湖路460號,中興橋,24.78275,120.96728
126,HSZ291493,12,E,Hsinchu,130319,新竹市經國路一段454巷60號對面,金華二站,24.81649,120.97886
141,HSZ295869,12,E,Hsinchu,133026,新竹市南大路205號,東南街口,24.7995,120.9726
86,HSZ291439,12,W,Hsinchu,130490,新竹市東大路三段624號,南寮國小,24.83933,120.93931
174,HSZ291508,12,W,Hsinchu,130539,新竹市高峰路440號,土雞城,24.77855,120.98229
125,HSZ291473,12,S,Hsinchu,130522,新竹市中正路285號,中正城北街口,24.81349,120.96344
140,HSZ291308,12,W,Hsinchu,130085,新竹市北大路330號,棒球場,24.80601,120.96201
140,HSZ291363,12,E,Hsinchu,130439,新竹市延平路一段293號,南勢化工,24.80503,120.95161
157,HSZ303593,12,N,Hsinchu,138619,新竹市東區寶山路129號,介壽山口,24.792088,120.975638
140,HSZ291343,12,W,Hsinchu,130410,新竹市延平路一段300號,南勢化工,24.80511,120.95144
158,HSZ303588,12,E,Hsinchu,132667,新竹市東區寶山路,高峰植物園,24.787007,120.981956
156,HSZ291303,12,N,Hsinchu,130095,新竹市崧嶺路120與128巷口對面大門邊,成德高中,24.79322,120.95284
157,HSZ291860,12,W,Hsinchu,130554,新竹市西大路12號,高峰路口,24.79506,120.97231
157,HSZ295857,12,S,Hsinchu,132999,新竹市明湖路410號,御史崎,24.78522,120.9676
142,HSZ296977,12,E,Hsinchu,133843,新竹市光復路二段373號,二分局,24.80137,120.98599
138,HSZ291360,12,W,Hsinchu,130426,新竹市延平路二段811巷口,金元寶,24.80853,120.92251
154,HSZ291560,12,S,Hsinchu,130344,新竹市大庄路18號,三姓橋一站,24.78901,120.92838
159,HSZ291283,12,W,Hsinchu,130252,新竹市大學路81巷口對面,神學院,24.78907,121.00266
160,HSZ291716,12,S,Hsinchu,130369,新竹市埔頂路28094路燈桿,關埔公園,24.79118,121.01783
140,HSZ291314,12,W,Hsinchu,130099,新竹市中和路59巷口,中和路,24.8013,120.95645
140,HSZ291634,12,S,Hsinchu,130165,新竹市西大路664號對面,民富國小,24.80824,120.96094
143,HSZ291736,12,N,Hsinchu,130395,新竹市水源街竹市路燈20450號桿,愛買2站,24.80404,120.9936
157,HSZ303595,12,N,Hsinchu,138620,新竹市東區建華街,建華國中,24.794028,120.9758
142,HSZ303596,12,S,Hsinchu,130199,新竹市東區東山路,學園商場,24.798576,120.977805
159,HSZ296986,12,W,Hsinchu,130236,新竹市光復路二段358號,清華大學,24.79665,120.99747
104,HSZ291397,12,S,Hsinchu,130465,新竹市延平路三段131號,港北,24.8296,120.92831
142,HSZ293655,12,W,Hsinchu,131788,新竹市忠孝路178號(塗銷111.110停車格),新光路口,24.80442,120.99066
105,HSZ291479,12,E,Hsinchu,130510,新竹市東大路三段305號,糠榔,24.83534,120.94515
159,HSZ291237,12,E,Hsinchu,130210,新竹市光復路二段182號對面(候車亭),金城新村口,24.79378,121.00052
157,HSZ295459,12,W,Hsinchu,132701,新竹市南大路436號,西大路口,24.79704,120.96859
154,HSZ300241,12,N,Hsinchu,135399,新竹市元培街60巷口對面路燈編號141003,三姓橋火車站,24.78656,120.92948
154,HSZ293693,12,E,Hsinchu,131806,新竹市大庄路245號(單邊),明烈宮,24.79312,120.92221
160,HSZ291233,12,E,Hsinchu,130213,新竹市光復路一段647號,和平,24.78683,121.01076
141,HSZ295484,12,E,Hsinchu,132734,新竹市南大路205號,東南街口,24.7995,120.9726
125,HSZ291500,12,S,Hsinchu,130325,新竹市光華東街5號,田美二站,24.81471,120.97417
172,HSZ303432,12,S,Hsinchu,133010,新竹市新香街190號對面,陽明清境,24.77926,120.95977
124,HSZ291472,12,E,Hsinchu,130519,新竹市東大路二段387巷旁,載熙國小,24.81953,120.96198
125,HSZ291635,12,W,Hsinchu,130159,新竹市光華北路14號大門邊,光華國中,24.81775,120.97379
141,HSZ291409,12,N,Hsinchu,130309,新竹市中正路105號,地方法院,24.80738,120.96779
105,HSZ291429,12,W,Hsinchu,130486,新竹市東大路三段320號,上糠榔,24.83442,120.94647
160,HSZ291689,12,E,Hsinchu,130600,新竹市埔頂路267號對面,好市多,24.79413,121.01204
142,HSZ291633,12,N,Hsinchu,130153,新竹市民生路74號旁,民生民族路口,24.80896,120.97779
142,HSZ291649,12,E,Hsinchu,130152,新竹市中華路二段191號,國賓大飯店,24.80651,120.97872
125,HSZ291603,12,E,Hsinchu,130621,新竹市金竹路245巷口,長壽會館,24.8235,120.97063
157,HSZ295490,12,E,Hsinchu,132730,新竹市南大路600號巷子對面,清大南大校區,24.79364,120.963514
157,HSZ295870,12,N,Hsinchu,133019,新竹市南大路653號,南光新村,24.78722,120.96743
141,HSZ293694,12,E,Hsinchu,131824,新竹市民族路40-1號對面,東區區公所,24.80533,120.97305
141,HSZ303605,12,W,Hsinchu,132700,新竹市東區南大路382號,竹蓮街,24.797913,120.970049
142,HSZ300710,12,E,Hsinchu,131825,新竹市東區公園路麗池公園旁(候車亭),公園,24.80227,120.97838
126,HSZ291637,12,E,Hsinchu,130156,新竹市經國路一段466號,果菜市場,24.81455,120.97826
156,HSZ298905,12,E,Hsinchu,130139,新竹市中華路四段198號對面,中埔,24.7954,120.94953
141,HSZ291464,12,S,Hsinchu,130602,新竹市中正路179號,鄭氏家廟,24.81009,120.96592
157,HSZ303594,12,S,Hsinchu,130559,新竹市東區建華街,建華國中,24.794329,120.976226
125,HSZ291404,12,E,Hsinchu,130569,新竹市水田街206巷口,水田尾,24.81657,120.96882
144,HSZ291718,12,W,Hsinchu,130375,新竹市千甲路293號,九甲埔,24.80726,121.00832
158,HSZ303583,12,S,Hsinchu,138618,新竹市東區光復路二段101號南大門,台積館,24.786894,120.988411
140,HSZ291571,12,W,Hsinchu,130333,新竹市牛埔路172-12號,埔羌圍,24.80005,120.95062
105,HSZ291440,12,W,Hsinchu,130485,新竹市東大路三段302號,苦苓腳,24.83368,120.94769
159,HSZ296988,12,N,Hsinchu,130234,新竹市光復路二段174號,金城新村口,24.79385,121.00101
158,HSZ303817,12,N,Hsinchu,132240,新竹市東區寶山路452巷,仙宮里,24.784424,120.990637
139,HSZ291339,12,W,Hsinchu,130414,新竹市延平路二段6號,虎林新村,24.80514,120.94228
138,HSZ291329,12,S,Hsinchu,130418,新竹市延平路二段406號,中庄,24.80698,120.93182
160,HSZ291268,12,W,Hsinchu,130232,新竹市光復路二段354號,科學園區,24.78877,121.00802
158,HSZ291264,12,N,Hsinchu,130244,新竹市東山街61巷口,東山文教院,24.79738,120.979
144,HSZ291719,12,E,Hsinchu,130399,新竹市千甲路326號旁,九甲埔,24.80729,121.00804
125,HSZ291484,12,E,Hsinchu,130312,新竹市北大路與東大路89號,水利局,24.81124,120.97047
124,HSZ291611,12,W,Hsinchu,130624,新竹市武陵路67號,如意新村,24.81609,120.95913
175,HSZ303819,12,N,Hsinchu,132242,新竹市東區新安路,交大南大門,24.783376,120.996232
141,HSZ291265,12,S,Hsinchu,130108,新竹市中正路85號,東門市場,24.80561,120.96954
106,HSZ291431,12,W,Hsinchu,130484,新竹市東大路三段168號,古賢里,24.83253,120.95252
142,HSZ300709,12,W,Hsinchu,136596,新竹市東區新竹市143006路燈(麗池公園對面),老人大學,24.80227,120.97838
141,HSZ295861,12,W,Hsinchu,132990,新竹市南大路151、153號對面,警察宿舍,24.800232,120.973903
157,HSZ295849,12,W,Hsinchu,132993,新竹市南大路436號,西大路口,24.79704,120.96859
157,HSZ295428,12,W,Hsinchu,132677,新竹市高峰路217號(單邊),財神廟,24.78611,120.97674
158,HSZ300502,12,E,Hsinchu,136452,新竹市東區寶山路452巷5弄路口斜對面,仙宮里,24.784273,120.990582
142,HSZ293777,12,W,Hsinchu,131892,新竹市食品路57號對面(塗銷29.30停車格),體育館,24.79922,120.97952
85,HSZ291465,12,S,Hsinchu,130499,新竹市南寮街79號,南寮,24.84743,120.92884
158,HSZ295435,12,E,Hsinchu,132668,新竹市寶山路380號,雞蛋面,24.78706,120.98641
143,HSZ293678,12,E,Hsinchu,131858,新竹市東區新竹市建功一路133號對面,愛買1站,24.80262,120.99388
176,HSZ291227,12,E,Hsinchu,130218,新竹市光復路一段257號,世界高中,24.78218,121.02008
141,HSZ295457,12,W,Hsinchu,132700,新竹市南大路378號,竹蓮街,24.79795,120.97011
142,HSZ291768,12,S,Hsinchu,130241,新竹市學府路與博愛街交叉口對面,水源地,24.7978037537,120.9856588861
174,HSZ303813,12,N,Hsinchu,132236,新竹市東區高翠路287號,竹泰社區,24.778716,120.985496
126,HSZ298887,12,W,Hsinchu,135382,新竹市經國路一段120號,溪埔,24.81539,120.98982
143,HSZ291734,12,E,Hsinchu,130398,新竹市千甲路215號對面,原興路口,24.80774,121.00539
157,HSZ291523,12,E,Hsinchu,130531,新竹市寶山路200巷口對面,萬佛寺,24.79026,120.97729
141,HSZ299168,12,S,Hsinchu,130108,新竹市東區中正路85號,東門市場,24.80561,120.96954
141,HSZ298897,12,N,Hsinchu,130082,新竹市中正路84號,東門市場,24.805524,120.969408
140,HSZ291317,12,E,Hsinchu,130090,新竹市中和路107巷口,台貿四村,24.80184,120.95534
140,HSZ291677,12,W,Hsinchu,130192,新竹市警光路13巷口,警光路,24.79751,120.95713
175,HSZ303837,12,S,Hsinchu,138787,新竹市東區業展路,漢威光電,24.783477,120.99901
139,HSZ291358,12,E,Hsinchu,130434,新竹市延平路二段97號（台灣玻璃邊）,虎林國小,24.80505,120.94071
141,HSZ299155,12,S,Hsinchu,130109,新竹市北區中正路31號,火車站(中正路),24.80332,120.9711
124,HSZ294533,12,W,Hsinchu,132293,新竹市竹光路217號及219號中間,竹光3站,24.8114,120.95726
122,HSZ291369,12,N,Hsinchu,130446,新竹市延平路二段1348號,海埔地,24.81812,120.92901
141,HSZ291762,12,N,Hsinchu,130195,新竹市民族路16號,火車站,24.803407,120.971855
188,HSZ300148,12,S,Hsinchu,136269,新竹市路邊編號183047號旁,東香南街口,24.7620792,120.949791
159,HSZ296985,12,S,Hsinchu,130209,新竹市光復路二段358號對面,清華大學,24.79582,120.99832
141,HSZ293674,12,W,Hsinchu,131851,新竹市南大路130號旁,後站(公園路口),24.80151,120.97581
141,HSZ295425,12,S,Hsinchu,132663,新竹市東南街66號,東南街口,24.79755,120.97414
125,HSZ291609,12,W,Hsinchu,130619,新竹市金竹路32號,舊社國小,24.82233,120.97482
159,HSZ303577,12,N,Hsinchu,138612,新竹市東區光復路二段101號北校門,北校門,24.796429,120.996533
174,HSZ303812,12,N,Hsinchu,132235,新竹市東區高峰路492號,高峰,24.77739,120.983048
139,HSZ291367,12,E,Hsinchu,130436,新竹市延平路一段553號對面,實踐新村,24.80498,120.94444
159,HSZ293789,12,W,Hsinchu,131880,新竹市光復路二段100號（建軍停車場）,過溝,24.79185,121.00352
171,HSZ300376,12,S,Hsinchu,136405,新竹市玄奘路98號附近電線桿(玄奘高幹13D9281AC06)旁,榕樹下,24.77227,120.94481
173,HSZ295501,12,E,Hsinchu,132713,新竹市明湖路920巷口,黃帝神宮,24.77111,120.97119
126,HSZ298889,12,S,Hsinchu,135384,新竹市自由路107號,自由經國路口,24.81407,120.97989
157,HSZ295477,12,N,Hsinchu,132725,新竹市明湖路460號對面,中興橋,24.78512,120.96759
141,HSZ291266,12,N,Hsinchu,130248,新竹市東大路10號,東門國小,24.80643,120.97365
176,HSZ303825,12,N,Hsinchu,138778,新竹市東區介壽路,金山街口,24.778051,121.019019
174,HSZ291871,12,S,Hsinchu,130543,新竹市高峰路440號,土雞城,24.77859,120.9821
129,HSZ297007,12,E,Hsinchu,133851,新竹縣文興路一段168號,新瓦屋(文興路),24.81137,121.02674
155,HSZ293699,12,E,Hsinchu,131815,新竹市牛埔路446號,香山區公所,24.79713,120.94209
155,HSZ291548,12,E,Hsinchu,130137,新竹市中華路四段399號,牛埔口,24.79215,120.94171
140,HSZ291636,12,W,Hsinchu,130166,新竹市中山路356號,西門口,24.80257,120.96218
171,HSZ295615,12,W,Hsinchu,132806,元培街371號對面,獅頭橋,24.77622,120.94392
142,HSZ291234,12,E,Hsinchu,130200,新竹市東山街64號,東山文教院,24.79747,120.97886
142,HSZ291767,12,S,Hsinchu,130240,新竹市學府路441號巷口對面,學府路口,24.8002363982,120.986719624
143,HSZ291230,12,E,Hsinchu,130208,新竹市光復路二段153號(候車亭),光復中學,24.79824,120.99456
143,HSZ293784,12,W,Hsinchu,130592,新竹市建功一路188號,公學新城,24.80182,120.99603
158,HSZ303589,12,W,Hsinchu,132687,新竹市東區寶山路,高峰植物園,24.788586,120.981918
124,HSZ302014,12,E,Hsinchu,130628,新竹市竹光路197及201號間,竹光3站,24.81166,120.95761
141,HSZ291662,12,S,Hsinchu,130187,新竹市民生路130號電箱旁,民生中央路口,24.81048,120.97691
176,HSZ291617,12,E,Hsinchu,130364,新竹市民有二街43號,民有二街,24.78087,121.00978
188,HSZ295492,12,S,Hsinchu,133012,新竹市東香路美城高幹9號電桿對面,富群街口,24.76743,120.96073
155,HSZ293728,12,W,Hsinchu,130339,新竹市牛埔南路161-1號,德和,24.79602,120.93471
105,HSZ291456,12,E,Hsinchu,130508,新竹市東大路三段419號,牛埔,24.83784,120.94167
125,HSZ291427,12,W,Hsinchu,130577,新竹市湳雅街365號,舊社,24.82334,120.97768
174,HSZ303845,12,S,Hsinchu,138795,新竹市東區高峰路487號,高峰,24.777612,120.983096
126,HSZ291714,12,S,Hsinchu,130391,新竹市自由路7號,監理站,24.81151,120.98206
140,HSZ301950,12,E,Hsinchu,137586,新竹市和平路1號,竹光國中,24.80756,120.95562
174,HSZ295423,12,W,Hsinchu,132672,新竹市高翠路292巷口,竹泰社區,24.77883,120.98534
141,HSZ291747,12,S,Hsinchu,130109,新竹市中正路17號,火車站,24.80312,120.971227
140,HSZ291641,12,E,Hsinchu,130148,新竹市牛埔路50號,信義幼稚園,24.79875,120.95505
155,HSZ298906,12,W,Hsinchu,130117,新竹市中華路、東華路交叉路口,中埔口,24.7938,120.94534
141,HSZ291743,12,N,Hsinchu,130082,新竹市中正路84號,東門市場,24.805319,120.969559
122,HSZ291372,12,S,Hsinchu,130471,新竹市延平路二段1357號,海埔地,24.81793,120.92892
105,HSZ291430,12,W,Hsinchu,130489,新竹市東大路三段538號,牛埔,24.83801,120.94149
171,HSZ295638,12,E,Hsinchu,132832,元培街145號,獅頭橋,24.7762,120.94399
174,HSZ291869,12,E,Hsinchu,130545,新竹市高峰路289號,竹泰社區,24.77876,120.98553
171,HSZ300480,12,E,Hsinchu,132830,新竹市元培街262號,香山坑,24.77841,120.93818
85,HSZ291432,12,W,Hsinchu,130497,新竹市南寮街34號,冰廠,24.84627,120.9288
142,HSZ302070,12,W,Hsinchu,132694,新竹市公園路90號對面,大潤發2站,24.805897,120.983924
142,HSZ291287,12,W,Hsinchu,130257,新竹市博愛街76號對面,交大博愛校區,24.79842,120.98382
156,HSZ303613,12,W,Hsinchu,136362,新竹市北區成德路123號,成德路,24.794247,120.958148
155,HSZ291589,12,E,Hsinchu,130351,新竹市牛埔南路與浸水街交叉口,埔前,24.79645,120.93782
177,HSZ291279,12,W,Hsinchu,130225,新竹市光復路一段140號,關東橋,24.78152,121.02303
159,HSZ291267,12,N,Hsinchu,130234,新竹市光復路二段566號(候車亭),金城新村口,24.79369,121.00086
157,HSZ291859,12,W,Hsinchu,130555,新竹市西大路106號,新竹青果,24.79635,120.97065
140,HSZ291315,12,N,Hsinchu,130098,新竹市中山路431巷(候車亭),天公壇,24.79959,120.95753
159,HSZ291782,12,N,Hsinchu,130263,新竹市金城一路35巷,建功公園,24.79412,121.00272
108,HSZ291423,12,S,Hsinchu,130576,新竹市溪州幹133對面,莊厝,24.82973,120.98136
157,HSZ295467,12,S,Hsinchu,132707,新竹市明湖路410號,御史崎,24.78522,120.9676
141,HSZ296974,12,W,Hsinchu,131833,新竹市民族路40-1號對面,東區區公所,24.80531,120.97301
142,HSZ291848,12,E,Hsinchu,130206,新竹市光復路二段257號,馬偕醫院,24.79989,120.99049
125,HSZ291760,12,E,Hsinchu,130179,新竹市武陵路76號,武陵社區,24.81795,120.965713
160,HSZ292084,12,N,Hsinchu,130698,新竹市埔頂路28093路燈桿,關埔公園,24.79123,121.01794
190,HSZ295497,12,E,Hsinchu,132715,新竹市明湖路1006巷旁,亞美佳社區,24.76764,120.97928
140,HSZ291313,12,N,Hsinchu,130101,新竹市經國路二段(陸橋下與延平路交叉口),三廠,24.80435,120.95539
145,HSZ297011,12,W,Hsinchu,133854,新竹縣文興路二段86號對面,哈洛德(文興路),24.80773,121.03473
142,HSZ295453,12,W,Hsinchu,132694,新竹市公園路96號,大潤發2站,24.805729,120.983587
171,HSZ291534,12,S,Hsinchu,130127,新竹市玄奘路48號(候車亭),玄奘大學,24.77517,120.94406
174,HSZ295433,12,N,Hsinchu,132676,新竹市高峰路325巷2號電箱旁,普天宮,24.78115,120.98062
124,HSZ291598,12,E,Hsinchu,130629,新竹市竹光路125號,竹光2站,24.81284,120.9587
141,HSZ293697,12,E,Hsinchu,130143,新竹市中華路二段576號,南門市場,24.79962,120.96774
141,HSZ295878,12,E,Hsinchu,133027,新竹市南大路139巷口旁,警察宿舍,24.80051,120.974456
141,HSZ291336,12,N,Hsinchu,130082,新竹市中正路84號,東門市場,24.805286,120.969584
140,HSZ291650,12,W,Hsinchu,130147,新竹市牛埔路142號,頂埔社區,24.7996798923,120.9523735708
141,HSZ291761,12,N,Hsinchu,130195,新竹市民族路16號,火車站,24.803308,120.97182
141,HSZ299152,12,N,Hsinchu,130195,新竹市北區民族路16號,火車站(民族路),24.80314,120.97176
176,HSZ291228,12,E,Hsinchu,130217,新竹市光復路一段327號,仙水,24.78297,121.01859
140,HSZ291351,12,E,Hsinchu,130440,新竹市延平路一段245號,太子宮,24.80499,120.95329
157,HSZ295851,12,E,Hsinchu,132996,新竹市南大路706巷,忠孝社區,24.78955,120.96599
159,HSZ302737,12,W,Hsinchu,138109,新竹市金城一路35巷7弄對面,金城一路站,24.794696,121.002086
125,HSZ291492,12,E,Hsinchu,130318,新竹市光華東一街10號,地政事務所,24.81705,120.9761
138,HSZ291350,12,E,Hsinchu,130431,新竹市延平路二段457巷口,中庄,24.80677,120.93165
106,HSZ291459,12,S,Hsinchu,130515,新竹市東大路二段730號對面,吉羊路口,24.82492,120.95712
126,HSZ298888,12,E,Hsinchu,135383,新竹市經國路一段252號對面,前溪社區,24.81514,120.98695
173,HSZ295845,12,S,Hsinchu,133000,新竹市明湖路460號,中興橋,24.78275,120.96728
174,HSZ303815,12,N,Hsinchu,132238,新竹市東區高翠路145號,下路北,24.781531,120.988018
139,HSZ291328,12,W,Hsinchu,130416,新竹市延平路二段184號,小南勢,24.80559,120.93759
189,HSZ295856,12,S,Hsinchu,133003,新竹市明湖路674號,柴橋,24.77001,120.96642
138,HSZ291366,12,S,Hsinchu,130427,新竹市延平路二段738號巷口對面,罟寮一站,24.80668,120.92154
155,HSZ293721,12,W,Hsinchu,130338,新竹市牛埔南路105號(中台化工),埔前,24.79659,120.93755
157,HSZ295424,12,W,Hsinchu,132664,新竹市食品路211號對面,竹蓮國小,24.79626,120.97456
141,HSZ295852,12,W,Hsinchu,132991,新竹市南大路260號,東南街口,24.79945,120.97261
157,HSZ295874,12,N,Hsinchu,133018,新竹市明湖路400巷對面,御史崎,24.78723,120.96749
157,HSZ295860,12,W,Hsinchu,132994,新竹市新竹國小候車亭,新竹國小,24.795817,120.966867
79,HSQ300097,13,E,HsinchuCounty,136240,九芎湖路段(竹15),埤塘窩口,24.851866,121.106283
110,HSQ296049,13,E,HsinchuCounty,133277,新竹縣竹北市三民路261號,地政所,24.83362,121.01299
110,HSQ292376,13,S,HsinchuCounty,130821,竹北市縣政二路161號,縣政二路,24.83098,121.01787
69,HSQ296148,13,W,HsinchuCounty,133363,新竹縣竹北市鳳岡路三段390號,庄頭,24.86206,120.9595
128,HSQ296028,13,E,HsinchuCounty,133237,新竹縣竹北市福興東路一段體育館入口對面,上泉州厝,24.81976,121.01742
90,HSQ296302,13,S,HsinchuCounty,133396,新竹縣竹北市中泰路,中泰路口,24.8406,121.00542
111,HSQ296069,13,S,HsinchuCounty,133205,永久餐廳停車場旁,莊敬北路,24.82958,121.02622
71,HSQ303559,13,E,HsinchuCounty,138595,新竹縣竹北市鳳岡路一段626號附近,土地公,24.858258,120.984711
110,HSQ292369,13,N,HsinchuCounty,130818,文化中心正門左側約50公尺,文化局,24.83021,121.01166
110,HSQ300885,13,E,HsinchuCounty,136707,新竹縣竹北市光明六路97號,家樂福,24.827427,121.008602
146,HSQ296085,13,W,HsinchuCounty,133250,新竹縣竹北市興隆路377號,興隆,24.80017,121.04265
177,HSQ299235,13,W,HsinchuCounty,135636,新竹縣竹東鎮竹中路6號,台鐵竹中站,24.781296,121.031296
235,HSQ302177,13,E,HsinchuCounty,137760,新竹縣竹東鎮東林路電線桿處(N75A105),郵局,24.736645,121.093021
129,HSQ292393,13,S,HsinchuCounty,130850,新竹縣竹北市光明六路東二段250號旁,特殊教育學校,24.81486,121.03238
88,HSQ296232,13,E,HsinchuCounty,133325,新竹縣竹北市中正西路979號,溪洲,24.84101,120.97645
72,HSQ296190,13,W,HsinchuCounty,133353,新竹縣竹北市鳳岡路一段28號,貓兒錠口,24.85524,121.00138
110,HSQ294957,13,N,HsinchuCounty,132497,新竹縣竹北市三民路261號,竹北地政事務所站,24.833,121.013
90,HSQ296092,13,N,HsinchuCounty,133192,新竹縣竹北市中泰路,中泰路口,24.84074,121.00532
110,HSQ292378,13,W,HsinchuCounty,130832,三民路上仁愛國中對面,仁愛國中,24.83277,121.01498
108,HSQ296257,13,S,HsinchuCounty,133409,新竹縣竹北市新溪街212號,新溪街,24.83324,120.99111
55,HSQ296730,13,W,HsinchuCounty,133689,新竹縣湖口鄉仁樂路公有停車場前方(變電箱)處,中華公園,24.871931,121.012968
129,HSQ296072,13,W,HsinchuCounty,133266,新竹縣竹北市東興路一段16號對面,喜來登,24.82014,121.02906
146,HSQ300085,13,E,HsinchuCounty,136229,新竹縣竹北市東興路一段839號,東海國小,24.805245,121.049606
147,HSQ296056,13,N,HsinchuCounty,133257,新竹縣竹北市東興路一段125號,東平,24.80039,121.05231
70,HSQ296180,13,S,HsinchuCounty,133361,新竹縣竹北市鳳岡路三段102號,鳳岡國中,24.86385,120.96637
110,HSQ296291,13,N,HsinchuCounty,133449,新竹縣竹北市縣政九路24號,縣政九路,24.82521,121.00849
178,HSQ300886,13,W,HsinchuCounty,136708,新竹縣竹東鎮公道五路,員山路口,24.78299,121.039086
71,HSQ296166,13,E,HsinchuCounty,133391,新竹縣竹北市鳳岡路一段339號,逸境新村,24.85667,120.99196
111,HSQ294325,13,S,HsinchuCounty,132204,新竹縣新埔鎮十興里犁頭山下18鄰39號對面,蓮華寺,24.827879,121.034964
90,HSQ296138,13,N,HsinchuCounty,133352,新竹縣竹北市中華路704-1號旁,中和街口,24.84877,121.00505
145,HSQ300888,13,S,HsinchuCounty,136710,新竹縣竹北市六家五路二段160號,公三公園,24.803179,121.03619
195,HSQ299229,13,W,HsinchuCounty,135630,新竹縣竹東鎮中興路三段97號,二重埔,24.766611,121.056716
88,HSQ296231,13,E,HsinchuCounty,133295,新竹縣竹北市中正西路1011號對面,溪洲,24.84101,120.97645
93,HSQ299297,13,N,HsinchuCounty,135684,新竹縣新埔鎮褒忠路448號之2,義民廟,24.841868,121.036698
111,HSQ296294,13,N,HsinchuCounty,133271,永久餐廳停車場旁,莊敬北路,24.82947,121.02632
88,HSQ296282,13,S,HsinchuCounty,133433,新竹縣竹北市長園一街135號,麻園橋,24.84476,120.97644
238,HSQ303114,13,E,HsinchuCounty,138360,,茄苳伯公,24.74152,121.13456
110,HSQ295276,13,N,HsinchuCounty,132539,新竹縣竹北市中正東路297號,天后宮站,24.835196,121.012376
74,HSQ292540,13,W,HsinchuCounty,130960,新竹縣湖口鄉勝利路二段99號,郵局前,24.86288,121.02573
109,HSQ296122,13,W,HsinchuCounty,133182,新竹縣竹北市光明六路301號對面,博愛國小,24.83009,121.00511
90,HSQ296160,13,N,HsinchuCounty,133351,新竹縣竹北市中華路636號（喜美保養廠）,泰和一街口,24.8474,121.0053
90,HSQ296074,13,W,HsinchuCounty,133279,新竹縣竹北市國盛街135號對面,華興街口,24.84223,121.00479
130,HSQ296295,13,W,HsinchuCounty,133262,新竹縣竹北市東興路一段與嘉祥六街交叉口,米崙,24.81276,121.04089
51,HSQ296136,13,N,HsinchuCounty,133371,新竹縣竹北市蓮花路580號,山腳,24.87408,120.95608
73,HSQ296736,13,E,HsinchuCounty,133695,新竹縣湖口鄉榮光路榮民所,榮民講習所,24.857744,121.013763
128,HSQ296055,13,E,HsinchuCounty,133235,新竹縣竹北市光明九路11號,東元醫院,24.8236,121.01258
129,HSQ296047,13,W,HsinchuCounty,133265,新竹縣竹北市嘉興路一段76號對面,交叉口,24.81909,121.03063
88,HSQ296280,13,E,HsinchuCounty,133432,新竹縣竹北市麻園二街236號對面,麻園國小,24.84638,120.9764
88,HSQ296215,13,E,HsinchuCounty,133322,新竹縣竹北市中正西路1520號對面,清境名園,24.84224,120.96619
89,HSQ296223,13,E,HsinchuCounty,133329,新竹縣竹北市中正西路643號,黃昏市場,24.84161,120.98675
89,HSQ296208,13,E,HsinchuCounty,133293,新竹縣竹北市中正西路857巷口,邱厝,24.84058,120.9806
110,HSQ296041,13,W,HsinchuCounty,133274,新竹縣竹北市中山路154號,水瀧,24.83516,121.02106
88,HSQ296238,13,W,HsinchuCounty,133297,新竹縣竹北市中正西路1458號,豐田口,24.84221,120.96701
92,HSQ292541,13,W,HsinchuCounty,130974,新竹縣新埔鎮義民路三段620-1號,下枋寮,24.84582,121.03049
92,HSQ292548,13,W,HsinchuCounty,130973,新竹縣新埔鎮義民路三段466號旁,新瓦屋,24.84463,121.03348
111,HSQ294329,13,N,HsinchuCounty,132206,新竹縣新埔鎮十興里犁頭山下18鄰39號,蓮華寺,24.827931,121.035366
129,HSQ296048,13,W,HsinchuCounty,133267,新竹縣竹北市勝利二路169號（五福宮前電箱旁）,伍福宮,24.82191,121.02891
108,HSQ296289,13,E,HsinchuCounty,133438,新竹縣竹北市新溪街388號對面,福德宮,24.83153,120.98347
90,HSQ296054,13,W,HsinchuCounty,133281,新竹縣竹北市國盛街301巷1號對面,兒15公園,24.84405,120.99972
89,HSQ296216,13,E,HsinchuCounty,133330,新竹縣竹北市中正西路571號,盛隆,24.84244,120.98931
129,HSQ296120,13,S,HsinchuCounty,133207,新竹縣竹北市莊敬五路77號,莊敬五路,24.8237,121.02698
53,HSQ296718,13,E,HsinchuCounty,133677,新竹縣新豐鄉康樂路一段27號對面,明新科大,24.865424,120.991008
109,HSQ296100,13,N,HsinchuCounty,133184,新竹縣竹北市中華路340-15號,水利大樓,24.8346,121.00474
79,HSQ300099,13,E,HsinchuCounty,136242,九芎湖路段(竹15),鴛鴦池口,24.861836,121.104113
255,HSQ294316,13,E,HsinchuCounty,132194,新竹縣橫山鄉中豐路二段126號,大肚社區,24.72525,121.13136
114,HSQ300100,13,W,HsinchuCounty,136243,新埔鎮中正路366號,新埔宗祠客家文化導覽館,24.827986,121.079189
69,HSQ296149,13,E,HsinchuCounty,133383,新竹縣竹北市鳳岡路三段417號,庄頭,24.86204,120.95925
110,HSQ296263,13,S,HsinchuCounty,133401,新竹縣竹北市縣政九路25號,縣政九路,24.82524,121.00879
90,HSQ296312,13,E,HsinchuCounty,133341,新竹縣竹北市中正西路119號,竹北國中,24.84109,121.00031
108,HSQ296241,13,S,HsinchuCounty,133410,新竹縣竹北市新溪街251號對面,三玄宮,24.8322,120.98882
177,HSQ299232,13,E,HsinchuCounty,135633,新竹縣竹東鎮中興路四段754號,富貴街口,24.77735,121.03451
54,HSQ302085,13,S,HsinchuCounty,137679,新竹縣新豐鄉縱貫公路182-188號,新豐車站,24.869292,120.996006
109,HSQ296188,13,E,HsinchuCounty,133334,新竹縣竹北市光明三路172號對面,衛生所,24.8313,121.00658
87,HSQ296226,13,E,HsinchuCounty,133318,新竹縣竹北市中正西路2011號,新庄口,24.84191,120.95539
129,HSQ296643,13,S,HsinchuCounty,130850,新竹縣竹北市光明六路東二段250號,特殊教育學校站,24.814253,121.0327
109,HSQ299252,13,W,HsinchuCounty,135653,新竹縣竹北市光明六路297-299號,博愛國小,24.829697,121.004985
110,HSQ292385,13,N,HsinchuCounty,130830,竹北市縣政二路518號,縣政二路,24.83103,121.01789
73,HSQ292538,13,W,HsinchuCounty,130949,新竹縣湖口鄉榮光路中華南幹16電桿,新竹鄉城,24.86063,121.00771
111,HSQ296024,13,W,HsinchuCounty,133270,新竹縣竹北市勝利五路27號,十興國小,24.8247,121.02512
146,HSQ296060,13,N,HsinchuCounty,133259,新竹縣竹北市東興路一段849號,東海國小,24.80585,121.04913
92,HSQ292528,13,S,HsinchuCounty,130967,新竹縣新埔鎮褒忠路455號,百木達景觀休閒花市,24.84198,121.03656
115,HSQ299301,13,N,HsinchuCounty,135688,新竹縣新埔鎮楊新路一段322號,新農民市場,24.831313,121.087735
69,HSQ303563,13,E,HsinchuCounty,138599,新竹縣竹北市鳳岡路三段286號,稻花香,24.86099,120.962388
109,HSQ296245,13,E,HsinchuCounty,133406,新竹縣竹北市光明六路781號前,公九公園,24.83292,121.00118
87,HSQ296219,13,S,HsinchuCounty,133306,新竹縣竹北市長青路一段221巷口,許厝,24.84658,120.95697
69,HSQ303562,13,W,HsinchuCounty,138598,新竹縣竹北市鳳岡路三段286號,稻花香,24.86099,120.962388
147,HSQ303547,13,S,HsinchuCounty,138586,新竹縣竹北市東興路二段142號,東平,24.8002801674,121.0523969321
176,HSQ292383,13,S,HsinchuCounty,130828,科學園區路燈E11-14,金山街,24.77823,121.01871
129,HSQ296068,13,N,HsinchuCounty,133269,新竹縣竹北市莊敬五路100號,莊敬五路,24.82359,121.02695
114,HSQ300095,13,E,HsinchuCounty,136238,新埔鎮新民里中正路608號,廣和宮,24.827933,121.074472
88,HSQ296195,13,W,HsinchuCounty,133296,新竹縣竹北市中正西路1312巷口,下溪洲,24.84177,120.97015
235,HSQ292552,13,N,HsinchuCounty,130977,新竹縣竹東鎮東林路196號,竹東火車站,24.73798,121.09418
110,HSQ296105,13,S,HsinchuCounty,133194,新竹縣竹北市仁義路176號對面,市場前,24.83371,121.0145
71,HSQ296142,13,W,HsinchuCounty,133357,新竹縣竹北市鳳岡路二段170號,田九厝,24.85902,120.97966
70,HSQ296170,13,E,HsinchuCounty,133387,新竹縣竹北市鳳岡路二段435巷口,園頂,24.8616,120.97134
110,HSQ296132,13,W,HsinchuCounty,133233,新竹縣竹北市光明六路10號,縣政府,24.82612,121.012
110,HSQ296109,13,W,HsinchuCounty,133195,新竹縣竹北市三民路253號對面,地政所,24.83323,121.01321
74,HSQ296722,13,N,HsinchuCounty,133681,新竹縣湖口鄉勝利路二段199號對面,天主堂,24.859985,121.022489
110,HSQ292380,13,S,HsinchuCounty,130834,"竹北市縣政九路149號
(南昌大樓)",台灣企銀,24.82792,121.01016
164,HSQ299239,13,W,HsinchuCounty,135640,新竹縣三民路281-325號,文山三民路口,24.788972,121.067287
109,HSQ296272,13,E,HsinchuCounty,133447,新竹縣竹北市福興路960號對面,台新罐頭廠,24.82739,121.00271
86,HSQ296211,13,N,HsinchuCounty,133311,新竹縣竹北市西濱路一段1號,海仔尾,24.85049,120.94165
129,HSQ299248,13,W,HsinchuCounty,135649,新竹縣竹北市光明六路東一段298號,喜來登飯店,24.8203,121.02702
110,HSQ296125,13,W,HsinchuCounty,133196,新竹縣竹北市三民路462號,新仁醫院,24.83516,121.00863
90,HSQ296076,13,S,HsinchuCounty,133282,新竹縣竹北市新民街304號,新民街,24.84438,120.99668
90,HSQ296235,13,E,HsinchuCounty,133332,新竹縣竹北市中正西路363號,聯興口,24.84304,120.99491
110,HSQ294949,13,N,HsinchuCounty,132489,新竹縣竹北市縣政二路620號,婦幼館站,24.833,121.019
147,HSQ303548,13,N,HsinchuCounty,133257,新竹縣竹北市東興路二段123號,東平,24.80069,121.05229
254,HSQ300432,13,E,HsinchuCounty,136425,新竹縣橫山鄉中豐路一段442號,油羅溪橋,24.71978,121.1226
129,HSQ296082,13,W,HsinchuCounty,133268,新竹縣竹北市勝利二路113號（遷移至勝利二路87號前）,廣聖宮,24.8224,121.027
86,HSQ296229,13,E,HsinchuCounty,133313,新竹縣竹北市新港三街一段126號,新港,24.85061,120.94641
51,HSQ296169,13,N,HsinchuCounty,133369,新竹縣竹北市鳳岡路五段358號對面,園仔頂,24.86679,120.95114
92,HSQ302371,13,E,HsinchuCounty,137909,新竹縣新埔鎮117縣道12號,仰德園,24.85104,121.027075
253,HSQ296737,13,E,HsinchuCounty,133696,新竹縣竹東鎮中豐路一段45號對面,新庄子,24.72168,121.1091
108,HSQ296260,13,E,HsinchuCounty,133411,新竹縣竹北市新溪街388號,福德宮,24.83164,120.98333
109,HSQ303572,13,E,HsinchuCounty,133447,新竹縣竹北市福興路960號對面,台新罐頭廠,24.82739,121.00271
255,HSQ294317,13,W,HsinchuCounty,132195,新竹縣橫山鄉中豐路二段126號對面,大肚社區,24.72544,121.13146
111,HSQ296036,13,W,HsinchuCounty,133273,新竹縣竹北市十興路299號對面,公園城,24.83313,121.02356
51,HSQ303567,13,S,HsinchuCounty,138603,新竹縣竹北市鳳岡路五段415巷口旁,尚海灘,24.869967,120.951496
110,HSQ296101,13,E,HsinchuCounty,133202,新竹縣竹北市中山路177號,水瓏,24.8351,121.02146
88,HSQ303568,13,W,HsinchuCounty,138604,新竹縣竹北市中正西路1206號旁電桿,中溪洲,24.841349,120.973221
88,HSQ296239,13,W,HsinchuCounty,133299,新竹縣竹北市中正西路1550號,豐田國小,24.84248,120.96466
91,HSQ296174,13,E,HsinchuCounty,133347,新竹縣竹北市柏愛街619號對面,彰化銀行,24.8418,121.01256
111,HSQ296580,13,E,HsinchuCounty,133594,新竹縣新埔鎮褒忠路119巷口處,褒忠自強北路口,24.830971,121.036404
72,HSQ303556,13,W,HsinchuCounty,138592,新竹縣竹北市鳳岡路一段138號,田中央,24.855897,120.9978
146,HSQ303265,13,E,HsinchuCounty,135643,,高鐵新竹站,24.807173,121.040384
87,HSQ296222,13,S,HsinchuCounty,133314,新竹縣竹北市港安街一段218號,港安宮,24.84978,120.94855
71,HSQ296143,13,E,HsinchuCounty,133389,新竹縣竹北市鳳岡路二段170號對面,田九厝,24.85893,120.97976
255,HSQ303466,13,W,HsinchuCounty,138555,新竹縣橫山鄉中豐路二段107號,大肚,24.72244,121.13549
129,HSQ294951,13,S,HsinchuCounty,132491,新竹縣竹北市莊敬北路66號,十興國小站,24.824,121.023
70,HSQ296153,13,W,HsinchuCounty,133360,新竹縣竹北市鳳岡路三段16號,東勢口,24.8634,120.96814
110,HSQ299250,13,W,HsinchuCounty,135651,光明六路與縣政七街口,縣政府,24.82598,121.01165
91,HSQ299255,13,E,HsinchuCounty,135656,新竹縣竹北市新泰路31號,竹北火車站,24.840943,121.008827
109,HSQ296274,13,S,HsinchuCounty,133443,新竹縣竹北市中華路270號對面,豆子埔橋,24.832488,121.003573
90,HSQ296311,13,E,HsinchuCounty,133340,新竹縣竹北市中正西路38號對面,市公所,24.83915,121.00436
69,HSQ296156,13,N,HsinchuCounty,133366,新竹縣竹北市鳳岡路五段60號,崁仔腳,24.86155,120.94923
92,HSQ302372,13,W,HsinchuCounty,137910,新竹縣新埔鎮117縣道12號,仰德園,24.851156,121.026961
51,HSQ296168,13,S,HsinchuCounty,133377,新竹縣竹北市鳳岡路五段358號,園仔頂,24.8666,120.95109
88,HSQ296281,13,S,HsinchuCounty,133431,新竹縣竹北市麻園二街296號,麻園涼亭,24.84781,120.97678
255,HSQ303465,13,E,HsinchuCounty,138554,新竹縣橫山鄉中豐路二段242號,大肚,24.72237,121.13531
51,HSQ296145,13,E,HsinchuCounty,133368,新竹縣竹北市鳳岡路五段265號巷口對面,田心子,24.86883,120.95128
74,HSQ292524,13,S,HsinchuCounty,130961,新竹縣湖口鄉勝利路二段199號,天主堂,24.8601,121.02229
176,HSQ292009,13,E,HsinchuCounty,130685,新竹市介壽路實驗中學對面,實驗中學,24.77651,121.01736
69,HSQ296182,13,E,HsinchuCounty,133381,新竹縣竹北市鳳岡路三段407巷口,德惠宮,24.86207,120.95407
91,HSQ296162,13,N,HsinchuCounty,133397,新竹縣竹北市泰和路75號對面,泰和里,24.84546,121.00772
146,HSQ296088,13,E,HsinchuCounty,133215,新竹縣竹北市東興路一段625號對面,下東興,24.8095,121.04554
162,HSQ302702,13,E,HsinchuCounty,138091,新竹縣竹東鎮員山路339號,員山便利屋,24.784039,121.045575
88,HSQ296254,13,N,HsinchuCounty,133416,新竹縣竹北市長園一街133號對面,麻園橋,24.84459,120.97641
216,HSQ300092,13,W,HsinchuCounty,136235,新竹縣竹東鎮北興路三段493號(對面),榮華,24.74828,121.082237
146,HSQ296058,13,N,HsinchuCounty,133258,新竹縣竹北市東興路二段9號,東海,24.80504,121.04969
51,HSQ296147,13,E,HsinchuCounty,133370,新竹縣竹北市鳳岡路五段666號,庄尾,24.87299,120.95478
129,HSQ302987,13,W,HsinchuCounty,138280,新竹縣竹北市光明六路東二段與嘉興路277巷口旁,喜來登飯店,24.819239,121.028755
146,HSQ296078,13,E,HsinchuCounty,133251,新竹縣竹北市隘口28-8號,隘口,24.79762,121.04836
70,HSQ296155,13,E,HsinchuCounty,133388,新竹縣竹北市鳳岡路二段326號對面,金興,24.85985,120.97556
146,HSQ296026,13,W,HsinchuCounty,133261,新竹縣竹北市東興路一段625號旁,下東興,24.80965,121.04544
128,HSQ296133,13,W,HsinchuCounty,133229,新竹縣竹北市福興東路一段140號對面,縣體育館,24.81939,121.01923
129,HSQ296091,13,W,HsinchuCounty,133228,新竹縣竹北市福興東路一段301號,上鹿場,24.81806,121.02367
178,HSQ299230,13,E,HsinchuCounty,135631,新竹縣竹東鎮中興路四段170號,工研院(東),24.77438,121.04811
129,HSQ292544,13,N,HsinchuCounty,130971,新竹縣竹北市自強北路152號,自強北路勝利八街,24.82407,121.03195
108,HSQ296266,13,E,HsinchuCounty,133439,新竹縣竹北市新溪街251號,三玄宮,24.83218,120.98884
215,HSQ300090,13,W,HsinchuCounty,136233,新竹縣竹東鎮中興路一段217號,四重埔,24.755779,121.070494
129,HSQ296131,13,E,HsinchuCounty,133208,新竹縣竹北市勝利二路118號（遷移至勝利二路87號對面）,廣聖宮,24.82259,121.02702
110,HSQ299249,13,E,HsinchuCounty,135650,新竹縣竹北市光明六路10號,縣政府,24.82573,121.01277
72,HSQ303557,13,E,HsinchuCounty,138593,新竹縣竹北市鳳岡路一段138號,田中央,24.855897,120.9978
89,HSQ296243,13,E,HsinchuCounty,133420,新竹縣竹北市新興路333號,土地廟,24.84796,120.98238
72,HSQ296189,13,E,HsinchuCounty,133393,新竹縣竹北市鳳岡路一段17號,貓兒錠口,24.85527,121.0014
89,HSQ296286,13,E,HsinchuCounty,133426,新竹縣竹北市新興路102號,溝貝街口,24.84574,120.99074
163,HSQ303553,13,N,HsinchuCounty,138591,新竹縣竹北市東興路二段與三民路口,中正橋,24.787881,121.064625
74,HSQ296723,13,E,HsinchuCounty,133682,新竹縣湖口鄉勝利路二段96號,郵局前,24.86279,121.02605
128,HSQ296119,13,W,HsinchuCounty,133231,新竹縣竹北市福興路440號,泉州厝,24.82126,121.014
161,HSQ302360,13,S,HsinchuCounty,137901,新竹縣竹東鎮公道路,員山里,24.78498,121.03492
73,HSQ292532,13,S,HsinchuCounty,130962,新竹縣湖口鄉勝利路二段264號旁,訓練中心,24.85808,121.01994
110,HSQ296173,13,N,HsinchuCounty,133287,新竹縣竹北市博愛街308號,新仁大安醫院,24.83501,121.00771
111,HSQ296340,13,E,HsinchuCounty,133456,,成瀧,24.834847,121.026097
87,HSQ296218,13,N,HsinchuCounty,133304,新竹縣竹北市長青路一段190巷口,許厝,24.84684,120.95709
163,HSQ303549,13,S,HsinchuCounty,138587,新竹縣竹北市東興路二段285巷對面,東光,24.79719,121.05502
70,HSQ296178,13,N,HsinchuCounty,133384,新竹縣竹北市鳳岡路三段199號,鳳岡國小,24.86133,120.96467
88,HSQ296244,13,N,HsinchuCounty,133415,新竹縣竹北市長園一街56號,大灣街口,24.84257,120.97527
163,HSQ303551,13,S,HsinchuCounty,138589,新竹縣竹北市東興路二段489號巷口,東海里,24.793088,121.058063
89,HSQ296228,13,E,HsinchuCounty,133331,新竹縣竹北市中正西路536號對面,新社尾,24.84298,120.99183
129,HSQ302092,13,W,HsinchuCounty,137686,新竹縣竹北市自強北路50號對面,喜來登飯店,24.821011,121.02902
56,HSQ292534,13,S,HsinchuCounty,130958,新竹縣湖口鄉勝利路一段82號,清泉堂,24.86732,121.03281
69,HSQ296183,13,W,HsinchuCounty,133365,新竹縣竹北市鳳岡路三段407巷口對面,德惠宮,24.86209,120.95382
177,HSQ299234,13,E,HsinchuCounty,135635,新竹縣竹東鎮竹中路6號,台鐵竹中站,24.78129,121.03129
146,HSQ303546,13,S,HsinchuCounty,138585,新竹縣竹北市東興路二段9號,東海,24.80288,121.05099
89,HSQ296322,13,E,HsinchuCounty,133430,新竹縣竹北市長園一街381巷口,長園,24.84926,120.97919
90,HSQ294946,13,N,HsinchuCounty,132486,新竹縣竹北市中正西路50號,竹北市公所站,24.839,121.004
111,HSQ296106,13,S,HsinchuCounty,133204,新竹縣竹北市十興路262號對面,田屋,24.83146,121.02559
90,HSQ296035,13,W,HsinchuCounty,133280,新竹縣竹北市國盛街222號,公園大郡,24.84342,121.00246
146,HSQ296128,13,W,HsinchuCounty,133218,新竹縣竹北市隘口三街279號,隘口三街,24.80111,121.04308
176,HSQ291984,13,W,HsinchuCounty,130683,新竹市介壽路實驗中學旁,實驗中學,24.7765,121.01711
73,HSQ292539,13,W,HsinchuCounty,130948,新竹縣湖口鄉榮光路榮民所對面,榮民講習所,24.85778,121.01382
15,HSQ302090,13,W,HsinchuCounty,137684,新竹縣新豐鄉池府路156號,池府王爺廟,24.910007,120.976481
86,HSQ296206,13,S,HsinchuCounty,133315,新竹縣竹北市港安街一段121號,和興,24.84601,120.94793
111,HSQ296046,13,N,HsinchuCounty,133272,新竹縣竹北市十興路262號,田屋,24.83143,121.02554
111,HSQ296097,13,E,HsinchuCounty,133203,新竹縣竹北市十興路299號,公園城,24.83315,121.02361
91,HSQ296103,13,E,HsinchuCounty,133198,新竹縣竹北市中山路579號,台元紡織廠,24.83862,121.0115
55,HSQ296729,13,W,HsinchuCounty,133688,新竹縣湖口鄉文化路101號,新工派出所,24.871334,121.016251
90,HSQ296236,13,W,HsinchuCounty,133288,新竹縣竹北市中正西路386號,聯興口,24.84303,120.99477
111,HSQ294950,13,N,HsinchuCounty,132490,新竹縣竹北市十興路295之2號,十興路站,24.833,121.022
163,HSQ303552,13,S,HsinchuCounty,138590,新竹縣竹北市東興路二段1020巷口,東方荷蘭,24.785708,121.065898
69,HSQ296151,13,E,HsinchuCounty,133367,新竹縣竹北市鳳岡路五段228號,拔仔窟,24.86453,120.94942
235,HSQ299225,13,W,HsinchuCounty,135626,新竹縣竹東鎮北興路二段29號,竹東火車站,24.73789,121.09424
72,HSQ292522,13,N,HsinchuCounty,130951,新竹縣湖口鄉中華路12-1號(美強光學公司對面),花王公司,24.864314,121.004425
108,HSQ296290,13,S,HsinchuCounty,133436,新竹縣竹北市溪州路175號,澎湖窟,24.83619,120.98386
145,HSQ299243,13,E,HsinchuCounty,135644,新竹縣竹北市文興路一段275號,文興嘉豐南路口,24.80888,121.03201
129,HSQ295277,13,W,HsinchuCounty,132540,新竹縣竹北市文興路一段301號 (金華苑門口),新瓦屋站,24.81132,121.027802
129,HSQ296086,13,E,HsinchuCounty,133212,新竹縣竹北市東興路一段231號對面,十興,24.81484,121.03555
92,HSQ302103,13,S,HsinchuCounty,135685,新竹縣新埔鎮褒忠路455號,義民廟,24.84223,121.036552
91,HSQ299459,13,E,HsinchuCounty,135820,新竹縣竹北市中和街112號(對面),南茂科技,24.8479793,121.0108905
178,HSQ299237,13,W,HsinchuCounty,135638,竹縣竹東鎮員山路235號,公道五路口,24.783591,121.047027
114,HSQ300096,13,E,HsinchuCounty,136239,新埔鎮中正路261號,新埔宗祠客家文化導覽館,24.82791,121.07926
111,HSQ300430,13,E,HsinchuCounty,136423,新竹縣竹北市自強北路(安興國小左側)，路口停止線前42公尺處,安興國小,24.826276,121.033442
252,HSQ292551,13,S,HsinchuCounty,130978,新竹縣竹東鎮東寧路一段293號,台泥前,24.72815,121.09274
92,HSQ292537,13,E,HsinchuCounty,130966,新竹縣新埔鎮義民路三段466號對面(路燈32026號),新瓦屋,24.84454,121.03346
129,HSQ296023,13,W,HsinchuCounty,133264,新竹縣竹北市東興路一段231號,十興,24.81494,121.03536
110,HSQ294948,13,E,HsinchuCounty,132488,新竹縣竹北市縣政九路146號,文化中心站,24.83,121.014
92,HSQ292518,13,E,HsinchuCounty,130964,新竹縣新埔鎮義民路三段(路燈32039號),下排子,24.84684,121.02864
87,HSQ296202,13,S,HsinchuCounty,133305,新竹縣竹北市長青路一段317號,白地,24.84962,120.95809
129,HSQ292401,13,N,HsinchuCounty,130863,新竹縣竹北市光明六路東二段201號,特殊教育學校,24.81518,121.03275
51,HSQ296184,13,E,HsinchuCounty,133373,新竹縣竹北市蓮花路925號,蓮花寺,24.87614,120.96138
195,HSQ300089,13,W,HsinchuCounty,136232,新竹縣竹東鎮中興路二段91號,狀元新村,24.758931,121.065123
90,HSQ296096,13,E,HsinchuCounty,133190,新竹縣竹北市國盛街207巷1號,公園大郡,24.84342,121.0023
90,HSQ296283,13,E,HsinchuCounty,133442,新竹縣竹北市華興街245號,華興街,24.83842,121.00062
110,HSQ296306,13,S,HsinchuCounty,133335,新竹縣竹北市博愛街405號,竹北,24.83746,121.00914
92,HSQ296719,13,E,HsinchuCounty,133678,新竹縣新埔鎮義民路三段357號,義民廟,24.843433,121.035378
145,HSQ296095,13,W,HsinchuCounty,133221,新竹縣竹北市隘口三街72號對面,公三公園,24.80313,121.03668
108,HSQ296261,13,N,HsinchuCounty,133413,新竹縣竹北市溪州路140號,澎湖窟,24.83627,120.98392
87,HSQ296221,13,E,HsinchuCounty,133320,新竹縣竹北市中正西路1586號巷口對面,頂庄口,24.84244,120.96174
145,HSQ296094,13,W,HsinchuCounty,133223,新竹縣竹北市六家五路一段290號對面,六家五路,24.80741,121.02934
90,HSQ296313,13,E,HsinchuCounty,133342,新竹縣竹北市中正西路207號,新社,24.84204,120.99835
110,HSQ292384,13,N,HsinchuCounty,130829,竹北市縣政二路縣福園公園,衛生局,24.82538,121.01539
109,HSQ296040,13,S,HsinchuCounty,133284,新竹縣竹北市中華路362號對面（竹北派出所旁）,水利大樓,24.834571,121.004474
89,HSQ296265,13,E,HsinchuCounty,133422,新竹縣竹北市新興路177號,聯興社區,24.84649,120.98808
87,HSQ296204,13,E,HsinchuCounty,133316,新竹縣竹北市中正西路2008號對面,白地口,24.84302,120.94863
129,HSQ299244,13,W,HsinchuCounty,135645,新竹縣竹北市文興路一段350號,文興嘉豐南路口,24.811144,121.02709
129,HSQ296118,13,N,HsinchuCounty,133225,新竹縣竹北市嘉豐五路二段（客家園區對面）,客家園區,24.81156,121.02785
56,HSQ292520,13,S,HsinchuCounty,130959,新竹縣湖口鄉勝利路二段湖口農會,中正堂,24.86584,121.0307
109,HSQ296071,13,E,HsinchuCounty,133285,新竹縣竹北市光明六301號,博愛國小,24.82983,121.00509
145,HSQ296062,13,E,HsinchuCounty,133246,新竹縣竹北市六家五路二段56號對面電箱旁,東興國小,24.80554,121.03323
70,HSQ296171,13,W,HsinchuCounty,133359,新竹縣竹北市鳳岡路二段540巷口,園頂,24.86167,120.9713
110,HSQ296638,13,N,HsinchuCounty,133636,新竹縣竹北市縣政二路512號,縣政二路站,24.830782,121.018153
58,HSQ302091,13,W,HsinchuCounty,137685,新竹縣湖口鄉八德路二段130號,湖口老街,24.878519,121.058554
129,HSQ299295,13,N,HsinchuCounty,135682,新竹縣竹北市自強北路48號,喜來登站,24.820874,121.029333
129,HSQ294953,13,W,HsinchuCounty,132493,新竹縣竹北市自強北路46號,喜來登飯店站,24.82,121.029
109,HSQ299253,13,E,HsinchuCounty,135654,新竹縣竹北市中華路368號,竹北口,24.83777,121.00521
163,HSQ299241,13,W,HsinchuCounty,135642,新竹縣竹北市文興路一段350號,砂石廠,24.792342,121.058919
56,HSQ292525,13,E,HsinchuCounty,130955,新竹縣湖口鄉工業二路9號對面,光復工業二路口,24.86794,121.02299
109,HSQ296248,13,E,HsinchuCounty,133408,新竹縣竹北市新溪街130號,林厝,24.83459,120.9938
146,HSQ294955,13,S,HsinchuCounty,132495,新竹縣竹北市高鐵七路6號,新竹高鐵站,24.807,121.04
163,HSQ300083,13,E,HsinchuCounty,136227,新竹縣芎林鄉文山路1290號,下山,24.79116,121.06263
129,HSQ296107,13,S,HsinchuCounty,133211,新竹縣竹北市嘉興路一段56號,交叉口,24.81934,121.03058
110,HSQ296065,13,W,HsinchuCounty,133181,新竹縣竹北市光明六路91號對面,家樂福,24.82757,121.00917
163,HSQ300882,13,E,HsinchuCounty,136704,新竹縣竹東鎮光明路847號,紫藤園社區,24.783978,121.053241
92,HSQ302087,13,N,HsinchuCounty,135684,新竹縣新埔鎮褒忠路(百木達花市),義民廟,24.84195,121.036689
145,HSQ296032,13,E,HsinchuCounty,133245,新竹縣竹北市六家五路一段290號,六家五路,24.80734,121.02938
129,HSQ299246,13,W,HsinchuCounty,135647,新竹縣竹北市文興路一段36號,文興嘉興路口,24.812552,121.024186
146,HSQ303544,13,S,HsinchuCounty,138585,新竹縣竹北市東興路二段16號,東海,24.80288,121.05099
73,HSQ296721,13,N,HsinchuCounty,133680,新竹縣湖口鄉勝利路二段358號旁,訓練中心,24.85805,121.02007
70,HSQ296152,13,E,HsinchuCounty,133386,新竹縣竹北市鳳岡路三段11號,東勢口,24.86337,120.96827
145,HSQ296039,13,N,HsinchuCounty,133247,新竹縣竹北市嘉豐十一路一段水圳公園對面,水圳公園,24.80928,121.03616
235,HSQ302178,13,W,HsinchuCounty,137761,新竹縣竹東鎮東林路郵局對面,郵局,24.73663,121.0931
72,HSQ296732,13,S,HsinchuCounty,133691,新竹縣湖口鄉中華路6號對面,花王公司,24.864595,121.004532
238,HSQ303115,13,E,HsinchuCounty,138361,,牛欄滄,24.73742,121.128923
163,HSQ296067,13,E,HsinchuCounty,133253,新竹縣竹北市東興路二段588巷6號對面（國產水泥前）,國產實業,24.79231,121.05657
69,HSQ296150,13,S,HsinchuCounty,133379,新竹縣竹北市鳳岡路五段209號,拔仔窟,24.86443,120.9494
110,HSQ303555,13,N,HsinchuCounty,130818,新竹縣竹北市縣政九路146號,文化中心,24.830227,121.01162
129,HSQ296029,13,E,HsinchuCounty,133239,新竹縣竹北市福興東路一段306號,上鹿場,24.81816,121.02349
88,HSQ296252,13,N,HsinchuCounty,133417,新竹縣竹北市麻園二街236號,麻園國小,24.84639,120.97643
87,HSQ296210,13,N,HsinchuCounty,133303,新竹縣竹北市長青路一段68旁,長青路口,24.84343,120.95574
129,HSQ296034,13,S,HsinchuCounty,133240,新竹縣竹北市嘉興路229號,六家農會,24.81775,121.02855
69,HSQ303565,13,E,HsinchuCounty,138601,新竹縣竹北市鳳岡路三段450巷口對面(黃珍香喜餅對面對柱子),崇義村,24.8616,120.958106
108,HSQ296279,13,S,HsinchuCounty,133435,新竹縣竹北市溪州路260號對面,陳厝,24.83794,120.98432
71,HSQ296167,13,W,HsinchuCounty,133355,新竹縣竹北市鳳岡路一段339號對面,逸境新村,24.85679,120.99159
88,HSQ296253,13,E,HsinchuCounty,133418,新竹縣竹北市麻園二街296號對面,麻園涼亭,24.84784,120.97681
108,HSQ296285,13,E,HsinchuCounty,133440,新竹縣竹北市新溪街212號對面,新溪街,24.83323,120.99114
109,HSQ296270,13,W,HsinchuCounty,133444,新竹縣竹北市光明十一路107號對面,公九公園,24.83292,121.0011
92,HSQ292542,13,W,HsinchuCounty,130975,新竹縣新埔鎮義民路三段(電桿-枋寮幹101A號),下排子,24.84683,121.02863
90,HSQ295278,13,N,HsinchuCounty,132541,新竹縣竹北中華路422號,中泰路口站,24.84024,121.0055015
90,HSQ296127,13,W,HsinchuCounty,133187,新竹縣竹北市中正西路242號,新社,24.84226,120.99824
178,HSQ299231,13,W,HsinchuCounty,135632,新竹縣竹東鎮中興路四段195號,工研院(東),24.776306,121.04645
178,HSQ299236,13,E,HsinchuCounty,135637,新竹縣竹東鎮員山路230號,公道五路口,24.78337,121.03984
109,HSQ296275,13,S,HsinchuCounty,133445,新竹縣竹北市光明六路781號對面,里活動中心,24.82982,120.99868
69,HSQ303564,13,W,HsinchuCounty,138600,新竹縣竹北市鳳岡路三段450巷口,崇義村,24.861545,120.957855
145,HSQ296080,13,E,HsinchuCounty,133244,新竹縣竹北市六家五路一段198號,嘉政一街,24.80883,121.02658
253,HSQ294314,13,E,HsinchuCounty,132192,新竹縣竹東鎮中豐路一段81號,榮民醫院,24.72338,121.09878
254,HSQ292556,13,W,HsinchuCounty,130984,新竹縣橫山鄉中豐路一段256號對面,橫山,24.72056,121.11623
129,HSQ303292,13,S,HsinchuCounty,138438,新竹縣竹北市自強北路81號,六家派出所站,24.822281,121.030095
129,HSQ292523,13,S,HsinchuCounty,130968,新竹縣竹北市自強北路89號,自強北路勝利八街,24.82426,121.03169
92,HSQ292517,13,E,HsinchuCounty,130965,新竹縣新埔鎮義民路三段620號對面,下枋寮,24.84571,121.03053
163,HSQ300087,13,W,HsinchuCounty,136231,新竹縣文山路1263號,下山,24.7913,121.06257
110,HSQ296310,13,E,HsinchuCounty,133339,新竹縣竹北市中正東路313號,天后宮,24.83543,121.01195
146,HSQ296033,13,S,HsinchuCounty,133220,新竹縣竹北市文興路二段（高鐵）,六家高鐵站,24.80719,121.04028
109,HSQ296051,13,S,HsinchuCounty,133283,新竹縣竹北市中華路304號,竹北口,24.83801,121.0051
253,HSQ294315,13,W,HsinchuCounty,132193,新竹縣竹東鎮中豐路一段90號,榮民醫院,24.72335,121.09875
129,HSQ296130,13,W,HsinchuCounty,133226,新竹縣竹北市福興東路二段87號,嘉豐一街,24.81501,121.02773
146,HSQ304229,13,W,HsinchuCounty,139082,,高鐵新竹站,24.80785,121.04044
146,HSQ296079,13,E,HsinchuCounty,133249,新竹縣竹北市隘口三街279號對面,隘口三街,24.80111,121.04286
162,HSQ300088,13,E,HsinchuCounty,136225,新竹縣竹東鎮員山路399號,員山加油站,24.78458,121.04853
90,HSQ294956,13,N,HsinchuCounty,132496,新竹縣竹北市中正西路50號,竹北市公所站,24.839,121.004
109,HSQ296267,13,S,HsinchuCounty,133446,新竹縣竹北市光明十一路9號,下斗崙,24.82927,120.99923
110,HSQ296083,13,E,HsinchuCounty,133234,新竹縣竹北市光明六路10號對面,縣政府,24.82598,121.0116
89,HSQ296224,13,W,HsinchuCounty,133291,新竹縣竹北市中正西路649巷口,黃昏市場,24.84165,120.98659
89,HSQ296249,13,E,HsinchuCounty,133419,新竹縣竹北市長園一街381巷口,長園,24.8492,120.97909
128,HSQ296114,13,W,HsinchuCounty,133232,新竹縣竹北市光明九路36-3號,東元醫院,24.82369,121.01266
86,HSQ296230,13,E,HsinchuCounty,133312,新竹縣竹北市新港二街99號對面,新港里,24.84957,120.94508
130,HSQ296027,13,W,HsinchuCounty,133263,新竹縣竹北市東興路一段413號旁,上十興,24.81399,121.03791
162,HSQ302703,13,W,HsinchuCounty,138092,新竹縣竹東鎮竹48鄉道354-364,員山便利屋,24.783991,121.045589
55,HSQ296731,13,S,HsinchuCounty,133690,新竹縣湖口鄉中華路22號對面,管理中心,24.87201,121.009673
110,HSQ292377,13,N,HsinchuCounty,130816,"竹北縣政六路上
（往返乘車同一站點）",縣政府,24.82523,121.01221
92,HSQ299298,13,S,HsinchuCounty,135685,新竹縣新埔鎮褒忠路448號之2對面,義民廟,24.842124,121.036533
88,HSQ296214,13,W,HsinchuCounty,133298,新竹縣竹北市中正西路1520號,清境名園,24.84236,120.96614
88,HSQ296269,13,S,HsinchuCounty,133434,新竹縣竹北市長園一街56號對面,大灣街口,24.84255,120.97534
87,HSQ296193,13,W,HsinchuCounty,133301,新竹縣竹北市中正西路1676號,下庄口,24.842031,120.95786
163,HSQ296073,13,S,HsinchuCounty,133252,新竹縣竹北市隘口里4鄰35號旁,堤頂,24.79313,121.05322
109,HSQ296250,13,W,HsinchuCounty,133402,新竹縣竹北市福興路806號,祖師廟,24.82566,121.00648
252,HSQ292555,13,N,HsinchuCounty,130985,新竹縣竹東鎮東寧路一段293號對面,台泥前,24.72815,121.09283
162,HSQ300082,13,E,HsinchuCounty,136225,新竹縣竹東鎮員山路399號,員山加油站,24.78452,121.04842
70,HSQ303561,13,E,HsinchuCounty,138597,新竹縣竹北市鳳崗路二段521巷巷口,青山鳳凰宮,24.862465,120.969679
195,HSQ300079,13,E,HsinchuCounty,136222,新竹縣竹東鎮中興路二段112號,狀元新村,24.759119,121.064989
129,HSQ299247,13,E,HsinchuCounty,135648,新竹縣竹北市光明六路東一段247號,喜來登飯店,24.820089,121.027186
70,HSQ296181,13,E,HsinchuCounty,133385,新竹縣竹北市鳳岡路三段102號對面,鳳岡國中,24.86373,120.96631
87,HSQ296203,13,W,HsinchuCounty,133309,新竹縣竹北市中正西路2008號,白地口,24.84301,120.94853
87,HSQ296197,13,E,HsinchuCounty,133317,新竹縣竹北市中正西路2028號,土地廟,24.8425,120.95108
109,HSQ296246,13,W,HsinchuCounty,133403,新竹縣竹北市福興路960號,台新罐頭廠,24.82704,121.0028
51,HSQ303566,13,N,HsinchuCounty,138602,新竹縣竹北市鳳岡路五段415巷口旁,尚海灘,24.869967,120.951496
110,HSQ296099,13,S,HsinchuCounty,133200,新竹縣竹北市仁義路67號,文化街口,24.83609,121.0152
90,HSQ296256,13,E,HsinchuCounty,133424,新竹縣竹北市新興路30號,新社里,24.84358,120.99454
89,HSQ296212,13,E,HsinchuCounty,133328,新竹縣竹北市中正西路701號,馬麟厝,24.84074,120.9848
110,HSQ292381,13,N,HsinchuCounty,130831,竹北市縣政二路 620號,婦幼館,24.8339,121.01955
54,HSQ292530,13,W,HsinchuCounty,132202,新竹縣湖口鄉榮光路613號對面,榮光三民路口,24.86589,120.99785
110,HSQ296172,13,S,HsinchuCounty,133333,新竹縣竹北市博愛街305號,新仁大安醫院,24.83482,121.00765
179,HSQ299287,13,E,HsinchuCounty,135676,新竹縣竹東鎮光明路7號,上員火車站,24.77817,121.055847
129,HSQ303293,13,N,HsinchuCounty,138439,新竹縣竹北市自強北路150號,六家派出所站,24.822303,121.03042
215,HSQ300078,13,E,HsinchuCounty,136221,新竹縣竹東鎮中興路一段208號,四重埔,24.755834,121.070597
89,HSQ296268,13,N,HsinchuCounty,133429,新竹縣竹北市新興路333號對面,土地廟,24.84794,120.98232
90,HSQ296111,13,W,HsinchuCounty,133186,新竹縣竹北市中正西路116號,竹北國中,24.84099,121.00066
72,HSQ296135,13,E,HsinchuCounty,133392,新竹縣竹北市鳳岡路一段236號對面,大眉,24.85636,120.99522
70,HSQ296179,13,W,HsinchuCounty,133362,新竹縣竹北市鳳岡路三段200號,鳳岡國小,24.86135,120.9645
195,HSQ299228,13,E,HsinchuCounty,135629,新竹縣竹東鎮中興路三段100號,二重埔,24.76652,121.05698
110,HSQ296110,13,N,HsinchuCounty,133197,新竹縣竹北市博愛街426號,竹北,24.83793,121.00967
91,HSQ302380,13,E,HsinchuCounty,135656,,竹北火車站,24.839724,121.009382
110,HSQ296102,13,E,HsinchuCounty,133199,新竹縣竹北市中山路429號,北和宮,24.83802,121.01534
177,HSQ299233,13,W,HsinchuCounty,135634,新竹縣竹東鎮中興路四段747號,富貴街口,24.777159,121.034787
111,HSQ296087,13,E,HsinchuCounty,133206,新竹縣竹北市勝利五路25號對面,十興國小,24.82465,121.0249
54,HSQ296733,13,W,HsinchuCounty,133692,新竹縣湖口鄉三民路3號,新豐後火車站,24.868658,120.997079
56,HSQ296724,13,N,HsinchuCounty,133683,新竹縣湖口鄉勝利路二段湖口農會對面,中正堂,24.86577,121.03058
129,HSQ296063,13,S,HsinchuCounty,133243,新竹縣竹北市嘉豐五路二段客家園區前,客家園區,24.81152,121.02779
89,HSQ296293,13,E,HsinchuCounty,133427,新竹縣竹北市新興路177號對面,聯興社區,24.84647,120.98808
129,HSQ294954,13,S,HsinchuCounty,132494,新竹縣竹北市福興東路二段93號,嘉豐郵局站,24.814,121.028
146,HSQ302084,13,S,HsinchuCounty,137678,新竹縣竹北市高鐵七路高鐵新竹站客運停靠區,高鐵新竹站,24.808739,121.041418
71,HSQ303558,13,W,HsinchuCounty,138594,新竹縣竹北市鳳岡路一段626號附近,土地公,24.858258,120.984711
110,HSQ292368,13,E,HsinchuCounty,130819,三民路上仁愛國中,仁愛國中,24.83304,121.01395
109,HSQ296112,13,N,HsinchuCounty,133183,新竹縣竹北市中華路270號,豆子埔橋,24.83206,121.00321
56,HSQ296726,13,N,HsinchuCounty,133685,新竹縣湖口鄉安宅一街33號(斜對面),光復東路永順街口,24.870251,121.03405
91,HSQ299458,13,W,HsinchuCounty,135819,新竹縣竹北市中和街112號,南茂科技,24.8478529,121.0102384
111,HSQ303294,13,E,HsinchuCounty,138440,新竹縣竹北市莊敬北路268號,莊敬北路站,24.829,121.026
110,HSQ296098,13,W,HsinchuCounty,133193,新竹縣竹北市中正東路312號,天后宮,24.83555,121.01159
111,HSQ300431,13,W,HsinchuCounty,136424,新竹縣竹北市自強北路288號(愛心聯盟生鮮超市)變電箱前處,安興國小,24.825586,121.033156
89,HSQ296207,13,E,HsinchuCounty,133327,新竹縣竹北市中正西路857號,邱厝,24.84058,120.9806
129,HSQ296093,13,N,HsinchuCounty,133227,新竹縣竹北市福興東路二段15號,六家,24.81659,121.02613
109,HSQ303571,13,W,HsinchuCounty,133403,新竹縣竹北市福興路960號,台新罐頭廠,24.82704,121.0028
110,HSQ296308,13,W,HsinchuCounty,133337,新竹縣竹北市中山路322號,北和宮,24.83796,121.01547
90,HSQ296126,13,N,HsinchuCounty,133188,新竹縣竹北市新民街314號對面,新民街,24.84402,120.99647
71,HSQ296177,13,E,HsinchuCounty,133390,新竹縣竹北市鳳岡路一段526號對面,鳳山崎,24.85732,120.98878
110,HSQ292372,13,S,HsinchuCounty,130820,竹北市縣政二路275號,婦幼館,24.83401,121.01942
146,HSQ299242,13,E,HsinchuCounty,135643,高鐵新竹站月台,高鐵新竹站,24.80785,121.040443
87,HSQ296225,13,W,HsinchuCounty,133302,新竹縣竹北市中正西路1726號,新庄口,24.84196,120.95589
108,HSQ296251,13,N,HsinchuCounty,133414,新竹縣竹北市溪州路256號,陳厝,24.83792,120.98439
54,HSQ296734,13,E,HsinchuCounty,133693,新竹縣湖口鄉榮光路605號,榮光三民路口,24.865424,120.997665
110,HSQ296121,13,E,HsinchuCounty,133201,新竹縣竹北市中正西路71號,頂好超市,24.83519,121.01794
216,HSQ299227,13,W,HsinchuCounty,135628,新竹縣竹東鎮長春路三段191號,民德路口,24.7438,121.08331
129,HSQ292547,13,E,HsinchuCounty,130970,新竹縣竹北市自強北路48號,喜來登飯店,24.82087,121.02929
69,HSQ296159,13,W,HsinchuCounty,133364,新竹縣竹北市鳳岡路三段508號,崁頂,24.86147,120.95655
114,HSQ300101,13,W,HsinchuCounty,136244,新埔鎮新民里中正路608號,廣和宮,24.828015,121.074624
146,HSQ300504,13,E,HsinchuCounty,135643,,高鐵新竹站,24.807025,121.040612
178,HSQ300887,13,E,HsinchuCounty,136709,新竹縣竹東鎮公道五路,員山路口,24.782655,121.03922
146,HSQ300086,13,W,HsinchuCounty,136230,:新竹縣東興路二段16號,東海,24.802847,121.050862
219,HSQ303113,13,E,HsinchuCounty,138359,,石爺石娘,24.745167,121.13833
90,HSQ296284,13,N,HsinchuCounty,133425,新竹縣竹北市新興路30號對面,新社里,24.84354,120.99449
109,HSQ296187,13,W,HsinchuCounty,133286,新竹縣竹北市光明三路172號,衛生所,24.83137,121.0062
56,HSQ296725,13,N,HsinchuCounty,133684,新竹縣湖口鄉勝利路一段81號對面,清泉堂,24.86724,121.03294
91,HSQ296307,13,W,HsinchuCounty,133336,新竹縣竹北市中山路432號,台元紡織廠,24.83867,121.01176
89,HSQ296217,13,W,HsinchuCounty,133290,新竹縣竹北市中正西路602號,盛隆,24.84263,120.98951
69,HSQ296157,13,S,HsinchuCounty,133380,新竹縣竹北市鳳岡路五段65巷口,崁仔腳,24.8616,120.94912
253,HSQ299222,13,E,HsinchuCounty,135623,新竹縣竹東鎮中豐路一段88號(對面),台北榮總新竹分院,24.72338,121.09852
109,HSQ299251,13,E,HsinchuCounty,135652,新竹縣竹北市光明六路72號,博愛國小,24.83005,121.0051
108,HSQ296288,13,S,HsinchuCounty,133437,新竹縣竹北市溪州路71號,溪洲里,24.83299,120.98311
146,HSQ296116,13,E,HsinchuCounty,133216,新竹縣竹北市東興路一段717號對面,東興,24.80786,121.04784
145,HSQ296117,13,W,HsinchuCounty,133222,新竹縣竹北市六家五路二段56號,東興國小,24.80555,121.03323
90,HSQ296161,13,S,HsinchuCounty,133395,新竹縣竹北市中華路805號,泰和一街口,24.8459,121.00571
91,HSQ296175,13,S,HsinchuCounty,133400,新竹縣竹北市博愛街619號,彰化銀行,24.84208,121.01274
129,HSQ302086,13,E,HsinchuCounty,137680,新竹縣竹北市自強北路50號,喜來登飯店,24.820874,121.029335
147,HSQ296057,13,N,HsinchuCounty,133256,新竹縣竹北市東興路二段東海87號高幹（電桿）,東光,24.79752,121.05489
109,HSQ296242,13,N,HsinchuCounty,133404,新竹縣竹北市光明十一路28號,下斗崙,24.82939,120.99902
51,HSQ296137,13,S,HsinchuCounty,133375,新竹縣竹北市蓮花路580號對面,山腳,24.87398,120.95609
130,HSQ296053,13,E,HsinchuCounty,133214,新竹縣竹北市東興路一段與嘉祥六街交叉口,米崙,24.81254,121.04105
90,HSQ296255,13,S,HsinchuCounty,133407,新竹縣竹北市華興街280號,華興街,24.83833,121.00056
110,HSQ294947,13,W,HsinchuCounty,132487,新竹縣竹北市三民路200號,竹北地政事務所站,24.833,121.013
129,HSQ303295,13,W,HsinchuCounty,132493,新竹縣竹北市自強南路57號,自強南路站,24.818,121.027
55,HSQ292529,13,N,HsinchuCounty,130952,新竹縣湖口鄉中華路22號,管理中心,24.87203,121.00983
74,HSQ292543,13,W,HsinchuCounty,130976,新竹縣新埔鎮新湖路366號,大東山休閒農園,24.8528,121.02197
128,HSQ296084,13,E,HsinchuCounty,133238,新竹縣竹北市福興東路一段148號,縣體育館,24.81927,121.01937
163,HSQ296059,13,W,HsinchuCounty,133254,新竹縣竹北市東興路二段489號巷口,東海里,24.79324,121.0582
179,HSQ299288,13,W,HsinchuCounty,135677,新竹縣竹東鎮光明路7號(對面),上員火車站,24.778051,121.055784
87,HSQ296209,13,S,HsinchuCounty,133307,新竹縣竹北市長青路一段63號,長青路口,24.84342,120.95567
51,HSQ296146,13,W,HsinchuCounty,133376,新竹縣竹北市鳳岡路五段651巷口,庄尾,24.87305,120.95476
128,HSQ296064,13,E,HsinchuCounty,133236,新竹縣竹北市福興路440號對面,泉州厝,24.82116,121.01386
88,HSQ296196,13,E,HsinchuCounty,133324,新竹縣竹北市中正西路1312號對面,下溪洲,24.84182,120.97013
15,HSQ302088,13,E,HsinchuCounty,137682,新竹縣新豐鄉池府路156號,池府王爺廟,24.910425,120.976705
74,HSQ292519,13,E,HsinchuCounty,130963,新竹縣新埔鎮新湖路366號對面,大東山休閒農園,24.85271,121.022
88,HSQ303569,13,E,HsinchuCounty,138605,新竹縣竹北市中正西路1273巷口旁,中溪洲,24.841218,120.973614
129,HSQ296108,13,E,HsinchuCounty,133209,新竹縣竹北市勝利二路163號對面電箱旁,伍福宮,24.82185,121.02907
216,HSQ300091,13,E,HsinchuCounty,136234,新竹縣竹東鎮北興路三段493號,榮華,24.748357,121.082374
89,HSQ296262,13,E,HsinchuCounty,133421,新竹縣竹北市新興路242巷口對面,蓮園社區,24.84711,120.98521
146,HSQ296066,13,N,HsinchuCounty,133219,新竹縣竹北市高鐵八路312號,高鐵八路,24.80322,121.04074
110,HSQ300884,13,W,HsinchuCounty,136706,新竹縣竹北市光明六路18號,家樂福,24.827469,121.009183
145,HSQ296129,13,W,HsinchuCounty,133224,新竹縣竹北市六家五路一段161號,嘉政一街,24.80881,121.02645
164,HSQ299238,13,E,HsinchuCounty,135639,新竹縣三民路281-325號對面,文山三民路口,24.788877,121.067417
56,HSQ296728,13,W,HsinchuCounty,133687,新竹縣湖口鄉工業二路13號,光復工業二路口,24.867959,121.023085
89,HSQ296233,13,E,HsinchuCounty,133326,新竹縣竹北市中正西路1010-1號對面,聯興,24.84075,120.97889
115,HSQ299302,13,S,HsinchuCounty,135689,新竹縣新埔鎮楊新路一段322號對面,新農民市場,24.831329,121.087639
254,HSQ300433,13,W,HsinchuCounty,136426,新竹縣橫山鄉中豐路一段442號對面,油羅溪橋,24.720143,121.122577
87,HSQ296220,13,W,HsinchuCounty,133300,新竹縣竹北市中正西路1586號巷口,頂庄口,24.84258,120.96167
54,HSQ294324,13,E,HsinchuCounty,132203,新竹縣湖口鄉自強路(面對美商英特格公司大門右側),新豐後火車站,24.868829,120.99688
110,HSQ296309,13,N,HsinchuCounty,133338,新竹縣竹北市仁義路74號,文化街口,24.83627,121.01519
163,HSQ303550,13,S,HsinchuCounty,138588,新竹縣竹北市東興路二段456號,三崁店,24.79469,121.05667
235,HSQ22129,13,W,HsinchuCounty,114724,新竹縣竹東鎮東寧路三段135號,竹東,24.739744,121.085747
176,HSQ292374,13,N,HsinchuCounty,130824,科學園區路燈E11-14對面,金山街,24.77818,121.01909
110,HSQ296070,13,W,HsinchuCounty,133275,新竹縣竹北市中正西路74號對面,頂好超市,24.8352,121.01793
109,HSQ296247,13,N,HsinchuCounty,133405,新竹縣竹北市光明十一路108號,里活動中心,24.83144,120.99817
127,HSQ303570,13,E,HsinchuCounty,138607,新竹縣竹北市興隆路一段199號,中醫大,24.823975,121.001091
69,HSQ296158,13,E,HsinchuCounty,133382,新竹縣竹北市鳳岡路三段507巷口,崁頂,24.8616,120.95627
110,HSQ292375,13,S,HsinchuCounty,130822,竹北衛生局側門,衛生局,24.82577,121.01543
72,HSQ296134,13,W,HsinchuCounty,133354,新竹縣竹北市鳳岡路一段236號,大眉,24.85639,120.99542
87,HSQ296194,13,E,HsinchuCounty,133319,新竹縣竹北市中正西路1977號,下庄口,24.842,120.95762
146,HSQ300084,13,E,HsinchuCounty,136228,新竹縣竹北市東興路二段3號,東海,24.802991,121.050897
71,HSQ296176,13,W,HsinchuCounty,133356,新竹縣竹北市鳳岡路一段526號,鳳山崎,24.85755,120.98807
128,HSQ296090,13,W,HsinchuCounty,133230,新竹縣竹北市福興東路一段體育館入口,上泉州厝,24.82016,121.01687
55,HSQ292536,13,E,HsinchuCounty,130954,新竹縣湖口鄉文化路142號,新工派出所,24.8713,121.01629
253,HSQ299223,13,W,HsinchuCounty,135624,新竹縣竹東鎮中豐路一段88號(下公館派出所),台北榮總新竹分院,24.72329,121.09885
129,HSQ296123,13,E,HsinchuCounty,133210,新竹縣竹北市東興路一段16號,喜來登,24.82012,121.02926
56,HSQ292527,13,E,HsinchuCounty,130956,新竹縣湖口鄉光復東路217號,光復東路安宅七街口,24.86951,121.02759
129,HSQ299245,13,E,HsinchuCounty,135646,新竹縣竹北市文興路一段17號,文興嘉興路口,24.81281,121.02413
88,HSQ296237,13,E,HsinchuCounty,133323,新竹縣竹北市中正西路1311號,豐田口,24.8421,120.96725
146,HSQ296296,13,S,HsinchuCounty,133248,新竹縣竹北市高鐵八路312號,高鐵八路,24.80316,121.04067
89,HSQ296213,13,E,HsinchuCounty,133292,新竹縣竹北市中正西路701號,馬麟厝,24.84074,120.9848
252,HSQ294561,13,S,HsinchuCounty,106644,新竹縣竹東鎮至善路52號(醫院正門前方道路),臺大醫院竹東分院,24.71876,121.09441
73,HSQ296735,13,E,HsinchuCounty,133694,新竹縣湖口鄉榮光路&國強街路口候車亭,新竹鄉城,24.86051,121.00759
87,HSQ296198,13,W,HsinchuCounty,133308,新竹縣竹北市中正西路2028號對面,土地廟,24.84253,120.95093
129,HSQ299296,13,S,HsinchuCounty,135683,新竹縣竹北市自強北路48號對面,喜來登站,24.820987,121.029037
110,HSQ302179,13,S,HsinchuCounty,137762,新竹縣竹北市中正東路312號,天后宮,24.83549,121.01156
51,HSQ296186,13,E,HsinchuCounty,133372,新竹縣竹北市蓮花路631號對面,蓮花寺入口,24.87705,120.95531
110,HSQ292379,13,S,HsinchuCounty,130833,文化中心對面,文化局,24.83028,121.01147
163,HSQ296025,13,N,HsinchuCounty,133255,新竹縣竹北市東興路二段415號,三崁店,24.79477,121.05676
55,HSQ292521,13,E,HsinchuCounty,130953,新竹縣湖口鄉仁樂路88號對面,中華公園,24.87228,121.01236
92,HSQ296720,13,W,HsinchuCounty,133679,新竹縣新埔鎮義民路三段388號,義民廟,24.843523,121.035332
146,HSQ296115,13,S,HsinchuCounty,133217,新竹縣竹北市東興路一段849號對面,東海國小,24.80508,121.04959
110,HSQ296045,13,N,HsinchuCounty,133278,新竹縣竹北市仁義路174號,市場前,24.83421,121.01432
108,HSQ296259,13,N,HsinchuCounty,133412,新竹縣竹北市溪州路88號,溪洲里,24.83292,120.98311
216,HSQ299226,13,E,HsinchuCounty,135627,新竹縣竹東鎮長春路三段192號,民德路口,24.74409,121.08323
90,HSQ296104,13,W,HsinchuCounty,133185,新竹縣竹北市中正西路50號,市公所,24.83953,121.00375
175,HSQ292360,13,E,HsinchuCounty,130823,"科學園區新安站
（往返乘車同一站點）",新安,24.78119,121.00439
110,HSQ292370,13,N,HsinchuCounty,130817,"竹北市縣政九路128號
（台灣企銀）",台灣企銀,24.82791,121.01014
70,HSQ296154,13,W,HsinchuCounty,133358,新竹縣竹北市鳳岡路二段326號,金興,24.85992,120.97551
146,HSQ292533,13,S,HsinchuCounty,130969,新竹縣竹北市高鐵七路6號,高鐵新竹站,24.80719,121.04028
90,HSQ296124,13,E,HsinchuCounty,133191,新竹縣竹北市國盛街135號（釣蝦場前）,華興街口,24.84223,121.00493
90,HSQ296113,13,E,HsinchuCounty,133189,新竹縣竹北市國盛街301巷1號,兒15公園,24.84408,120.99993
253,HSQ296738,13,W,HsinchuCounty,133697,新竹縣橫山鄉中豐路一段45號,新庄子,24.721832,121.109125
56,HSQ296727,13,W,HsinchuCounty,133686,新竹縣湖口鄉光復東路218號,光復東路安宅七街口,24.869406,121.027443
91,HSQ296163,13,W,HsinchuCounty,133350,新竹縣竹北市泰和路81號,泰和里,24.848134,121.010631
129,HSQ296081,13,E,HsinchuCounty,133242,新竹縣竹北市福興東路二段93號對面,嘉豐一街,24.81503,121.02791
92,HSQ292545,13,N,HsinchuCounty,130972,新竹縣新埔鎮褒忠路455號對面,百木達景觀休閒花市,24.84179,121.03658
235,HSQ299224,13,E,HsinchuCounty,135625,新竹縣竹東北興路二段(竹東遊客中心),竹東火車站,24.73806,121.09421
79,HSQ300098,13,E,HsinchuCounty,136241,九芎湖路段(竹15),金谷農場口,24.856011,121.1053
89,HSQ296227,13,W,HsinchuCounty,133289,新竹縣竹北市中正西路532號,新社尾,24.84306,120.99184
89,HSQ296258,13,E,HsinchuCounty,133423,新竹縣竹北市新興路106號對面,溝貝街口,24.84574,120.99087
109,HSQ296276,13,E,HsinchuCounty,133441,新竹縣竹北市新溪街113號,林厝,24.83472,120.99407
51,HSQ296144,13,S,HsinchuCounty,133378,新竹縣竹北市鳳岡路五段265號巷口,田心子,24.8687,120.95125
145,HSQ296642,13,S,HsinchuCounty,133638,新竹縣竹北市文興路一段301號,文興嘉豐南路口站,24.808586,121.032611
89,HSQ296234,13,E,HsinchuCounty,133294,新竹縣竹北市中正西路1008號,聯興,24.84075,120.97889
110,HSQ296640,13,S,HsinchuCounty,133637,新竹縣竹北縣政二路163號,縣政二路站,24.830887,121.01791
90,HSQ296139,13,S,HsinchuCounty,133394,新竹縣竹北市中華路985號（現代汽車）,中和街口,24.84925,121.00482
252,HSQ299221,13,E,HsinchuCounty,135622,新竹縣竹東鎮至善路52號,台大竹東分院,24.718718,121.094392
254,HSQ292553,13,E,HsinchuCounty,130979,新竹縣橫山鄉中豐路一段250號,橫山,24.72044,121.11601
88,HSQ296240,13,E,HsinchuCounty,133321,新竹縣竹北市中正西路1550號對面,豐田國小,24.8424,120.96473
129,HSQ294952,13,N,HsinchuCounty,132492,新竹縣竹北市勝利二路97號,勝利二路站,24.822,121.027
161,HSQ302359,13,N,HsinchuCounty,137900,新竹縣竹東鎮公道路,員山里,24.7854,121.03514
109,HSQ299254,13,W,HsinchuCounty,135655,新竹縣竹北市中華路371號,竹北口,24.837752,121.004723
253,HSQ294560,13,E,HsinchuCounty,132316,新竹縣竹東鎮中豐路一段81號(醫院正門),臺北榮總新竹分院,24.723359,121.099323
86,HSQ296205,13,E,HsinchuCounty,133310,新竹縣竹北市港安街一段105號對面,和興,24.84576,120.94763
110,HSQ296075,13,E,HsinchuCounty,133276,新竹縣竹北市三民路453號,新仁醫院,24.83518,121.00864
129,HSQ296031,13,S,HsinchuCounty,133241,新竹縣竹北市福興東路二段12號旁,六家,24.81623,121.0264
110,HSQ303554,13,S,HsinchuCounty,130833,新竹縣竹北市縣政九路146號對面,文化中心,24.830268,121.011526
56,HSQ292526,13,S,HsinchuCounty,130957,新竹縣湖口鄉安宅一街33號(靠永順街側),光復東路永順街口,24.87053,121.03393
146,HSQ296061,13,W,HsinchuCounty,133260,新竹縣竹北市東興路一段717號旁,東興,24.80802,121.04785
163,HSQ300883,13,W,HsinchuCounty,136705,新竹縣竹東鎮光明路847號,紫藤園社區,24.784086,121.053258
130,HSQ296089,13,E,HsinchuCounty,133213,新竹縣竹北市東興路一段480號,上十興,24.81394,121.03819
70,HSQ303560,13,W,HsinchuCounty,138596,新竹縣竹北市鳳崗路二段521巷巷口,青山鳳凰宮,24.862465,120.969679
109,HSQ296278,13,E,HsinchuCounty,133448,新竹縣竹北市福興路806號對面,祖師廟,24.82566,121.0066
89,HSQ296323,13,E,HsinchuCounty,133428,新竹縣竹北市新興路242巷口對面,蓮園社區,24.84707,120.98529
15,HSQ302089,13,E,HsinchuCounty,137683,新竹縣新豐鄉紅毛港遊憩區停車場,紅毛港,24.91098,120.971081
163,HSQ299240,13,E,HsinchuCounty,135641,新竹縣東興路二段20號 (對面),砂石廠,24.792555,121.058982
51,HSQ296185,13,W,HsinchuCounty,133374,新竹縣竹北市蓮花路631號,蓮花寺入口,24.8771,120.95536
