StationName,StationAddress,BikesCapacity,lat,lng
蓮池潭站,高雄市左營區環潭路蓮池潭風景區管理所後方入口處,30,22.680599,120.297466
鳳山火車站,高雄市鳳山區曹公路與協和路交叉口,6,22.630663,120.357928
美麗島站,高雄市新興區六合二路捷運O5R10美麗島站9號出口前,40,22.632193,120.301736
棧貳庫站,棧貳庫站外停車場,14,22.618946,120.2778
西子灣站,高雄市鼓山區鼓山一路新濱派出所旁(近捷運O1西子灣站2號出口),30,22.622261,120.275466
高雄電影館站,高雄市盬埕區下水道展示館前,18,22.622573,120.289162
市議會(舊址)站,高雄市前金區中華三路與中正四路口(近捷運O4市議會站4號出口),18,22.62947,120.295631
中央公園站,高雄市前金區中山二路捷運R9中央公園站1號出口旁,52,22.623751,120.300808
獅甲站,高雄市前鎮區中山三路勞工公園內(近捷運R7獅甲站2號出口),36,22.6058,120.308565
市府四維站,高雄市苓雅區四維三路與永定街口,4,22.619958,120.311451
文化師大站,高雄市苓雅區和平一路文化中心旁,8,22.625204,120.319704
衛武營站,高雄市苓雅區中正一路、建軍路口(近捷運O10衛武營站3號出口),10,22.624937,120.341108
新興區公所站,高雄市新興區錦田路新興區公所前(近捷運O6信義國小站1號出口),36,22.630995,120.310233
後驛站,高雄市三民區博愛一路捷運R12後驛站2號出口旁,24,22.64818,120.303512
凹仔底站,高雄市鼓山區博愛二路捷運R13凹仔底站4號出口旁,8,22.658611,120.302691
生態園區站,高雄市左營區博愛三路捷運R15生態園區站2號出口旁,20,22.676996,120.306484
三多站,高雄市苓雅區中山二路與三多三路圓環處(近捷運R8三多商圈站5號出口),38,22.614348,120.30466
巨蛋站,高雄市左營區博愛二路三民家商旁(近捷運R14巨蛋站1號出口),8,22.665982,120.303109
民生圓環站,新興區榮治里中山一路距民生一路30米處,32,22.627638,120.301264
民生民權站,苓雅區德生里民權一路與民生一路東南側人行道上,34,22.627252,120.310898
七賢忠孝站,新興區成功里七賢一路距忠孝一路50米處,18,22.634204,120.305899
凱旋站,高雄市前鎮區中山三路與時代大道口(近捷運R6凱旋站3號出口),36,22.598783,120.313393
技擊館站,苓雅區中正一路與輔仁路技擊館對面(近捷運O9技擊館站2號出口),2,22.627368,120.333654
新光中山站,"高雄市前鎮區中山二路與新光路口(華爾街美語前,近捷運R8三多商圈站2號出口)",48,22.611981,120.304955
五塊厝站,苓雅區中正一路258號對面(近捷運O8五塊厝站4號出口),32,22.628955,120.328987
市警局站,前金區中正四路與市中一路(市警局前),10,22.627712,120.29068
明誠光興站,左營區明誠二路距光興街口52米處,16,22.660913,120.310678
家樂福愛河站,三民區河東路距河北二路約72米處,36,22.633976,120.285852
愛河之心站,三民區博愛一路距同盟一路約80米處,12,22.65226,120.303892
高雄醫學大學站,高雄市三民區同盟一路(高醫大學大門旁),2,22.64921,120.309919
新光成功站,高雄市前鎮區成功二路距新光路18米處,34,22.610203,120.299343
夢時代站,高雄市前鎮區成功二路與時代大道口東北側,12,22.595861,120.304928
裕誠辛亥站,左營區裕誠路與辛亥路辛亥停車場旁,38,22.664695,120.31018
文化中正站,苓雅區和平一路與中正一路捷運O7文化中心站3號出口旁,8,22.629767,120.318253
光華公園站,前鎮區民裕街與一心一路口,6,22.608549,120.316435
民權公園站,前鎮區民權二路與二聖二路民權公園旁,44,22.61362,120.313978
國賓飯店站,前金區河東路與民生二路國賓飯店旁,30,22.624053,120.290406
鹽埕埔站,鹽埕區大勇路鹽埕國小旁(近捷運O2鹽埕埔站1號出口),26,22.622587,120.283159
家樂福成功站,前鎮區中華五路與復興三路家樂福前,32,22.605003,120.30488
高雄女中站,前金區五福三路高雄女中前,8,22.62079,120.293598
中山大學站,中山大學內,0,22.624337,120.26566
科工館站,三民區九如一路科工館前,32,22.639878,120.322807
華榮公園站,鼓山區文信路與華榮路口華榮公園旁,24,22.664363,120.296876
森林公園站,鼓山區神農路與龍勝路口,42,22.657992,120.296334
美術館藝片天站,高雄市鼓山區美術東一路(中華藝術學校後面),14,22.655918,120.289135
大東文化藝術中心站-02,捷運大東站2號出口左側,0,22.625133,120.362708
大東文化藝術中心站-01,捷運大東站1號出口對面,0,22.625063,120.363416
捷運鳳山站,捷運鳳山站1號出口左邊,18,22.62594,120.355828
鳳凌廣場站,鳳凌廣場左邊,0,22.624113,120.356491
市議會(新址)站,鳳山區國泰路2段136號對面(東區稅捐稽徵處),6,22.619844,120.348068
捷運鳳山西站,捷運鳳山西站2號出口左邊人行道,24,22.625313,120.348543
市府鳳山行政中心站,澄清路與光復路二段交叉路口,6,22.62974,120.344351
澄清湖站,面對澄清湖正門左邊-意向園區,26,22.653562,120.349281
捷運小港站,捷運小港站4號出口前,18,22.564789,120.353658
餐旅高中站,餐旅高中正門右邊,24,22.566265,120.372176
社教館站,學府路與大鵬路口,32,22.565198,120.358618
班超公園站,班超路上(岡山中街與忠誠路284巷中間),4,22.600957,120.32557
高雄中學站,高雄中學大門右側,6,22.637937,120.298753
博愛國小站,十全與自由路周邊商圈,20,22.645214,120.307123
客家文物館站,客家文物會館左側,20,22.650571,120.295722
明堤公園站,明堤公園-明仁路上,54,22.662922,120.312202
微笑公園站,博愛三路與至真路交叉路口,24,22.671912,120.304348
左營國小站,左營國小側門(實踐路與軍校路交叉口),16,22.690574,120.292463
捷運世運主場館站,捷運世運主場館站1號出口對面,42,22.700928,120.302471
世運主場館站,國軍左營醫院對面,24,22.701989,120.29259
捷運楠梓加工出口區站,捷運楠梓加工出口區站1號出口處左前方,28,22.718579,120.30617
加昌國小站,高雄市楠梓區樂群路220號,20,22.721531,120.296355
捷運都會公園站,捷運都會公園站4號出口處,34,22.730211,120.32053
高科大第一校區站,校內,24,22.752774,120.331578
捷運青埔站,站外機車停車場,22,22.744869,120.317899
捷運南岡山站,捷運南岡山站1號出口旁公車亭後方,18,22.780613,120.300722
岡山區公所站,高雄市岡山區岡山路343號(區公所後方停車場旁),12,22.797512,120.294591
西子樓站,中山大學西子樓前空地,24,22.6182,120.266181
龍虎塔站,高雄市左營區勝利路110號(蓮池潭旅遊服務中心旁),22,22.679928,120.292102
右昌圖書館站,高雄市楠梓區藍昌路72號,14,22.715581,120.290213
中鋼台船站,面對台船大門口之左側人行道上,4,22.554138,120.34757
金獅湖站,金鼎路與鼎力路交叉路口(位於鼎力路上),12,22.665096,120.321665
文藻外語大學站,獅湖國小側門人行道（位於鼎中路上）,24,22.67117,120.320951
莊敬公園站,明誠一路與大園街交叉路口左近人行道(臨明誠一路上),18,22.659621,120.324749
高雄高工站,雄工側門臨中華電信機房,8,22.650378,120.325634
鼎金國小站,大昌一路，面對鼎金國小側門左側人行道上,12,22.656168,120.322775
高雄國際機場站,高雄國際機場站1號出口前;高雄公園中山四路上,18,22.569418,120.343726
左營高中站,海功路上，左營高中校門口,0,22.693598,120.295864
蓮潭會館站,蓮潭會館左側AC路面,26,22.677816,120.299942
高鐵左營站,高鐵站大門前3塊人行道上,26,22.686674,120.308278
孔廟站,31號公園人行道(臨孔營路),24,22.688085,120.297361
草衙站,捷運草衙站1號出口前,18,22.579527,120.329016
佛公國小站,后平路與佛德路交叉路口,52,22.573815,120.320044
海洋局站,漁港中二路與漁港東二路交叉路口,28,22.57217,120.317475
二聖公園站,光華二路及英德街交叉路口,10,22.61385,120.318304
福誠高中站,位於五甲三路上，福誠高中側門旁臨媽祖港橋的空地上,46,22.589048,120.322925
道明中學站,建國一路上，道明中學與聖功醫院中間空地,12,22.633129,120.323558
英明公園站,英明路上，英明公園近英明國中側,24,22.616351,120.324878
四維公園站,自強路與四維路交叉路口附近,12,22.615717,120.299094
正修大學站,面對正修科大校門口右側,12,22.650698,120.3488
南華市場站,美麗島站7號出口前人行道,6,22.631456,120.303227
郵政總局站,美麗島站6號出口前人行道,6,22.631089,120.304429
民族八德站,民族一路與八德路交叉路口(臨民族一路上),12,22.635323,120.313318
高雄大學站,高雄大學路與大學南路交叉口,20,22.732634,120.284253
中山高中站,藍昌路與藍田路交叉路口,10,22.727406,120.292047
龍華國小站,大順一路與南屏路交叉路口左近人行道(位於南屏路),28,22.655851,120.299933
高科大旗津校區站(1),位於中洲三路上，面對校門口之左側,14,22.608252,120.272264
巨蛋站(2),面對原站址右側擴充,2,22.666014,120.303262
後驛站(2),面對原站址左側擴充,16,22.647866,120.303345
高雄醫學大學站(2),面對原站址左側擴充,2,22.649398,120.309879
中央公園站(2),面對原站址右側擴充,22,22.624214,120.300923
高雄女中站(2),面對原站址左側擴充,10,22.620733,120.293601
三多站(2),面對原站址左側擴充,14,22.614432,120.304416
市府四維站(2),面對原站址左側擴充,6,22.620097,120.311969
文化中正站(2),面對原站址左側擴充,4,22.629797,120.318221
文化師大站(2),面對原站址右側擴充,14,22.625373,120.319594
光華公園站(2),面對原站址右側擴充,4,22.608306,120.316265
高科大旗津校區站(2),位於中洲三路上，面對校門口之右側,28,22.608217,120.272334
鳳新高中站,高雄市鳳山區新富路257號‎(鳳新高中旁),0,22.61302,120.343262
前鎮高中站,R5前鎮高中站1號出口對面，翠亨北路上,24,22.588154,120.32193
美術館馬卡道站,兒童美術館立體停車場前平面停車格（可由美術館路上近龍水路停車場入口進入）,34,22.65495,120.283089
福山廣場站,文川路上，重義路與重愛路中間,36,22.685999,120.314104
阿公店水庫站,阿公店水庫大門口右側停車場,24,22.801439,120.357113
澄清湖站(2),澄清湖兒童園區停車場內,28,22.658443,120.346107
寶業里滯洪池站,寶業里滯洪池控制中心前，褒揚東街上,40,22.639959,120.346333
陽明溜冰場站,陽明溜冰場前，義華路上,10,22.643133,120.339539
義民廟站,三民義民廟旁，壽昌路91巷與壽昌路口,26,22.642492,120.333667
鼎泰廣場站,鼎瑞街與裕誠路口,28,22.663888,120.315002
平和停車場站,平和停車場後方，平和五路與平和路口,30,22.562743,120.335459
小港區公所站,小港區公所前方，小港路上,26,22.565069,120.338391
大寮區公所站,大寮區公所內，臨鳳林三路,16,22.605399,120.395458
和春技術學院站(1),和春技術學院大發校區內，臨農場路,26,22.60608,120.427392
和春技術學院站(2),和春技術學院大寮分校前，信義路上,46,22.633877,120.392021
捷運大寮站,OT1大寮站1號出口，臨捷西路,8,22.621312,120.390423
輔英科技大學站,輔英科技大學校內停車場(進學路151號),32,22.604022,120.391128
台鐵新左營站,台鐵新左營站旁，臨站前北路,16,22.68838,120.307605
扶輪公園站,博愛四路與重信路口,22,22.682814,120.312075
高雄榮總站,高雄榮民總醫院急診室對面，榮總路上,22,22.680077,120.321723
岡山河堤公園站,仁義路與河堤路二段路口,32,22.786133,120.295002
岡山稽徵所站,岡山稽徵所後方，臨健鷹南路,18,22.785084,120.290891
岡山忠孝里站,岡山移民署後方，臨岡山路,24,22.790537,120.296173
岡山文化中心站,岡山文化中心停車場旁，岡山南路與介壽東路口,18,22.784278,120.297605
原住民故事館站,高雄原住民服務中心對面，翠亨北路上,30,22.593917,120.316238
消防局站,高雄市消防局門口，凱旋四路上,44,22.593092,120.307349
前鎮加工區站(1),加工出口區內，中一路與中四路口,14,22.601729,120.291757
阿公店森林公園站,阿公店森林公園汽車停車場內,16,22.811389,120.343875
文化中心站,廣州一街與青年一路口,38,22.624979,120.31697
正義市場站,正義市場後方，文昌路上,14,22.631218,120.338583
高雄高商站,復興二路與五福二路口,14,22.625217,120.308457
高雄監理所站,公路總局高雄市區監理站門口旁，德民路上,16,22.731132,120.317048
楠梓翠屏站,楠梓區翠屏活動中心旁，德賢路上,56,22.726234,120.302495
鳳新高中站(2),鳳新高中側門，新康街上,6,22.614189,120.343893
森林公園站(2),至聖路與龍德路口,0,22.659623,120.296881
高雄真愛館站,城市商旅高雄真愛館旁，必信街與大義街口,14,22.619285,120.284972
小港醫院站,小港醫院門口休憩區，山明路與漢民路口,38,22.567722,120.362808
自由市場站,自由黃昏市場對面，臨自由三路,34,22.672155,120.311353
興達港站,興達港情人碼頭海上劇場旁，正大路與東方路一段中間,20,22.879024,120.211033
文山高中站,文山高中大門旁，公園路上,0,22.648561,120.353384
市府鳳山行政中心站(2),市府鳳山行政中心旁，澄清路上,2,22.630171,120.3441
澄清湖站(3),澄清湖海洋奇珍園旁停車場內,20,22.655859,120.351552
澄清湖站(4),澄清湖仁智亭前停車場內,20,22.662492,120.341789
澄清湖站(5),澄清湖後門入口處左方,0,22.668333,120.34591
長青綜合服務中心站,長青綜合服務中心停車場內，臨英明路,26,22.623122,120.322092
翠平公園站,翠亨南路上，豐田街與平和東路間,22,22.570005,120.335748
中鋼成功站,中鋼會館7-11前方，忠勤路上,0,22.60411,120.302531
聖和公園站,二聖一路上，和平二路與英明一路間,26,22.61211,120.323489
圖書總館站,新光路上，面對大門廣場左側自行車停車場內,16,22.610606,120.302104
中山公園站,誠義路與國泰路一段路口,22,22.614312,120.360651
高雄監理所(武營)站,高雄區監理所側門旁，武林路與武營路口,22,22.614298,120.336654
捷運鳳山國中站,O14鳳山國中站1號出入口，中山東路上,22,22.624523,120.371078
新甲國小站,新甲國小對面，新富路上，大明路與新強路間,16,22.61274,120.34035
三信家商站,三信家商大門旁，三多一路上,16,22.622089,120.32909
大同醫院站,大同一路與中華三路口,12,22.627568,120.296977
公二公園站,正義路與九如一路口,22,22.636053,120.343413
後備指揮部站,高雄市後備指揮部大門旁，武功巷上,22,22.672199,120.331266
三民高中站,金鼎路與金山路口,8,22.663383,120.326475
家樂福鼎山站,家樂福鼎山店旁，鼎山街上,24,22.653075,120.31874
新光國小站,新光國小側門旁，曾子路上,6,22.680522,120.305831
新莊高中站,新莊高中大門旁，文慈路上,8,22.680827,120.317428
海青工商站,海青工商側門旁，左營大路上,8,22.674425,120.286455
合群新城和區站,合群新城和區，緯九路與海景街口,8,22.695437,120.28737
富國公園站,富國路與保靖街口,6,22.663878,120.306713
鼓山高中站,青海路與鼓山三路口,6,22.651728,120.276293
仁武區運動公園站,仁武區運動公園旁，仁信巷與仁祥街口,6,22.703625,120.345135
旗津醫院站,旗津醫院大門旁，旗港路上,14,22.590139,120.285186
興達港站(2),興達港立體停車場旁，民有路上，民族路與尚禮街間,18,22.871535,120.19391
明德國小站,海富路與海平路口,16,22.687264,120.289478
朝陽寺站,草衙中街上，和運街與和豐街中間，朝陽寺停車場內,20,22.577509,120.322038
橋頭地檢署站,經武路與橋新三路交叉口(臨經武路人行道),18,22.739188,120.305053
生日公園站,四維三路與文橫二路交叉口(臨四維三路公園人行道),30,22.617966,120.305523
蚵仔寮觀光魚市站,港七街與魚港一路口,16,22.727122,120.255518
生態園區站(2),原生態園區站自行車舊站人行道旁,4,22.67706,120.306536
長庚醫院站,長庚路上，湖畔星光購物商場與公園路中間,12,22.650448,120.357777
鐵道文化園區站(1),臨海新路臨鐵道園區,2,22.62044,120.277112
鐵道文化園區站(2),臨海新路臨鐵道園區,6,22.620269,120.277544
茄萣海岸公園站,濱海路三段與濱海路四段口(茄萣海岸公園停車場內),18,22.90801,120.17704
中山大學社科院站,中山大學社會科學院與管理學院中間,10,22.625742,120.26535
建民公園站,興昌街與正興路163巷口,24,22.646565,120.318354
前鎮國中站,新衙路上，前鎮國中大門左側,18,22.583112,120.320345
愛河之心站(2),同盟二路上，天津街與重慶街中間,26,22.651675,120.302047
曹公圳公園站,大東二路與和德街口,18,22.620335,120.360163
精華公園站,錦州街與哈爾濱街口,18,22.642316,120.299238
捷運後勁站,加昌路上，捷運後勁1號出入口旁,16,22.722583,120.316493
願景橋站,河西一路與美術東二路口,8,22.65077,120.287537
福山國中站,自由路四路與重信路口,10,22.68113,120.313956
海巡隊站,七賢三路與蓬萊路銜接處,18,22.620589,120.279365
鼓山渡船頭站,濱海二路上，鼓波街與鼓南街中間,14,22.620987,120.270048
五甲公園站,瑞南街與凱興街,4,22.595525,120.321994
三民游泳池站,自由一路與遼寧一街口,20,22.642476,120.308711
美術東二路站,美術東二路與美術東五路口,24,22.659491,120.288197
新民國小站,自由三路與曾子路口,24,22.676383,120.312624
雄鋒公園站,九如四路與九如四路1991巷口,14,22.66754,120.2853
果貿社區站,翠華路與翠峰路口,12,22.67081,120.289827
文府國小站,文府國小側門旁,14,22.691503,120.316115
龍華市場站,高雄市左營區忠言路與富國路，停車場旁,14,22.65838,120.30641
鳳東公園站,鳳東公園旁人行步道（臨鳳東路）,16,22.62665,120.37977
中山大學海工館站,中山大學海工館旁,4,22.62879,120.26266
WO旅店站,七賢二路WO旅店旁,6,22.63087,120.28844
管仲民裕站,民裕街與管仲南路口,28,22.60557,120.31267
楠梓高中站,楠梓高中大門口旁,10,22.7446,120.33132
龍華國中站,龍華國中人行步道（自由二路）,8,22.65713,120.30899
金獅湖橋站,新金獅湖橋旁，鼎金後路與天祥一路口,20,22.66633,120.32522
城市光廊站,"新興區中華路與五福路側,靠近中華路圓環",24,22.62275,120.29926
竹林公園站,竹林公園臨隆豐路側原機車停車格,26,22.756118,120.305734
台鋁站(1),臨成功二路側人行步道,6,22.603362,120.302008
台鋁站(2),臨成功二路側人行步道,12,22.603152,120.302115
家樂福新楠站,量販店大門旁，清豐一路上,24,22.73629,120.33146
輔英科技大學站(2),輔英科技大學校內停車場,4,22.603916,120.391096
右昌森林公園站,右昌森林公園前，加宏路與加宏路156巷口,14,22.7175,120.29495
市立歷史博物館站,歷史博物館旁臨中正四路人行步道,28,22.62636,120.2867
河北立德站,河北二路與立德街運河旁人行步道空間,8,22.635532,120.29494
介壽先鋒站,介壽路與先鋒路口人行步道前空地,8,22.68124,120.28281
步道公園站,高雄市小港區平和西路與鋼成街口,18,22.56442,120.33113
新莊國小站,新庄仔路與自由路口,4,22.668842,120.309522
仁和公園站,仁和公園前人行步道,12,22.6811,120.3518
檨仔林埤濕地公園站,鼎金後路靠近鼎金路420巷人行步道,14,22.670838,120.324777
臺灣高雄少年及家事法院站,常順街，少年及家事法院入口旁人行道,10,22.73261,120.33512
慈濟靜思堂站,河堤南路與自由一路口,4,22.65436,120.30887
民族國中站,民族國中旁，大昌二路與覺民路口,16,22.640612,120.332317
武漢里活動中心站,活動中心西北側廣場(武營路239巷上廣場人行道),6,22.610988,120.33605
大灣國中站,"大灣國中大門右側人行道,臨仁雄路",14,22.67661,120.34195
漁港公園站,林園漁港公園前，占岸路上,20,22.484821,120.399454
八仙公園站,國泰路一段與和興街口,10,22.61557,120.35475
鳳儀書院站,鳳儀書院大門旁,4,22.62748,120.35976
海光兒童公園站,瑞大街與瑞智街交叉口,20,22.631881,120.36827
明誠高中站,明誠高中後門停車場入口旁，華寧路上,16,22.6675,120.29223
鼓山國小站,鼓山國小大門旁，臨海二路與鼓波街口,22,22.623279,120.271726
陽明公園站,陽明公園前，澄和路與澄和路158巷口,18,22.64536,120.34127
空中大學站,空中大學大門旁，大業北路上,22,22.56657,120.3455
鳳山公園站,"公園人行步道,園茂路與園中路交叉口",10,22.59456,120.35774
瑞祥高中站,凱旋四路與班超路口,8,22.60311,120.32405
華夏西北扶輪公園站,重義路與華夏路口,16,22.68662,120.31233
岡山高中站,岡山高中大門旁，公園路上,10,22.797096,120.29073
圖書總館站(2),面對原站址左側擴充,6,22.6106,120.302066
民權少康站,民權二路與少康街口,24,22.60933,120.3131
瑞豐公車總站,瑞隆公車總站前，瑞隆路上,22,22.60614,120.33876
中崙國中站,中崙路與中崙二路口,24,22.60223,120.35337
牛潮埔公園站,北賢街與永忠街口,4,22.64632,120.37048
輕軌凱旋瑞田站,凱旋四路與瑞田街口,6,22.599155,120.319892
永安區休閒公園站,永安區永華路與永安路口,16,22.818683,120.226385
彌陀漁民活動中心站,彌陀區漁會活動中心前，漁港一街與南寮路口,20,22.76143,120.2347
八卦休閒公園站,八卦休閒公園前，八德西路上,12,22.690106,120.337416
大樹舊鐵橋站(2),竹寮路大樹舊鐵橋生態公園機車停車場內,2,22.66458,120.4272
大樹舊鐵橋站(1),竹寮路舊鐵橋遊客中心大門旁,20,22.66209,120.4268
九曲堂火車站(1),九曲堂火車站前，復興街上,0,22.65679,120.42084
九曲堂火車站(2),九曲堂火車站前，復興街上,6,22.656953,120.420897
濱海鼓元站,鼓元街與濱海二路口,10,22.623066,120.269875
鼓山厚德站,鼓山三路6巷與厚德路口,12,22.64616,120.278703
龍勝大順站,龍勝路與大順一路口,30,22.654522,120.295648
左營火車站,新莊一路底，臨公有停車場,18,22.67407,120.29581
屏山國小站,屏山國小大門旁，海功東路上,12,22.69372,120.30194
光武國小站,光武國小旁人行步道(近光武路與九如一路交叉口處),10,22.638186,120.334644
空軍軍史館站,空軍第三後勤指揮部大門旁，介壽西路上,14,22.78448,120.27589
捷運橋頭火車站,捷運橋頭火車站2號出口旁,16,22.76102,120.30996
橋頭地院站,橋頭地院側門出入口右側人行步道,10,22.73764,120.304188
北辰兒童公園站,文龍東路與北辰街15巷口,22,22.64049,120.36525
五甲社區活動中心站,新富路與新富路590巷口,22,22.61514,120.34825
國際商工站,三多二路與凱旋二路口,2,22.62101,120.32574
興仁國中站,德昌路與興仁街口,20,22.58682,120.31382
北昌路站,北昌路與北昌三街口,16,22.64518,120.37258
鳳山火車站(2),面對原站址右側擴充,0,22.63057,120.35826
新泰兒童公園站,新強路上，新國街與新泰街間,18,22.61092,120.34361
瑞豐國中站,公正路與瑞北路口,18,22.6091,120.33057
美都公園站,美都路與十全三路口,14,22.646569,120.289018
中央公園站(3),捷運中央公園站3號出口後方人行步道,4,22.625938,120.301552
輕軌軟體園區站,復興四路與成功二路口,2,22.60517,120.30069
中正預校站,中正預校大門旁，凱旋路上,20,22.607155,120.359701
航空教育展示館站,航空教育展示館大門旁，致遠路上,12,22.79462,120.27131
國昌國中站,國昌國中大門旁，德民路上,18,22.71917,120.285997
自強新田站,"自強三路公有機車停車場出入口,自強三路與新田路交叉口",0,22.620423,120.29733
輕軌旅運中心站,海邊路與永平路交叉口,16,22.6128,120.2921
凱旋醫院站,凱旋醫院大門前，凱旋二路上,24,22.62489,120.32405
鳳山商工站,鳳山商工旁，建國三路上,28,22.63627,120.35689
桂林公園站(1),桂林國小對面，桂陽路上,20,22.581963,120.350604
桂林公園站(2),桂林國小對面，桂陽路上,28,22.581987,120.350347
清水巖榕樹休憩公園站,清水巖榕樹休憩公園入口旁，清水岩路上,18,22.52183,120.39078
鼓山一路站,鼓山一路與鼓山一路119巷口,18,22.627848,120.279371
滷博館站,岡山區本洲五街與本洲六街口,16,22.81849,120.26778
臨海兒童公園站,臨海兒童公園內，東亞南路轉彎處,16,22.5582,120.33553
中崙公園站,中崙公共托嬰中心旁，中崙五路上,8,22.59713,120.35371
岡山火車站,岡山火車站前，中山北路上,16,22.79291,120.29933
輕軌真愛碼頭站,公園二路與輕軌C11站出入口,12,22.619799,120.288904
輕軌前鎮之星站,"捷運凱旋站1號出口旁人行道,中山三路上",2,22.59634,120.31537
高雄後火車站(1),九如二路與松江街,28,22.641065,120.303608
高雄後火車站(2),九如二路與松江街,16,22.640956,120.303587
大義國中站,大義國中旁人行道,12,22.674512,120.293163
美術館火車站,美術館火車站對面公園人行道,18,22.652038,120.281111
輕軌光榮碼頭站,青年路和海邊路交叉口處,8,22.617278,120.293559
內惟火車站,內惟火車站對面公園人行道(翠華路上),6,22.666149,120.286779
凹子底站(2),原凹仔底自行車舊站人行道旁(博愛二路與至聖路),8,22.659107,120.302831
路竹夜市站,民富街和民強街(公有停車場),12,22.853701,120.262653
油廠國小站,左楠路與後昌路西南方人行道(油廠國小捷運站1號出口對面人行道),8,22.707728,120.301772
九番埤濕地公園站,霞海路-九番埤濕地公園門口人行道旁(霞海路近霞海東一街公園),14,22.685818,120.324581
民族火車站,凱旋一路民族火車站旁機車停車場內,30,22.638699,120.315209
科工館火車站,科工館火車站旁機車停車場內(近大順三路305巷與樂仁路125巷6弄),24,22.637178,120.325194
鼓山火車站,鼓山火車站旁人行道(鐵路街20巷),14,22.642038,120.280524
高科運動公園站,路科二路南向人行道旁(近路科二路與路科五路人行道),16,22.828138,120.256706
高雄車站,國光客運前空地,28,22.637821,120.303665
路竹高中站,路竹高中前人行步道,14,22.854928,120.252892
